Phoneme,InventoryID,Glottocode,ISO6393,LanguageName,SpecificDialect,GlyphID,Allophones,Marginal,SegmentClass,Source,tone,stress,syllabic,short,long,consonantal,sonorant,continuant,delayedRelease,approximant,tap,trill,nasal,lateral,labial,round,labiodental,coronal,anterior,distributed,strident,dorsal,high,low,front,back,tense,retractedTongueRoot,advancedTongueRoot,periodicGlottalSource,epilaryngealSource,spreadGlottis,constrictedGlottis,fortis,raisedLarynxEjective,loweredLarynxImplosive,click,comments
a̰ː,1,kore1280,kor,NA,NA,0061+0330+02D0,NA,FALSE,vowel,fake,0,-,+,-,+,-,+,+,0,+,-,-,-,-,-,0,0,-,0,0,0,+,-,+,-,-,0,-,-,+,-,-,+,0,-,-,0,
d̪̰,1,kore1280,kor,NA,NA,0064+032A+0330,NA,FALSE,consonant,fake,0,-,-,-,-,+,-,-,-,-,-,-,-,-,-,0,0,+,+,+,-,-,0,0,0,0,0,0,0,+,-,-,+,-,-,-,-,
ɤi̯,1,kore1280,kor,NA,NA,0264+0069+032F,NA,FALSE,vowel,fake,0,-,"+,-",-,-,-,+,+,0,+,-,-,-,-,-,0,0,-,0,0,0,+,"-,+",-,"-,+","+,-",+,-,-,+,-,-,-,0,-,-,0,
ɤu̯,1,kore1280,kor,NA,NA,0264+0075+032F,NA,FALSE,vowel,fake,0,-,"+,-",-,-,-,+,+,0,+,-,-,-,-,"-,+",+,-,-,0,0,0,+,"-,+",-,-,+,+,-,-,+,-,-,-,0,-,-,0,
ɔə̯,1,kore1280,kor,NA,NA,0254+0259+032F,NA,FALSE,vowel,fake,0,-,"+,-",-,-,-,+,+,0,+,-,-,-,-,"+,-",+,-,-,0,0,0,+,-,-,-,"+,-",-,-,-,+,-,-,-,0,-,-,0,
u̯ə,1,kore1280,kor,NA,NA,0075+032F+0259,NA,FALSE,vowel,fake,0,-,"-,+",-,-,-,+,+,0,+,-,-,-,-,"+,-",+,-,-,0,0,0,+,"+,-",-,-,"+,-","+,-",-,-,+,-,-,-,0,-,-,0,
ɯi̯,1,kore1280,kor,NA,NA,026F+0069+032F,NA,FALSE,vowel,fake,0,-,"+,-",-,-,-,+,+,0,+,-,-,-,-,-,0,0,-,0,0,0,+,+,-,"-,+","+,-",+,-,-,+,-,-,-,0,-,-,0,
ɯˀ,1,kore1280,kor,NA,NA,026F+02C0,NA,FALSE,vowel,fake,0,-,+,-,-,-,+,+,0,+,-,-,-,-,-,0,0,-,0,0,0,+,+,-,-,+,+,-,-,+,-,-,+,0,-,-,0,
n̪͆,1,kore1280,kor,NA,NA,006E+032A,NA,FALSE,consonant,fake,0,-,-,-,-,+,+,-,0,-,-,-,+,-,-,0,0,+,+,+,-,-,0,0,0,0,0,0,0,+,-,-,-,-,-,-,-,merge interdentals with dentals for now
ⁿd̪͆,1,kore1280,kor,NA,NA,006E+032A+0064+032A,NA,FALSE,consonant,fake,0,-,-,-,-,+,"+,-",-,-,-,-,-,"+,-",-,-,0,0,+,+,+,-,-,0,0,0,0,0,0,0,+,-,-,-,-,-,-,-,merge interdentals with dentals for now
t̪͆,1,kore1280,kor,NA,NA,0074+032A,NA,FALSE,consonant,fake,0,-,-,-,-,+,-,-,-,-,-,-,-,-,-,0,0,+,+,+,-,-,0,0,0,0,0,0,0,-,-,-,-,-,-,-,-,merge interdentals with dentals for now
w͓,1,kore1280,kor,NA,NA,03B2+02B7+02E0,NA,FALSE,consonant,fake,0,-,-,-,-,+,-,+,+,-,-,-,-,-,+,+,-,-,0,0,0,+,+,-,-,-,0,0,0,+,-,-,-,-,-,-,-,this is sort of fake but we'll call it βˠʷ
↑˥,1,kore1280,kor,NA,NA,1.00E+00,NA,FALSE,tone,fake,+,0,0,0,0,0,0,0,0,0,0,0,0,0,0,0,0,0,0,0,0,0,0,0,0,0,0,0,0,0,0,0,0,0,0,0,0,ignore foostep
˦↑,1,kore1280,kor,NA,NA,1.00E+01,NA,FALSE,tone,fake,+,0,0,0,0,0,0,0,0,0,0,0,0,0,0,0,0,0,0,0,0,0,0,0,0,0,0,0,0,0,0,0,0,0,0,0,0,ignore foostep
↓˩,1,kore1280,kor,NA,NA,34,NA,FALSE,tone,fake,+,0,0,0,0,0,0,0,0,0,0,0,0,0,0,0,0,0,0,0,0,0,0,0,0,0,0,0,0,0,0,0,0,0,0,0,0,ignore foostep
˨↓,1,kore1280,kor,NA,NA,24,NA,FALSE,tone,fake,+,0,0,0,0,0,0,0,0,0,0,0,0,0,0,0,0,0,0,0,0,0,0,0,0,0,0,0,0,0,0,0,0,0,0,0,0,ignore foostep
˥,1,kore1280,kor,NA,NA,1.00E+00,NA,FALSE,tone,fake,+,0,0,0,0,0,0,0,0,0,0,0,0,0,0,0,0,0,0,0,0,0,0,0,0,0,0,0,0,0,0,0,0,0,0,0,0,
˥̰,1,kore1280,kor,NA,NA,2,NA,FALSE,tone,fake,+,0,0,0,0,0,0,0,0,0,0,0,0,0,0,0,0,0,0,0,0,0,0,0,0,0,0,0,0,+,0,-,+,0,0,0,0,
˥˦ˀ,1,kore1280,kor,NA,NA,3,NA,FALSE,tone,fake,+,0,0,0,0,0,0,0,0,0,0,0,0,0,0,0,0,0,0,0,0,0,0,0,0,0,0,0,0,0,0,-,+,0,0,0,0,
˥˧,1,kore1280,kor,NA,NA,4,NA,FALSE,tone,fake,+,0,0,0,0,0,0,0,0,0,0,0,0,0,0,0,0,0,0,0,0,0,0,0,0,0,0,0,0,0,0,0,0,0,0,0,0,
˥˨,1,kore1280,kor,NA,NA,5,NA,FALSE,tone,fake,+,0,0,0,0,0,0,0,0,0,0,0,0,0,0,0,0,0,0,0,0,0,0,0,0,0,0,0,0,0,0,0,0,0,0,0,0,
˥˨ˀ,1,kore1280,kor,NA,NA,6,NA,FALSE,tone,fake,+,0,0,0,0,0,0,0,0,0,0,0,0,0,0,0,0,0,0,0,0,0,0,0,0,0,0,0,0,0,0,-,+,0,0,0,0,
˥˩,1,kore1280,kor,NA,NA,7,NA,FALSE,tone,fake,+,0,0,0,0,0,0,0,0,0,0,0,0,0,0,0,0,0,0,0,0,0,0,0,0,0,0,0,0,0,0,0,0,0,0,0,0,
˥˩̰,1,kore1280,kor,NA,NA,8,NA,FALSE,tone,fake,+,0,0,0,0,0,0,0,0,0,0,0,0,0,0,0,0,0,0,0,0,0,0,0,0,0,0,0,0,+,0,-,+,0,0,0,0,
˥ˀ,1,kore1280,kor,NA,NA,9,NA,FALSE,tone,fake,+,0,0,0,0,0,0,0,0,0,0,0,0,0,0,0,0,0,0,0,0,0,0,0,0,0,0,0,0,0,0,-,+,0,0,0,0,
˦,1,kore1280,kor,NA,NA,1.00E+01,NA,FALSE,tone,fake,+,0,0,0,0,0,0,0,0,0,0,0,0,0,0,0,0,0,0,0,0,0,0,0,0,0,0,0,0,0,0,0,0,0,0,0,0,
˦̰,1,kore1280,kor,NA,NA,11,NA,FALSE,tone,fake,+,0,0,0,0,0,0,0,0,0,0,0,0,0,0,0,0,0,0,0,0,0,0,0,0,0,0,0,0,+,0,-,+,0,0,0,0,
˦˥˩,1,kore1280,kor,NA,NA,12,NA,FALSE,tone,fake,+,0,0,0,0,0,0,0,0,0,0,0,0,0,0,0,0,0,0,0,0,0,0,0,0,0,0,0,0,0,0,0,0,0,0,0,0,
˦˨,1,kore1280,kor,NA,NA,13,NA,FALSE,tone,fake,+,0,0,0,0,0,0,0,0,0,0,0,0,0,0,0,0,0,0,0,0,0,0,0,0,0,0,0,0,0,0,0,0,0,0,0,0,
˦˨̰,1,kore1280,kor,NA,NA,14,NA,FALSE,tone,fake,+,0,0,0,0,0,0,0,0,0,0,0,0,0,0,0,0,0,0,0,0,0,0,0,0,0,0,0,0,+,0,-,+,0,0,0,0,
˦˨ˀ,1,kore1280,kor,NA,NA,15,NA,FALSE,tone,fake,+,0,0,0,0,0,0,0,0,0,0,0,0,0,0,0,0,0,0,0,0,0,0,0,0,0,0,0,0,0,0,-,+,0,0,0,0,
˦˩̤,1,kore1280,kor,NA,NA,16,NA,FALSE,tone,fake,+,0,0,0,0,0,0,0,0,0,0,0,0,0,0,0,0,0,0,0,0,0,0,0,0,0,0,0,0,+,0,+,-,0,0,0,0,
˧,1,kore1280,kor,NA,NA,17,NA,FALSE,tone,fake,+,0,0,0,0,0,0,0,0,0,0,0,0,0,0,0,0,0,0,0,0,0,0,0,0,0,0,0,0,0,0,0,0,0,0,0,0,
˧̤,1,kore1280,kor,NA,NA,18,NA,FALSE,tone,fake,+,0,0,0,0,0,0,0,0,0,0,0,0,0,0,0,0,0,0,0,0,0,0,0,0,0,0,0,0,+,0,+,-,0,0,0,0,
˧˥,1,kore1280,kor,NA,NA,1.90E+01,NA,FALSE,tone,fake,+,0,0,0,0,0,0,0,0,0,0,0,0,0,0,0,0,0,0,0,0,0,0,0,0,0,0,0,0,0,0,0,0,0,0,0,0,
˧˥˩,1,kore1280,kor,NA,NA,20,NA,FALSE,tone,fake,+,0,0,0,0,0,0,0,0,0,0,0,0,0,0,0,0,0,0,0,0,0,0,0,0,0,0,0,0,0,0,0,0,0,0,0,0,
˧˩,1,kore1280,kor,NA,NA,21,NA,FALSE,tone,fake,+,0,0,0,0,0,0,0,0,0,0,0,0,0,0,0,0,0,0,0,0,0,0,0,0,0,0,0,0,0,0,0,0,0,0,0,0,
˧˩̤,1,kore1280,kor,NA,NA,22,NA,FALSE,tone,fake,+,0,0,0,0,0,0,0,0,0,0,0,0,0,0,0,0,0,0,0,0,0,0,0,0,0,0,0,0,+,0,+,-,0,0,0,0,
˧˩˧̤,1,kore1280,kor,NA,NA,23,NA,FALSE,tone,fake,+,0,0,0,0,0,0,0,0,0,0,0,0,0,0,0,0,0,0,0,0,0,0,0,0,0,0,0,0,+,0,+,-,0,0,0,0,
˨,1,kore1280,kor,NA,NA,24,NA,FALSE,tone,fake,+,0,0,0,0,0,0,0,0,0,0,0,0,0,0,0,0,0,0,0,0,0,0,0,0,0,0,0,0,0,0,0,0,0,0,0,0,
˨̤,1,kore1280,kor,NA,NA,25,NA,FALSE,tone,fake,+,0,0,0,0,0,0,0,0,0,0,0,0,0,0,0,0,0,0,0,0,0,0,0,0,0,0,0,0,+,0,+,-,0,0,0,0,
˨˥,1,kore1280,kor,NA,NA,26,NA,FALSE,tone,fake,+,0,0,0,0,0,0,0,0,0,0,0,0,0,0,0,0,0,0,0,0,0,0,0,0,0,0,0,0,0,0,0,0,0,0,0,0,
˨˦,1,kore1280,kor,NA,NA,27,NA,FALSE,tone,fake,+,0,0,0,0,0,0,0,0,0,0,0,0,0,0,0,0,0,0,0,0,0,0,0,0,0,0,0,0,0,0,0,0,0,0,0,0,
˨˧,1,kore1280,kor,NA,NA,2.80E+01,NA,FALSE,tone,fake,+,0,0,0,0,0,0,0,0,0,0,0,0,0,0,0,0,0,0,0,0,0,0,0,0,0,0,0,0,0,0,0,0,0,0,0,0,
˨˩,1,kore1280,kor,NA,NA,29,NA,FALSE,tone,fake,+,0,0,0,0,0,0,0,0,0,0,0,0,0,0,0,0,0,0,0,0,0,0,0,0,0,0,0,0,0,0,0,0,0,0,0,0,
˨˩̠,1,kore1280,kor,NA,NA,30,NA,FALSE,tone,fake,+,0,0,0,0,0,0,0,0,0,0,0,0,0,0,0,0,0,-,+,0,0,0,0,0,0,0,0,0,0,0,0,0,0,0,0,0,
˨˩̤,1,kore1280,kor,NA,NA,31,NA,FALSE,tone,fake,+,0,0,0,0,0,0,0,0,0,0,0,0,0,0,0,0,0,0,0,0,0,0,0,0,0,0,0,0,+,0,+,-,0,0,0,0,
˨˩ˀ,1,kore1280,kor,NA,NA,32,NA,FALSE,tone,fake,+,0,0,0,0,0,0,0,0,0,0,0,0,0,0,0,0,0,0,0,0,0,0,0,0,0,0,0,0,0,0,-,+,0,0,0,0,
˨˩̰ˀ,1,kore1280,kor,NA,NA,33,NA,FALSE,tone,fake,+,0,0,0,0,0,0,0,0,0,0,0,0,0,0,0,0,0,0,0,0,0,0,0,0,0,0,0,0,+,0,-,+,0,0,0,0,
˩,1,kore1280,kor,NA,NA,34,NA,FALSE,tone,fake,+,0,0,0,0,0,0,0,0,0,0,0,0,0,0,0,0,0,0,0,0,0,0,0,0,0,0,0,0,0,0,0,0,0,0,0,0,
˩˥,1,kore1280,kor,NA,NA,35,NA,FALSE,tone,fake,+,0,0,0,0,0,0,0,0,0,0,0,0,0,0,0,0,0,0,0,0,0,0,0,0,0,0,0,0,0,0,0,0,0,0,0,0,
˩˥˩,1,kore1280,kor,NA,NA,36,NA,FALSE,tone,fake,+,0,0,0,0,0,0,0,0,0,0,0,0,0,0,0,0,0,0,0,0,0,0,0,0,0,0,0,0,0,0,0,0,0,0,0,0,
˩˨,1,kore1280,kor,NA,NA,3.70E+01,NA,FALSE,tone,fake,+,0,0,0,0,0,0,0,0,0,0,0,0,0,0,0,0,0,0,0,0,0,0,0,0,0,0,0,0,0,0,0,0,0,0,0,0,
˩˨̤,1,kore1280,kor,NA,NA,38,NA,FALSE,tone,fake,+,0,0,0,0,0,0,0,0,0,0,0,0,0,0,0,0,0,0,0,0,0,0,0,0,0,0,0,0,+,0,+,-,0,0,0,0,
˩ˀ,1,kore1280,kor,NA,NA,39,NA,FALSE,tone,fake,+,0,0,0,0,0,0,0,0,0,0,0,0,0,0,0,0,0,0,0,0,0,0,0,0,0,0,0,0,0,0,-,+,0,0,0,0,
a,1,kore1280,kor,NA,NA,40,NA,FALSE,vowel,fake,0,-,+,-,-,-,+,+,0,+,-,-,-,-,-,0,0,-,0,0,0,+,-,+,-,-,0,-,-,+,-,-,-,0,-,-,0,
ă,1,kore1280,kor,NA,NA,41,NA,FALSE,vowel,fake,0,-,+,+,-,-,+,+,0,+,-,-,-,-,-,0,0,-,0,0,0,+,-,+,-,-,0,-,-,+,-,-,-,0,-,-,0,
ã,1,kore1280,kor,NA,NA,42,NA,FALSE,vowel,fake,0,-,+,-,-,-,+,+,0,+,-,-,+,-,-,0,0,-,0,0,0,+,-,+,-,-,0,-,-,+,-,-,-,0,-,-,0,
a̯,1,kore1280,kor,NA,NA,43,NA,FALSE,vowel,fake,0,-,-,-,-,-,+,+,0,+,-,-,-,-,-,0,0,-,0,0,0,+,-,+,-,-,0,-,-,+,-,-,-,0,-,-,0,
a̤,1,kore1280,kor,NA,NA,44,NA,FALSE,vowel,fake,0,-,+,-,-,-,+,+,0,+,-,-,-,-,-,0,0,-,0,0,0,+,-,+,-,-,0,-,-,+,-,+,-,0,-,-,0,
ã̤,1,kore1280,kor,NA,NA,45,NA,FALSE,vowel,fake,0,-,+,-,-,-,+,+,0,+,-,-,+,-,-,0,0,-,0,0,0,+,-,+,-,-,0,-,-,+,-,+,-,0,-,-,0,
ḁ,1,kore1280,kor,NA,NA,4.60E+01,NA,FALSE,vowel,fake,0,-,+,-,-,-,+,+,0,+,-,-,-,-,-,0,0,-,0,0,0,+,-,+,-,-,0,-,-,-,-,-,-,0,-,-,0,
a̰,1,kore1280,kor,NA,NA,47,NA,FALSE,vowel,fake,0,-,+,-,-,-,+,+,0,+,-,-,-,-,-,0,0,-,0,0,0,+,-,+,-,-,0,-,-,+,-,-,+,0,-,-,0,
ã̰,1,kore1280,kor,NA,NA,48,NA,FALSE,vowel,fake,0,-,+,-,-,-,+,+,0,+,-,-,+,-,-,0,0,-,0,0,0,+,-,+,-,-,0,-,-,+,-,-,+,0,-,-,0,
aː,1,kore1280,kor,NA,NA,49,NA,FALSE,vowel,fake,0,-,+,-,+,-,+,+,0,+,-,-,-,-,-,0,0,-,0,0,0,+,-,+,-,-,0,-,-,+,-,-,-,0,-,-,0,
ãː,1,kore1280,kor,NA,NA,50,NA,FALSE,vowel,fake,0,-,+,-,+,-,+,+,0,+,-,-,+,-,-,0,0,-,0,0,0,+,-,+,-,-,0,-,-,+,-,-,-,0,-,-,0,
a̤ː,1,kore1280,kor,NA,NA,51,NA,FALSE,vowel,fake,0,-,+,-,+,-,+,+,0,+,-,-,-,-,-,0,0,-,0,0,0,+,-,+,-,-,0,-,-,+,-,+,-,0,-,-,0,
ã̤ː,1,kore1280,kor,NA,NA,52,NA,FALSE,vowel,fake,0,-,+,-,+,-,+,+,0,+,-,-,+,-,-,0,0,-,0,0,0,+,-,+,-,-,0,-,-,+,-,+,-,0,-,-,0,
aːi̯,1,kore1280,kor,NA,NA,53,NA,FALSE,vowel,fake,0,-,"+,-",-,"+,-",-,+,+,0,+,-,-,-,-,-,0,0,-,0,0,0,+,"-,+","+,-","-,+",-,+,-,-,+,-,-,-,0,-,-,0,
aːu̯,1,kore1280,kor,NA,NA,54,NA,FALSE,vowel,fake,0,-,"+,-",-,"+,-",-,+,+,0,+,-,-,-,-,"-,+",+,-,-,0,0,0,+,"-,+","+,-",-,"-,+",+,-,-,+,-,-,-,0,-,-,0,
ae,1,kore1280,kor,NA,NA,5.50E+01,NA,FALSE,vowel,fake,0,-,+,-,-,-,+,+,0,+,-,-,-,-,-,0,0,-,0,0,0,+,-,"+,-","-,+",-,+,-,-,+,-,-,-,0,-,-,0,
ae̯,1,kore1280,kor,NA,NA,56,NA,FALSE,vowel,fake,0,-,"+,-",-,-,-,+,+,0,+,-,-,-,-,-,0,0,-,0,0,0,+,-,"+,-","-,+",-,+,-,-,+,-,-,-,0,-,-,0,
ãẽ̯,1,kore1280,kor,NA,NA,57,NA,FALSE,vowel,fake,0,-,"+,-",-,-,-,+,+,0,+,-,-,+,-,-,0,0,-,0,0,0,+,-,"+,-","-,+",-,+,-,-,+,-,-,-,0,-,-,0,
æ,1,kore1280,kor,NA,NA,58,NA,FALSE,vowel,fake,0,-,+,-,-,-,+,+,0,+,-,-,-,-,-,0,0,-,0,0,0,+,-,+,+,-,0,-,-,+,-,-,-,0,-,-,0,
æʵ,1,kore1280,kor,NA,NA,59,NA,FALSE,vowel,fake,0,-,+,-,-,-,+,+,0,+,-,-,-,-,-,0,0,+,+,+,+,+,-,+,+,-,0,-,-,+,-,-,-,0,-,-,0,
æʵː,1,kore1280,kor,NA,NA,60,NA,FALSE,vowel,fake,0,-,+,-,+,-,+,+,0,+,-,-,-,-,-,0,0,+,+,+,+,+,-,+,+,-,0,-,-,+,-,-,-,0,-,-,0,
æː,1,kore1280,kor,NA,NA,61,NA,FALSE,vowel,fake,0,-,+,-,+,-,+,+,0,+,-,-,-,-,-,0,0,-,0,0,0,+,-,+,+,-,0,-,-,+,-,-,-,0,-,-,0,
æ̃ː,1,kore1280,kor,NA,NA,62,NA,FALSE,vowel,fake,0,-,+,-,+,-,+,+,0,+,-,-,+,-,-,0,0,-,0,0,0,+,-,+,+,-,0,-,-,+,-,-,-,0,-,-,0,
æe̯,1,kore1280,kor,NA,NA,63,NA,FALSE,vowel,fake,0,-,"+,-",-,-,-,+,+,0,+,-,-,-,-,-,0,0,-,0,0,0,+,-,"+,-",+,-,+,-,-,+,-,-,-,0,-,-,0,
æi,1,kore1280,kor,NA,NA,6.40E+01,NA,FALSE,vowel,fake,0,-,+,-,-,-,+,+,0,+,-,-,-,-,-,0,0,-,0,0,0,+,"-,+","+,-",+,-,+,-,-,+,-,-,-,0,-,-,0,
æi̯,1,kore1280,kor,NA,NA,65,NA,FALSE,vowel,fake,0,-,"+,-",-,-,-,+,+,0,+,-,-,-,-,-,0,0,-,0,0,0,+,"-,+","+,-",+,-,+,-,-,+,-,-,-,0,-,-,0,
æu,1,kore1280,kor,NA,NA,66,NA,FALSE,vowel,fake,0,-,+,-,-,-,+,+,0,+,-,-,-,-,"-,+",+,-,-,0,0,0,+,"-,+","+,-","+,-","-,+",+,-,-,+,-,-,-,0,-,-,0,
æu̯,1,kore1280,kor,NA,NA,67,NA,FALSE,vowel,fake,0,-,"+,-",-,-,-,+,+,0,+,-,-,-,-,"-,+",+,-,-,0,0,0,+,"-,+","+,-","+,-","-,+",+,-,-,+,-,-,-,0,-,-,0,
aɛ,1,kore1280,kor,NA,NA,68,NA,FALSE,vowel,fake,0,-,+,-,-,-,+,+,0,+,-,-,-,-,-,0,0,-,0,0,0,+,-,"+,-","-,+",-,-,-,-,+,-,-,-,0,-,-,0,
ai,1,kore1280,kor,NA,NA,69,NA,FALSE,vowel,fake,0,-,+,-,-,-,+,+,0,+,-,-,-,-,-,0,0,-,0,0,0,+,"-,+","+,-","-,+",-,+,-,-,+,-,-,-,0,-,-,0,
ai̯,1,kore1280,kor,NA,NA,70,NA,FALSE,vowel,fake,0,-,"+,-",-,-,-,+,+,0,+,-,-,-,-,-,0,0,-,0,0,0,+,"-,+","+,-","-,+",-,+,-,-,+,-,-,-,0,-,-,0,
ãi,1,kore1280,kor,NA,NA,71,NA,FALSE,vowel,fake,0,-,+,-,-,-,+,+,0,+,-,-,"+,-",-,-,0,0,-,0,0,0,+,"-,+","+,-","-,+",-,+,-,-,+,-,-,-,0,-,-,0,
ãi̯,1,kore1280,kor,NA,NA,72,NA,FALSE,vowel,fake,0,-,"+,-",-,-,-,+,+,0,+,-,-,"+,-",-,-,0,0,-,0,0,0,+,"-,+","+,-","-,+",-,+,-,-,+,-,-,-,0,-,-,0,
ãĩ̯,1,kore1280,kor,NA,NA,7.30E+01,NA,FALSE,vowel,fake,0,-,"+,-",-,-,-,+,+,0,+,-,-,+,-,-,0,0,-,0,0,0,+,"-,+","+,-","-,+",-,+,-,-,+,-,-,-,0,-,-,0,
aɪ,1,kore1280,kor,NA,NA,74,NA,FALSE,vowel,fake,0,-,+,-,-,-,+,+,0,+,-,-,-,-,-,0,0,-,0,0,0,+,"-,+","+,-","-,+",-,-,-,-,+,-,-,-,0,-,-,0,
ãɪ,1,kore1280,kor,NA,NA,75,NA,FALSE,vowel,fake,0,-,+,-,-,-,+,+,0,+,-,-,"+,-",-,-,0,0,-,0,0,0,+,"-,+","+,-","-,+",-,-,-,-,+,-,-,-,0,-,-,0,
ã̤ɪ,1,kore1280,kor,NA,NA,76,NA,FALSE,vowel,fake,0,-,+,-,-,-,+,+,0,+,-,-,"+,-",-,-,0,0,-,0,0,0,+,"-,+","+,-","-,+",-,-,-,-,+,-,"+,-",-,0,-,-,0,
ã̰ɪ,1,kore1280,kor,NA,NA,77,NA,FALSE,vowel,fake,0,-,+,-,-,-,+,+,0,+,-,-,"+,-",-,-,0,0,-,0,0,0,+,"-,+","+,-","-,+",-,-,-,-,+,-,-,"+,-",0,-,-,0,
aɪˀ,1,kore1280,kor,NA,NA,78,NA,FALSE,vowel,fake,0,-,+,-,-,-,+,+,0,+,-,-,-,-,-,0,0,-,0,0,0,+,"-,+","+,-","-,+",-,-,-,-,+,-,-,"-,+",0,-,-,0,
ao,1,kore1280,kor,NA,NA,79,NA,FALSE,vowel,fake,0,-,+,-,-,-,+,+,0,+,-,-,-,-,"-,+",+,-,-,0,0,0,+,-,"+,-",-,"-,+",+,-,-,+,-,-,-,0,-,-,0,
ao̯,1,kore1280,kor,NA,NA,80,NA,FALSE,vowel,fake,0,-,"+,-",-,-,-,+,+,0,+,-,-,-,-,"-,+",+,-,-,0,0,0,+,-,"+,-",-,"-,+",+,-,-,+,-,-,-,0,-,-,0,
ão,1,kore1280,kor,NA,NA,81,NA,FALSE,vowel,fake,0,-,+,-,-,-,+,+,0,+,-,-,"+,-",-,"-,+",+,-,-,0,0,0,+,-,"+,-",-,"-,+",+,-,-,+,-,-,-,0,-,-,0,
ão̯,1,kore1280,kor,NA,NA,8.20E+01,NA,FALSE,vowel,fake,0,-,"+,-",-,-,-,+,+,0,+,-,-,"+,-",-,"-,+",+,-,-,0,0,0,+,-,"+,-",-,"-,+",+,-,-,+,-,-,-,0,-,-,0,
ãõ̯,1,kore1280,kor,NA,NA,83,NA,FALSE,vowel,fake,0,-,"+,-",-,-,-,+,+,0,+,-,-,+,-,"-,+",+,-,-,0,0,0,+,-,"+,-",-,"-,+",+,-,-,+,-,-,-,0,-,-,0,
au,1,kore1280,kor,NA,NA,84,NA,FALSE,vowel,fake,0,-,+,-,-,-,+,+,0,+,-,-,-,-,"-,+",+,-,-,0,0,0,+,"-,+","+,-",-,"-,+",+,-,-,+,-,-,-,0,-,-,0,
au̯,1,kore1280,kor,NA,NA,85,NA,FALSE,vowel,fake,0,-,"+,-",-,-,-,+,+,0,+,-,-,-,-,"-,+",+,-,-,0,0,0,+,"-,+","+,-",-,"-,+",+,-,-,+,-,-,-,0,-,-,0,
ãũ̯,1,kore1280,kor,NA,NA,86,NA,FALSE,vowel,fake,0,-,"+,-",-,-,-,+,+,0,+,-,-,+,-,"-,+",+,-,-,0,0,0,+,"-,+","+,-",-,"-,+",+,-,-,+,-,-,-,0,-,-,0,
aʊ̯,1,kore1280,kor,NA,NA,87,NA,FALSE,vowel,fake,0,-,"+,-",-,-,-,+,+,0,+,-,-,-,-,"-,+",+,-,-,0,0,0,+,"-,+","+,-",-,"-,+",-,-,-,+,-,-,-,0,-,-,0,
ãʊ,1,kore1280,kor,NA,NA,88,NA,FALSE,vowel,fake,0,-,+,-,-,-,+,+,0,+,-,-,"+,-",-,"-,+",+,-,-,0,0,0,+,"-,+","+,-",-,"-,+",-,-,-,+,-,-,-,0,-,-,0,
ã̤ʊ,1,kore1280,kor,NA,NA,89,NA,FALSE,vowel,fake,0,-,+,-,-,-,+,+,0,+,-,-,"+,-",-,"-,+",+,-,-,0,0,0,+,"-,+","+,-",-,"-,+",-,-,-,+,-,"+,-",-,0,-,-,0,
ã̰ʊ,1,kore1280,kor,NA,NA,90,NA,FALSE,vowel,fake,0,-,+,-,-,-,+,+,0,+,-,-,"+,-",-,"-,+",+,-,-,0,0,0,+,"-,+","+,-",-,"-,+",-,-,-,+,-,-,"+,-",0,-,-,0,
aʊˀ,1,kore1280,kor,NA,NA,9.10E+01,NA,FALSE,vowel,fake,0,-,+,-,-,-,+,+,0,+,-,-,-,-,"-,+",+,-,-,0,0,0,+,"-,+","+,-",-,"-,+",-,-,-,+,-,-,"-,+",0,-,-,0,
aˀ,1,kore1280,kor,NA,NA,92,NA,FALSE,vowel,fake,0,-,+,-,-,-,+,+,0,+,-,-,-,-,-,0,0,-,0,0,0,+,-,+,-,-,0,-,-,+,-,-,+,0,-,-,0,
ɐ,1,kore1280,kor,NA,NA,93,NA,FALSE,vowel,fake,0,-,+,-,-,-,+,+,0,+,-,-,-,-,+,+,-,-,0,0,0,+,-,+,-,-,0,-,-,+,-,-,-,0,-,-,0,
ɐ̆,1,kore1280,kor,NA,NA,94,NA,FALSE,vowel,fake,0,-,+,+,-,-,+,+,0,+,-,-,-,-,+,+,-,-,0,0,0,+,-,+,-,-,0,-,-,+,-,-,-,0,-,-,0,
ɐ̃,1,kore1280,kor,NA,NA,95,NA,FALSE,vowel,fake,0,-,+,-,-,-,+,+,0,+,-,-,+,-,+,+,-,-,0,0,0,+,-,+,-,-,0,-,-,+,-,-,-,0,-,-,0,
ɐː,1,kore1280,kor,NA,NA,96,NA,FALSE,vowel,fake,0,-,+,-,+,-,+,+,0,+,-,-,-,-,+,+,-,-,0,0,0,+,-,+,-,-,0,-,-,+,-,-,-,0,-,-,0,
ɐe̯,1,kore1280,kor,NA,NA,97,NA,FALSE,vowel,fake,0,-,"+,-",-,-,-,+,+,0,+,-,-,-,-,"+,-",+,-,-,0,0,0,+,-,"+,-","-,+",-,+,-,-,+,-,-,-,0,-,-,0,
ɐi,1,kore1280,kor,NA,NA,98,NA,FALSE,vowel,fake,0,-,+,-,-,-,+,+,0,+,-,-,-,-,"+,-",+,-,-,0,0,0,+,"-,+","+,-","-,+",-,+,-,-,+,-,-,-,0,-,-,0,
ɐi̯,1,kore1280,kor,NA,NA,99,NA,FALSE,vowel,fake,0,-,"+,-",-,-,-,+,+,0,+,-,-,-,-,"+,-",+,-,-,0,0,0,+,"-,+","+,-","-,+",-,+,-,-,+,-,-,-,0,-,-,0,
ɐu,1,kore1280,kor,NA,NA,1.00E+02,NA,FALSE,vowel,fake,0,-,+,-,-,-,+,+,0,+,-,-,-,-,+,+,-,-,0,0,0,+,"-,+","+,-",-,"-,+",+,-,-,+,-,-,-,0,-,-,0,
ɐu̯,1,kore1280,kor,NA,NA,101,NA,FALSE,vowel,fake,0,-,"+,-",-,-,-,+,+,0,+,-,-,-,-,+,+,-,-,0,0,0,+,"-,+","+,-",-,"-,+",+,-,-,+,-,-,-,0,-,-,0,
ɑ,1,kore1280,kor,NA,NA,102,NA,FALSE,vowel,fake,0,-,+,-,-,-,+,+,0,+,-,-,-,-,-,0,0,-,0,0,0,+,-,+,-,+,0,-,-,+,-,-,-,0,-,-,0,
ɑ̃,1,kore1280,kor,NA,NA,103,NA,FALSE,vowel,fake,0,-,+,-,-,-,+,+,0,+,-,-,+,-,-,0,0,-,0,0,0,+,-,+,-,+,0,-,-,+,-,-,-,0,-,-,0,
ɑ̤,1,kore1280,kor,NA,NA,104,NA,FALSE,vowel,fake,0,-,+,-,-,-,+,+,0,+,-,-,-,-,-,0,0,-,0,0,0,+,-,+,-,+,0,-,-,+,-,+,-,0,-,-,0,
ɑ̤̃,1,kore1280,kor,NA,NA,105,NA,FALSE,vowel,fake,0,-,+,-,-,-,+,+,0,+,-,-,+,-,-,0,0,-,0,0,0,+,-,+,-,+,0,-,-,+,-,+,-,0,-,-,0,
ɑʵ,1,kore1280,kor,NA,NA,106,NA,FALSE,vowel,fake,0,-,+,-,-,-,+,+,0,+,-,-,-,-,-,0,0,+,+,+,+,+,-,+,-,+,0,-,-,+,-,-,-,0,-,-,0,
ɑʵː,1,kore1280,kor,NA,NA,107,NA,FALSE,vowel,fake,0,-,+,-,+,-,+,+,0,+,-,-,-,-,-,0,0,+,+,+,+,+,-,+,-,+,0,-,-,+,-,-,-,0,-,-,0,
ɑː,1,kore1280,kor,NA,NA,108,NA,FALSE,vowel,fake,0,-,+,-,+,-,+,+,0,+,-,-,-,-,-,0,0,-,0,0,0,+,-,+,-,+,0,-,-,+,-,-,-,0,-,-,0,
ɑ̃ː,1,kore1280,kor,NA,NA,1.09E+02,NA,FALSE,vowel,fake,0,-,+,-,+,-,+,+,0,+,-,-,+,-,-,0,0,-,0,0,0,+,-,+,-,+,0,-,-,+,-,-,-,0,-,-,0,
ɑ̤ː,1,kore1280,kor,NA,NA,110,NA,FALSE,vowel,fake,0,-,+,-,+,-,+,+,0,+,-,-,-,-,-,0,0,-,0,0,0,+,-,+,-,+,0,-,-,+,-,+,-,0,-,-,0,
ɑ̤̃ː,1,kore1280,kor,NA,NA,111,NA,FALSE,vowel,fake,0,-,+,-,+,-,+,+,0,+,-,-,+,-,-,0,0,-,0,0,0,+,-,+,-,+,0,-,-,+,-,+,-,0,-,-,0,
ɑi,1,kore1280,kor,NA,NA,112,NA,FALSE,vowel,fake,0,-,+,-,-,-,+,+,0,+,-,-,-,-,-,0,0,-,0,0,0,+,"-,+","+,-","-,+","+,-",+,-,-,+,-,-,-,0,-,-,0,
ɑi̯,1,kore1280,kor,NA,NA,113,NA,FALSE,vowel,fake,0,-,"+,-",-,-,-,+,+,0,+,-,-,-,-,-,0,0,-,0,0,0,+,"-,+","+,-","-,+","+,-",+,-,-,+,-,-,-,0,-,-,0,
ɑo̯,1,kore1280,kor,NA,NA,114,NA,FALSE,vowel,fake,0,-,"+,-",-,-,-,+,+,0,+,-,-,-,-,"-,+",+,-,-,0,0,0,+,-,"+,-",-,+,+,-,-,+,-,-,-,0,-,-,0,
ɑu,1,kore1280,kor,NA,NA,115,NA,FALSE,vowel,fake,0,-,+,-,-,-,+,+,0,+,-,-,-,-,"-,+",+,-,-,0,0,0,+,"-,+","+,-",-,+,+,-,-,+,-,-,-,0,-,-,0,
ɑu̯,1,kore1280,kor,NA,NA,116,NA,FALSE,vowel,fake,0,-,"+,-",-,-,-,+,+,0,+,-,-,-,-,"-,+",+,-,-,0,0,0,+,"-,+","+,-",-,+,+,-,-,+,-,-,-,0,-,-,0,
ɑʊ,1,kore1280,kor,NA,NA,117,NA,FALSE,vowel,fake,0,-,+,-,-,-,+,+,0,+,-,-,-,-,"-,+",+,-,-,0,0,0,+,"-,+","+,-",-,+,-,-,-,+,-,-,-,0,-,-,0,
ɒ,1,kore1280,kor,NA,NA,1.18E+02,NA,FALSE,vowel,fake,0,-,+,-,-,-,+,+,0,+,-,-,-,-,+,+,-,-,0,0,0,+,-,+,-,+,0,-,-,+,-,-,-,0,-,-,0,
ɒɔ,1,kore1280,kor,NA,NA,119,NA,FALSE,vowel,fake,0,-,+,-,-,-,+,+,0,+,-,-,-,-,+,+,-,-,0,0,0,+,-,"+,-",-,+,-,-,-,+,-,-,-,0,-,-,0,
b,1,kore1280,kor,NA,NA,120,NA,FALSE,consonant,fake,0,-,-,-,-,+,-,-,-,-,-,-,-,-,+,-,-,-,0,0,0,-,0,0,0,0,0,0,0,+,-,-,-,-,-,-,-,
b̰,1,kore1280,kor,NA,NA,121,NA,FALSE,consonant,fake,0,-,-,-,-,+,-,-,-,-,-,-,-,-,+,-,-,-,0,0,0,-,0,0,0,0,0,0,0,+,-,-,+,-,-,-,-,
bʵ,1,kore1280,kor,NA,NA,122,NA,FALSE,consonant,fake,0,-,-,-,-,+,-,-,-,-,-,-,-,-,+,-,-,+,+,+,+,+,0,0,0,0,0,0,0,+,-,-,-,-,-,-,-,
bʱ,1,kore1280,kor,NA,NA,123,NA,FALSE,consonant,fake,0,-,-,-,-,+,-,-,-,-,-,-,-,-,+,-,-,-,0,0,0,-,0,0,0,0,0,0,0,+,-,+,-,-,-,-,-,
bʲ,1,kore1280,kor,NA,NA,124,NA,FALSE,consonant,fake,0,-,-,-,-,+,-,-,-,-,-,-,-,-,+,-,-,-,0,0,0,+,+,-,+,-,0,0,0,+,-,-,-,-,-,-,-,
bv,1,kore1280,kor,NA,NA,125,NA,FALSE,consonant,fake,0,-,-,-,-,+,-,-,+,-,-,-,-,-,+,-,+,-,0,0,0,-,0,0,0,0,0,0,0,+,-,-,-,-,-,-,-,
bʷ,1,kore1280,kor,NA,NA,126,NA,FALSE,consonant,fake,0,-,-,-,-,+,-,-,-,-,-,-,-,-,+,+,-,-,0,0,0,-,0,0,0,0,0,0,0,+,-,-,-,-,-,-,-,
ʙ,1,kore1280,kor,NA,NA,1.27E+02,NA,FALSE,consonant,fake,0,-,-,-,-,+,+,+,0,+,-,+,-,-,+,-,-,-,0,0,0,-,0,0,0,0,0,0,0,+,-,-,-,-,-,-,-,
c,1,kore1280,kor,NA,NA,128,NA,FALSE,consonant,fake,0,-,-,-,-,+,-,-,-,-,-,-,-,-,-,0,0,+,-,+,-,+,+,-,+,-,0,0,0,-,-,-,-,-,-,-,-,
ç,1,kore1280,kor,NA,NA,129,NA,FALSE,consonant,fake,0,-,-,-,-,+,-,+,+,-,-,-,-,-,-,0,0,+,-,+,-,+,+,-,+,-,0,0,0,-,-,-,-,-,-,-,-,
cç,1,kore1280,kor,NA,NA,130,NA,FALSE,consonant,fake,0,-,-,-,-,+,-,-,+,-,-,-,-,-,-,0,0,+,-,+,-,+,+,-,+,-,0,0,0,-,-,-,-,-,-,-,-,
cʰ,1,kore1280,kor,NA,NA,131,NA,FALSE,consonant,fake,0,-,-,-,-,+,-,-,-,-,-,-,-,-,-,0,0,+,-,+,-,+,+,-,+,-,0,0,0,-,-,+,-,-,-,-,-,
cʷ,1,kore1280,kor,NA,NA,132,NA,FALSE,consonant,fake,0,-,-,-,-,+,-,-,-,-,-,-,-,-,+,+,-,+,-,+,-,+,+,-,+,-,0,0,0,-,-,-,-,-,-,-,-,
çʷ,1,kore1280,kor,NA,NA,133,NA,FALSE,consonant,fake,0,-,-,-,-,+,-,+,+,-,-,-,-,-,+,+,-,+,-,+,-,+,+,-,+,-,0,0,0,-,-,-,-,-,-,-,-,
ɕ,1,kore1280,kor,NA,NA,134,NA,FALSE,consonant,fake,0,-,-,-,-,+,-,+,+,-,-,-,-,-,-,0,0,+,+,+,+,+,+,-,+,-,0,0,0,-,-,-,-,-,-,-,-,
ɕʰ,1,kore1280,kor,NA,NA,135,NA,FALSE,consonant,fake,0,-,-,-,-,+,-,+,+,-,-,-,-,-,-,0,0,+,+,+,+,+,+,-,+,-,0,0,0,-,-,+,-,-,-,-,-,
d,1,kore1280,kor,NA,NA,1.36E+02,NA,FALSE,consonant,fake,0,-,-,-,-,+,-,-,-,-,-,-,-,-,-,0,0,+,+,-,-,-,0,0,0,0,0,0,0,+,-,-,-,-,-,-,-,
d̪,1,kore1280,kor,NA,NA,137,NA,FALSE,consonant,fake,0,-,-,-,-,+,-,-,-,-,-,-,-,-,-,0,0,+,+,+,-,-,0,0,0,0,0,0,0,+,-,-,-,-,-,-,-,
d̻,1,kore1280,kor,NA,NA,138,NA,FALSE,consonant,fake,0,-,-,-,-,+,-,-,-,-,-,-,-,-,-,0,0,+,+,+,-,-,0,0,0,0,0,0,0,+,-,-,-,-,-,-,-,
ð,1,kore1280,kor,NA,NA,139,NA,FALSE,consonant,fake,0,-,-,-,-,+,-,+,+,-,-,-,-,-,-,0,0,+,+,+,-,-,0,0,0,0,0,0,0,+,-,-,-,-,-,-,-,
ð̞,1,kore1280,kor,NA,NA,140,NA,FALSE,consonant,fake,0,-,-,-,-,-,+,+,0,+,-,-,-,-,-,0,0,+,+,+,-,-,0,0,0,0,0,0,0,+,-,-,-,-,-,-,-,
ð̪,1,kore1280,kor,NA,NA,141,NA,FALSE,consonant,fake,0,-,-,-,-,+,-,+,+,-,-,-,-,-,-,0,0,+,+,+,-,-,0,0,0,0,0,0,0,+,-,-,-,-,-,-,-,
dː,1,kore1280,kor,NA,NA,142,NA,FALSE,consonant,fake,0,-,-,-,+,+,-,-,-,-,-,-,-,-,-,0,0,+,+,-,-,-,0,0,0,0,0,0,0,+,-,-,-,-,-,-,-,
dʙ,1,kore1280,kor,NA,NA,143,NA,FALSE,consonant,fake,0,-,-,-,-,+,"-,+","-,+",-,"-,+",-,"-,+",-,-,"-,+",-,-,"+,-",+,-,-,-,0,0,0,0,0,0,0,+,-,-,-,-,-,-,-,
dʱ,1,kore1280,kor,NA,NA,144,NA,FALSE,consonant,fake,0,-,-,-,-,+,-,-,-,-,-,-,-,-,-,0,0,+,+,-,-,-,0,0,0,0,0,0,0,+,-,+,-,-,-,-,-,
dʲ,1,kore1280,kor,NA,NA,1.45E+02,NA,FALSE,consonant,fake,0,-,-,-,-,+,-,-,-,-,-,-,-,-,-,0,0,+,+,-,-,+,+,-,+,-,0,0,0,+,-,-,-,-,-,-,-,
ȡ,1,kore1280,kor,NA,NA,146,NA,FALSE,consonant,fake,0,-,-,-,-,+,-,-,-,-,-,-,-,-,-,0,0,+,+,-,-,+,+,-,+,-,0,0,0,+,-,-,-,-,-,-,-,
dʷ,1,kore1280,kor,NA,NA,147,NA,FALSE,consonant,fake,0,-,-,-,-,+,-,-,-,-,-,-,-,-,+,+,-,+,+,-,-,-,0,0,0,0,0,0,0,+,-,-,-,-,-,-,-,
dz,1,kore1280,kor,NA,NA,148,NA,FALSE,consonant,fake,0,-,-,-,-,+,-,-,+,-,-,-,-,-,-,0,0,+,+,-,+,-,0,0,0,0,0,0,0,+,-,-,-,-,-,-,-,
dz̪,1,kore1280,kor,NA,NA,149,NA,FALSE,consonant,fake,0,-,-,-,-,+,-,-,+,-,-,-,-,-,-,0,0,+,+,+,+,-,0,0,0,0,0,0,0,+,-,-,-,-,-,-,-,
dʑ,1,kore1280,kor,NA,NA,150,NA,FALSE,consonant,fake,0,-,-,-,-,+,-,-,+,-,-,-,-,-,-,0,0,+,+,+,+,+,+,-,+,-,0,0,0,+,-,-,-,-,-,-,-,
dʑʱ,1,kore1280,kor,NA,NA,151,NA,FALSE,consonant,fake,0,-,-,-,-,+,-,-,+,-,-,-,-,-,-,0,0,+,+,+,+,+,+,-,+,-,0,0,0,+,-,+,-,-,-,-,-,
dʒ,1,kore1280,kor,NA,NA,152,NA,FALSE,consonant,fake,0,-,-,-,-,+,-,-,+,-,-,-,-,-,-,0,0,+,-,+,+,-,0,0,0,0,0,0,0,+,-,-,-,-,-,-,-,
dʒʱ,1,kore1280,kor,NA,NA,153,NA,FALSE,consonant,fake,0,-,-,-,-,+,-,-,+,-,-,-,-,-,-,0,0,+,-,+,+,-,0,0,0,0,0,0,0,+,-,+,-,-,-,-,-,
ɖ,1,kore1280,kor,NA,NA,1.54E+02,NA,FALSE,consonant,fake,0,-,-,-,-,+,-,-,-,-,-,-,-,-,-,0,0,+,-,-,-,-,0,0,0,0,0,0,0,+,-,-,-,-,-,-,-,
dʐ,1,kore1280,kor,NA,NA,155,NA,FALSE,consonant,fake,0,-,-,-,-,+,-,-,+,-,-,-,-,-,-,0,0,+,-,-,+,-,0,0,0,0,0,0,0,+,-,-,-,-,-,-,-,
e,1,kore1280,kor,NA,NA,156,NA,FALSE,vowel,fake,0,-,+,-,-,-,+,+,0,+,-,-,-,-,-,0,0,-,0,0,0,+,-,-,+,-,+,-,-,+,-,-,-,0,-,-,0,
ĕ,1,kore1280,kor,NA,NA,157,NA,FALSE,vowel,fake,0,-,+,+,-,-,+,+,0,+,-,-,-,-,-,0,0,-,0,0,0,+,-,-,+,-,+,-,-,+,-,-,-,0,-,-,0,
ë,1,kore1280,kor,NA,NA,158,NA,FALSE,vowel,fake,0,-,+,-,-,-,+,+,0,+,-,-,-,-,-,0,0,-,0,0,0,+,-,-,0,-,0,-,-,+,-,-,-,0,-,-,0,
ẽ,1,kore1280,kor,NA,NA,159,NA,FALSE,vowel,fake,0,-,+,-,-,-,+,+,0,+,-,-,+,-,-,0,0,-,0,0,0,+,-,-,+,-,+,-,-,+,-,-,-,0,-,-,0,
e̝,1,kore1280,kor,NA,NA,160,NA,FALSE,vowel,fake,0,-,+,-,-,-,+,+,0,+,-,-,-,-,-,0,0,-,0,0,0,+,0,-,+,-,+,-,-,+,-,-,-,0,-,-,0,
e̞,1,kore1280,kor,NA,NA,161,NA,FALSE,vowel,fake,0,-,+,-,-,-,+,+,0,+,-,-,-,-,-,0,0,-,0,0,0,+,-,-,+,-,0,-,-,+,-,-,-,0,-,-,0,
e̯,1,kore1280,kor,NA,NA,162,NA,FALSE,vowel,fake,0,-,-,-,-,-,+,+,0,+,-,-,-,-,-,0,0,-,0,0,0,+,-,-,+,-,+,-,-,+,-,-,-,0,-,-,0,
e̤,1,kore1280,kor,NA,NA,1.63E+02,NA,FALSE,vowel,fake,0,-,+,-,-,-,+,+,0,+,-,-,-,-,-,0,0,-,0,0,0,+,-,-,+,-,+,-,-,+,-,+,-,0,-,-,0,
ẽ̤,1,kore1280,kor,NA,NA,164,NA,FALSE,vowel,fake,0,-,+,-,-,-,+,+,0,+,-,-,+,-,-,0,0,-,0,0,0,+,-,-,+,-,+,-,-,+,-,+,-,0,-,-,0,
e̥,1,kore1280,kor,NA,NA,165,NA,FALSE,vowel,fake,0,-,+,-,-,-,+,+,0,+,-,-,-,-,-,0,0,-,0,0,0,+,-,-,+,-,+,-,-,-,-,-,-,0,-,-,0,
ḛ,1,kore1280,kor,NA,NA,166,NA,FALSE,vowel,fake,0,-,+,-,-,-,+,+,0,+,-,-,-,-,-,0,0,-,0,0,0,+,-,-,+,-,+,-,-,+,-,-,+,0,-,-,0,
eʵ,1,kore1280,kor,NA,NA,167,NA,FALSE,vowel,fake,0,-,+,-,-,-,+,+,0,+,-,-,-,-,-,0,0,+,+,+,+,+,-,-,+,-,+,-,-,+,-,-,-,0,-,-,0,
eʵː,1,kore1280,kor,NA,NA,168,NA,FALSE,vowel,fake,0,-,+,-,+,-,+,+,0,+,-,-,-,-,-,0,0,+,+,+,+,+,-,-,+,-,+,-,-,+,-,-,-,0,-,-,0,
eː,1,kore1280,kor,NA,NA,169,NA,FALSE,vowel,fake,0,-,+,-,+,-,+,+,0,+,-,-,-,-,-,0,0,-,0,0,0,+,-,-,+,-,+,-,-,+,-,-,-,0,-,-,0,
ẽː,1,kore1280,kor,NA,NA,170,NA,FALSE,vowel,fake,0,-,+,-,+,-,+,+,0,+,-,-,+,-,-,0,0,-,0,0,0,+,-,-,+,-,+,-,-,+,-,-,-,0,-,-,0,
e̤ː,1,kore1280,kor,NA,NA,171,NA,FALSE,vowel,fake,0,-,+,-,+,-,+,+,0,+,-,-,-,-,-,0,0,-,0,0,0,+,-,-,+,-,+,-,-,+,-,+,-,0,-,-,0,
ẽ̤ː,1,kore1280,kor,NA,NA,1.72E+02,NA,FALSE,vowel,fake,0,-,+,-,+,-,+,+,0,+,-,-,+,-,-,0,0,-,0,0,0,+,-,-,+,-,+,-,-,+,-,+,-,0,-,-,0,
eːu̯,1,kore1280,kor,NA,NA,173,NA,FALSE,vowel,fake,0,-,"+,-",-,"+,-",-,+,+,0,+,-,-,-,-,"-,+",+,-,-,0,0,0,+,"-,+",-,"+,-","-,+",+,-,-,+,-,-,-,0,-,-,0,
ea,1,kore1280,kor,NA,NA,174,NA,FALSE,vowel,fake,0,-,+,-,-,-,+,+,0,+,-,-,-,-,-,0,0,-,0,0,0,+,-,"-,+","+,-",-,+,-,-,+,-,-,-,0,-,-,0,
e̯a,1,kore1280,kor,NA,NA,175,NA,FALSE,vowel,fake,0,-,"-,+",-,-,-,+,+,0,+,-,-,-,-,-,0,0,-,0,0,0,+,-,"-,+","+,-",-,+,-,-,+,-,-,-,0,-,-,0,
eɑ,1,kore1280,kor,NA,NA,176,NA,FALSE,vowel,fake,0,-,+,-,-,-,+,+,0,+,-,-,-,-,-,0,0,-,0,0,0,+,-,"-,+","+,-","-,+",+,-,-,+,-,-,-,0,-,-,0,
eə̯,1,kore1280,kor,NA,NA,177,NA,FALSE,vowel,fake,0,-,"+,-",-,-,-,+,+,0,+,-,-,-,-,-,0,0,-,0,0,0,+,-,-,"+,-",-,"+,-",-,-,+,-,-,-,0,-,-,0,
ei,1,kore1280,kor,NA,NA,178,NA,FALSE,vowel,fake,0,-,+,-,-,-,+,+,0,+,-,-,-,-,-,0,0,-,0,0,0,+,"-,+",-,+,-,+,-,-,+,-,-,-,0,-,-,0,
ei̯,1,kore1280,kor,NA,NA,179,NA,FALSE,vowel,fake,0,-,"+,-",-,-,-,+,+,0,+,-,-,-,-,-,0,0,-,0,0,0,+,"-,+",-,+,-,+,-,-,+,-,-,-,0,-,-,0,
ẽi,1,kore1280,kor,NA,NA,180,NA,FALSE,vowel,fake,0,-,+,-,-,-,+,+,0,+,-,-,"+,-",-,-,0,0,-,0,0,0,+,"-,+",-,+,-,+,-,-,+,-,-,-,0,-,-,0,
ẽi̯,1,kore1280,kor,NA,NA,1.81E+02,NA,FALSE,vowel,fake,0,-,"+,-",-,-,-,+,+,0,+,-,-,"+,-",-,-,0,0,-,0,0,0,+,"-,+",-,+,-,+,-,-,+,-,-,-,0,-,-,0,
ẽĩ̯,1,kore1280,kor,NA,NA,182,NA,FALSE,vowel,fake,0,-,"+,-",-,-,-,+,+,0,+,-,-,+,-,-,0,0,-,0,0,0,+,"-,+",-,+,-,+,-,-,+,-,-,-,0,-,-,0,
e̝i,1,kore1280,kor,NA,NA,183,NA,FALSE,vowel,fake,0,-,+,-,-,-,+,+,0,+,-,-,-,-,-,0,0,-,0,0,0,+,+,-,+,-,+,-,-,+,-,-,-,0,-,-,0,
ẽɪ,1,kore1280,kor,NA,NA,184,NA,FALSE,vowel,fake,0,-,+,-,-,-,+,+,0,+,-,-,"+,-",-,-,0,0,-,0,0,0,+,"-,+",-,+,-,"+,-",-,-,+,-,-,-,0,-,-,0,
ẽ̤ɪ,1,kore1280,kor,NA,NA,185,NA,FALSE,vowel,fake,0,-,+,-,-,-,+,+,0,+,-,-,"+,-",-,-,0,0,-,0,0,0,+,"-,+",-,+,-,"+,-",-,-,+,-,"+,-",-,0,-,-,0,
ḛ̃ɪ,1,kore1280,kor,NA,NA,186,NA,FALSE,vowel,fake,0,-,+,-,-,-,+,+,0,+,-,-,"+,-",-,-,0,0,-,0,0,0,+,"-,+",-,+,-,"+,-",-,-,+,-,-,"+,-",0,-,-,0,
eɪˀ,1,kore1280,kor,NA,NA,187,NA,FALSE,vowel,fake,0,-,+,-,-,-,+,+,0,+,-,-,-,-,-,0,0,-,0,0,0,+,"-,+",-,+,-,"+,-",-,-,+,-,-,"-,+",0,-,-,0,
eo,1,kore1280,kor,NA,NA,188,NA,FALSE,vowel,fake,0,-,+,-,-,-,+,+,0,+,-,-,-,-,"-,+",+,-,-,0,0,0,+,-,-,"+,-","-,+",+,-,-,+,-,-,-,0,-,-,0,
eo̯,1,kore1280,kor,NA,NA,189,NA,FALSE,vowel,fake,0,-,"+,-",-,-,-,+,+,0,+,-,-,-,-,"-,+",+,-,-,0,0,0,+,-,-,"+,-","-,+",+,-,-,+,-,-,-,0,-,-,0,
e̯o,1,kore1280,kor,NA,NA,1.90E+02,NA,FALSE,vowel,fake,0,-,"-,+",-,-,-,+,+,0,+,-,-,-,-,"-,+",+,-,-,0,0,0,+,-,-,"+,-","-,+",+,-,-,+,-,-,-,0,-,-,0,
eu,1,kore1280,kor,NA,NA,191,NA,FALSE,vowel,fake,0,-,+,-,-,-,+,+,0,+,-,-,-,-,"-,+",+,-,-,0,0,0,+,"-,+",-,"+,-","-,+",+,-,-,+,-,-,-,0,-,-,0,
eu̯,1,kore1280,kor,NA,NA,192,NA,FALSE,vowel,fake,0,-,"+,-",-,-,-,+,+,0,+,-,-,-,-,"-,+",+,-,-,0,0,0,+,"-,+",-,"+,-","-,+",+,-,-,+,-,-,-,0,-,-,0,
e̯ɯ,1,kore1280,kor,NA,NA,193,NA,FALSE,vowel,fake,0,-,"-,+",-,-,-,+,+,0,+,-,-,-,-,-,0,0,-,0,0,0,+,"-,+",-,"+,-","-,+",+,-,-,+,-,-,-,0,-,-,0,
eˀ,1,kore1280,kor,NA,NA,194,NA,FALSE,vowel,fake,0,-,+,-,-,-,+,+,0,+,-,-,-,-,-,0,0,-,0,0,0,+,-,-,+,-,+,-,-,+,-,-,+,0,-,-,0,
ə,1,kore1280,kor,NA,NA,195,NA,FALSE,vowel,fake,0,-,+,-,-,-,+,+,0,+,-,-,-,-,-,0,0,-,0,0,0,+,-,-,-,-,-,-,-,+,-,-,-,0,-,-,0,
ə̆,1,kore1280,kor,NA,NA,196,NA,FALSE,vowel,fake,0,-,+,+,-,-,+,+,0,+,-,-,-,-,-,0,0,-,0,0,0,+,-,-,-,-,-,-,-,+,-,-,-,0,-,-,0,
ə̃,1,kore1280,kor,NA,NA,197,NA,FALSE,vowel,fake,0,-,+,-,-,-,+,+,0,+,-,-,+,-,-,0,0,-,0,0,0,+,-,-,-,-,-,-,-,+,-,-,-,0,-,-,0,
ə̤,1,kore1280,kor,NA,NA,198,NA,FALSE,vowel,fake,0,-,+,-,-,-,+,+,0,+,-,-,-,-,-,0,0,-,0,0,0,+,-,-,-,-,-,-,-,+,-,+,-,0,-,-,0,
ə̰,1,kore1280,kor,NA,NA,1.99E+02,NA,FALSE,vowel,fake,0,-,+,-,-,-,+,+,0,+,-,-,-,-,-,0,0,-,0,0,0,+,-,-,-,-,-,-,-,+,-,-,+,0,-,-,0,
əʵ,1,kore1280,kor,NA,NA,200,NA,FALSE,vowel,fake,0,-,+,-,-,-,+,+,0,+,-,-,-,-,-,0,0,+,+,+,+,+,-,-,-,-,-,-,-,+,-,-,-,0,-,-,0,
əː,1,kore1280,kor,NA,NA,201,NA,FALSE,vowel,fake,0,-,+,-,+,-,+,+,0,+,-,-,-,-,-,0,0,-,0,0,0,+,-,-,-,-,-,-,-,+,-,-,-,0,-,-,0,
ə̃ː,1,kore1280,kor,NA,NA,202,NA,FALSE,vowel,fake,0,-,+,-,+,-,+,+,0,+,-,-,+,-,-,0,0,-,0,0,0,+,-,-,-,-,-,-,-,+,-,-,-,0,-,-,0,
əi,1,kore1280,kor,NA,NA,203,NA,FALSE,vowel,fake,0,-,+,-,-,-,+,+,0,+,-,-,-,-,-,0,0,-,0,0,0,+,"-,+",-,"-,+",-,"-,+",-,-,+,-,-,-,0,-,-,0,
əi̯,1,kore1280,kor,NA,NA,204,NA,FALSE,vowel,fake,0,-,"+,-",-,-,-,+,+,0,+,-,-,-,-,-,0,0,-,0,0,0,+,"-,+",-,"-,+",-,"-,+",-,-,+,-,-,-,0,-,-,0,
ə̯i,1,kore1280,kor,NA,NA,205,NA,FALSE,vowel,fake,0,-,"-,+",-,-,-,+,+,0,+,-,-,-,-,-,0,0,-,0,0,0,+,"-,+",-,"-,+",-,"-,+",-,-,+,-,-,-,0,-,-,0,
əu̯,1,kore1280,kor,NA,NA,206,NA,FALSE,vowel,fake,0,-,"+,-",-,-,-,+,+,0,+,-,-,-,-,"-,+",+,-,-,0,0,0,+,"-,+",-,-,"-,+","-,+",-,-,+,-,-,-,0,-,-,0,
ə̃ɯ̯,1,kore1280,kor,NA,NA,207,NA,FALSE,vowel,fake,0,-,"+,-",-,-,-,+,+,0,+,-,-,"+,-",-,-,0,0,-,0,0,0,+,"-,+",-,-,"-,+","-,+",-,-,+,-,-,-,0,-,-,0,
ɛ,1,kore1280,kor,NA,NA,2.08E+02,NA,FALSE,vowel,fake,0,-,+,-,-,-,+,+,0,+,-,-,-,-,-,0,0,-,0,0,0,+,-,-,+,-,-,-,-,+,-,-,-,0,-,-,0,
ɛ̆,1,kore1280,kor,NA,NA,209,NA,FALSE,vowel,fake,0,-,+,+,-,-,+,+,0,+,-,-,-,-,-,0,0,-,0,0,0,+,-,-,+,-,-,-,-,+,-,-,-,0,-,-,0,
ɛ̃,1,kore1280,kor,NA,NA,210,NA,FALSE,vowel,fake,0,-,+,-,-,-,+,+,0,+,-,-,+,-,-,0,0,-,0,0,0,+,-,-,+,-,-,-,-,+,-,-,-,0,-,-,0,
ɛ̤,1,kore1280,kor,NA,NA,211,NA,FALSE,vowel,fake,0,-,+,-,-,-,+,+,0,+,-,-,-,-,-,0,0,-,0,0,0,+,-,-,+,-,-,-,-,+,-,+,-,0,-,-,0,
ɛ̰,1,kore1280,kor,NA,NA,212,NA,FALSE,vowel,fake,0,-,+,-,-,-,+,+,0,+,-,-,-,-,-,0,0,-,0,0,0,+,-,-,+,-,-,-,-,+,-,-,+,0,-,-,0,
ɛː,1,kore1280,kor,NA,NA,213,NA,FALSE,vowel,fake,0,-,+,-,+,-,+,+,0,+,-,-,-,-,-,0,0,-,0,0,0,+,-,-,+,-,-,-,-,+,-,-,-,0,-,-,0,
ɛ̃ː,1,kore1280,kor,NA,NA,214,NA,FALSE,vowel,fake,0,-,+,-,+,-,+,+,0,+,-,-,+,-,-,0,0,-,0,0,0,+,-,-,+,-,-,-,-,+,-,-,-,0,-,-,0,
ɛːi̯,1,kore1280,kor,NA,NA,215,NA,FALSE,vowel,fake,0,-,"+,-",-,"+,-",-,+,+,0,+,-,-,-,-,-,0,0,-,0,0,0,+,"-,+",-,+,-,"-,+",-,-,+,-,-,-,0,-,-,0,
ɛi,1,kore1280,kor,NA,NA,216,NA,FALSE,vowel,fake,0,-,+,-,-,-,+,+,0,+,-,-,-,-,-,0,0,-,0,0,0,+,"-,+",-,+,-,"-,+",-,-,+,-,-,-,0,-,-,0,
ɛi̯,1,kore1280,kor,NA,NA,2.17E+02,NA,FALSE,vowel,fake,0,-,"+,-",-,-,-,+,+,0,+,-,-,-,-,-,0,0,-,0,0,0,+,"-,+",-,+,-,"-,+",-,-,+,-,-,-,0,-,-,0,
ɛɪ̯,1,kore1280,kor,NA,NA,218,NA,FALSE,vowel,fake,0,-,"+,-",-,-,-,+,+,0,+,-,-,-,-,-,0,0,-,0,0,0,+,"-,+",-,+,-,-,-,-,+,-,-,-,0,-,-,0,
ɛu,1,kore1280,kor,NA,NA,219,NA,FALSE,vowel,fake,0,-,+,-,-,-,+,+,0,+,-,-,-,-,"-,+",+,-,-,0,0,0,+,"-,+",-,"+,-","-,+","-,+",-,-,+,-,-,-,0,-,-,0,
ɛu̯,1,kore1280,kor,NA,NA,220,NA,FALSE,vowel,fake,0,-,"+,-",-,-,-,+,+,0,+,-,-,-,-,"-,+",+,-,-,0,0,0,+,"-,+",-,"+,-","-,+","-,+",-,-,+,-,-,-,0,-,-,0,
ɛʊ,1,kore1280,kor,NA,NA,221,NA,FALSE,vowel,fake,0,-,+,-,-,-,+,+,0,+,-,-,-,-,"-,+",+,-,-,0,0,0,+,"-,+",-,"+,-","-,+",-,-,-,+,-,-,-,0,-,-,0,
ɛˀ,1,kore1280,kor,NA,NA,222,NA,FALSE,vowel,fake,0,-,+,-,-,-,+,+,0,+,-,-,-,-,-,0,0,-,0,0,0,+,-,-,+,-,-,-,-,+,-,-,+,0,-,-,0,
ɘ,1,kore1280,kor,NA,NA,223,NA,FALSE,vowel,fake,0,-,+,-,-,-,+,+,0,+,-,-,-,-,-,0,0,-,0,0,0,+,-,-,-,-,+,-,-,+,-,-,-,0,-,-,0,
ɘː,1,kore1280,kor,NA,NA,224,NA,FALSE,vowel,fake,0,-,+,-,+,-,+,+,0,+,-,-,-,-,-,0,0,-,0,0,0,+,-,-,-,-,+,-,-,+,-,-,-,0,-,-,0,
ɜ,1,kore1280,kor,NA,NA,225,NA,FALSE,vowel,fake,0,-,+,-,-,-,+,+,0,+,-,-,-,-,-,0,0,-,0,0,0,+,-,-,-,-,-,-,-,+,-,-,-,0,-,-,0,
ɜ̆,1,kore1280,kor,NA,NA,2.26E+02,NA,FALSE,vowel,fake,0,-,+,+,-,-,+,+,0,+,-,-,-,-,-,0,0,-,0,0,0,+,-,-,-,-,-,-,-,+,-,-,-,0,-,-,0,
ɜː,1,kore1280,kor,NA,NA,227,NA,FALSE,vowel,fake,0,-,+,-,+,-,+,+,0,+,-,-,-,-,-,0,0,-,0,0,0,+,-,-,-,-,-,-,-,+,-,-,-,0,-,-,0,
ɜ̃ː,1,kore1280,kor,NA,NA,228,NA,FALSE,vowel,fake,0,-,+,-,+,-,+,+,0,+,-,-,+,-,-,0,0,-,0,0,0,+,-,-,-,-,-,-,-,+,-,-,-,0,-,-,0,
ɜ̤ː,1,kore1280,kor,NA,NA,229,NA,FALSE,vowel,fake,0,-,+,-,+,-,+,+,0,+,-,-,-,-,-,0,0,-,0,0,0,+,-,-,-,-,-,-,-,+,-,+,-,0,-,-,0,
ɜ̤̃ː,1,kore1280,kor,NA,NA,230,NA,FALSE,vowel,fake,0,-,+,-,+,-,+,+,0,+,-,-,+,-,-,0,0,-,0,0,0,+,-,-,-,-,-,-,-,+,-,+,-,0,-,-,0,
ɜi̯,1,kore1280,kor,NA,NA,231,NA,FALSE,vowel,fake,0,-,"+,-",-,-,-,+,+,0,+,-,-,-,-,-,0,0,-,0,0,0,+,"-,+",-,"-,+",-,"-,+",-,-,+,-,-,-,0,-,-,0,
ɞ,1,kore1280,kor,NA,NA,232,NA,FALSE,vowel,fake,0,-,+,-,-,-,+,+,0,+,-,-,-,-,+,+,-,-,0,0,0,+,-,-,-,-,-,-,-,+,-,-,-,0,-,-,0,
ɞː,1,kore1280,kor,NA,NA,233,NA,FALSE,vowel,fake,0,-,+,-,+,-,+,+,0,+,-,-,-,-,+,+,-,-,0,0,0,+,-,-,-,-,-,-,-,+,-,-,-,0,-,-,0,
ɤ,1,kore1280,kor,NA,NA,234,NA,FALSE,vowel,fake,0,-,+,-,-,-,+,+,0,+,-,-,-,-,-,0,0,-,0,0,0,+,-,-,-,+,+,-,-,+,-,-,-,0,-,-,0,
ɤˀ,1,kore1280,kor,NA,NA,2.35E+02,NA,FALSE,vowel,fake,0,-,+,-,-,-,+,+,0,+,-,-,-,-,-,0,0,-,0,0,0,+,-,-,-,+,+,-,-,+,-,-,+,0,-,-,0,
f,1,kore1280,kor,NA,NA,236,NA,FALSE,consonant,fake,0,-,-,-,-,+,-,+,+,-,-,-,-,-,+,-,+,-,0,0,0,-,0,0,0,0,0,0,0,-,-,-,-,-,-,-,-,
fː,1,kore1280,kor,NA,NA,237,NA,FALSE,consonant,fake,0,-,-,-,+,+,-,+,+,-,-,-,-,-,+,-,+,-,0,0,0,-,0,0,0,0,0,0,0,-,-,-,-,-,-,-,-,
fʷ,1,kore1280,kor,NA,NA,238,NA,FALSE,consonant,fake,0,-,-,-,-,+,-,+,+,-,-,-,-,-,+,+,-,-,0,0,0,-,0,0,0,0,0,0,0,-,-,-,-,-,-,-,-,
g,1,kore1280,kor,NA,NA,239,NA,FALSE,consonant,fake,0,-,-,-,-,+,-,-,-,-,-,-,-,-,-,0,0,-,0,0,0,+,+,-,-,-,0,0,0,+,-,-,-,-,-,-,-,
g̰,1,kore1280,kor,NA,NA,240,NA,FALSE,consonant,fake,0,-,-,-,-,+,-,-,-,-,-,-,-,-,-,0,0,-,0,0,0,+,+,-,-,-,0,0,0,+,-,-,+,-,-,-,-,
gʵ,1,kore1280,kor,NA,NA,241,NA,FALSE,consonant,fake,0,-,-,-,-,+,-,-,-,-,-,-,-,-,-,0,0,+,+,+,+,+,+,-,-,-,0,0,0,+,-,-,-,-,-,-,-,
gb,1,kore1280,kor,NA,NA,242,NA,FALSE,consonant,fake,0,-,-,-,-,+,-,-,-,-,-,-,-,-,+,-,-,-,0,0,0,+,+,-,-,-,0,0,0,+,-,-,-,-,-,-,-,
gɣ,1,kore1280,kor,NA,NA,243,NA,FALSE,consonant,fake,0,-,-,-,-,+,-,-,+,-,-,-,-,-,-,0,0,-,0,0,0,+,+,-,-,-,0,0,0,+,-,-,-,-,-,-,-,
gʱ,1,kore1280,kor,NA,NA,2.44E+02,NA,FALSE,consonant,fake,0,-,-,-,-,+,-,-,-,-,-,-,-,-,-,0,0,-,0,0,0,+,+,-,-,-,0,0,0,+,-,+,-,-,-,-,-,
gʲ,1,kore1280,kor,NA,NA,245,NA,FALSE,consonant,fake,0,-,-,-,-,+,-,-,-,-,-,-,-,-,-,0,0,-,0,0,0,+,+,-,+,-,0,0,0,+,-,-,-,-,-,-,-,
gʟ͓,1,kore1280,kor,NA,NA,246,NA,FALSE,consonant,fake,0,-,-,-,-,+,"-,+","-,+","-,+","-,+",-,-,-,"-,+",-,0,0,-,0,0,0,+,+,-,-,-,0,0,0,+,-,-,-,-,-,-,-,
gʷ,1,kore1280,kor,NA,NA,247,NA,FALSE,consonant,fake,0,-,-,-,-,+,-,-,-,-,-,-,-,-,+,+,-,-,0,0,0,+,+,-,-,-,0,0,0,+,-,-,-,-,-,-,-,
ɢ,1,kore1280,kor,NA,NA,248,NA,FALSE,consonant,fake,0,-,-,-,-,+,-,-,-,-,-,-,-,-,-,0,0,-,0,0,0,+,-,-,-,+,0,0,0,+,-,-,-,-,-,-,-,
ɣ,1,kore1280,kor,NA,NA,249,NA,FALSE,consonant,fake,0,-,-,-,-,+,-,+,+,-,-,-,-,-,-,0,0,-,0,0,0,+,+,-,-,-,0,0,0,+,-,-,-,-,-,-,-,
ɣʷ,1,kore1280,kor,NA,NA,250,NA,FALSE,consonant,fake,0,-,-,-,-,+,-,+,+,-,-,-,-,-,+,+,-,-,0,0,0,+,+,-,-,-,0,0,0,+,-,-,-,-,-,-,-,
ɣβ,1,kore1280,kor,NA,NA,251,NA,FALSE,consonant,fake,0,-,-,-,-,+,-,+,+,-,-,-,-,-,"-,+",-,-,-,0,0,0,"+,-",+,-,-,-,0,0,0,+,-,-,-,-,-,-,-,
h,1,kore1280,kor,NA,NA,252,NA,FALSE,consonant,fake,0,-,-,-,-,-,-,+,+,-,-,-,-,-,-,0,0,-,0,0,0,-,0,0,0,0,0,0,0,-,-,+,-,-,-,-,-,
h̃,1,kore1280,kor,NA,NA,2.53E+02,NA,FALSE,consonant,fake,0,-,-,-,-,-,-,+,+,-,-,-,+,-,-,0,0,-,0,0,0,-,0,0,0,0,0,0,0,-,-,+,-,-,-,-,-,
hː,1,kore1280,kor,NA,NA,254,NA,FALSE,consonant,fake,0,-,-,-,+,-,-,+,+,-,-,-,-,-,-,0,0,-,0,0,0,-,0,0,0,0,0,0,0,-,-,+,-,-,-,-,-,
hʷ,1,kore1280,kor,NA,NA,255,NA,FALSE,consonant,fake,0,-,-,-,-,-,-,+,+,-,-,-,-,-,+,+,-,-,0,0,0,-,0,0,0,0,0,0,0,-,-,+,-,-,-,-,-,
h̃ʷ,1,kore1280,kor,NA,NA,256,NA,FALSE,consonant,fake,0,-,-,-,-,-,-,+,+,-,-,-,+,-,+,+,-,-,0,0,0,-,0,0,0,0,0,0,0,-,-,+,-,-,-,-,-,
ɦ,1,kore1280,kor,NA,NA,257,NA,FALSE,consonant,fake,0,-,-,-,-,-,-,+,+,-,-,-,-,-,-,0,0,-,0,0,0,-,0,0,0,0,0,0,0,+,-,+,-,-,-,-,-,
i,1,kore1280,kor,NA,NA,258,NA,FALSE,vowel,fake,0,-,+,-,-,-,+,+,0,+,-,-,-,-,-,0,0,-,0,0,0,+,+,-,+,-,+,-,-,+,-,-,-,0,-,-,0,
ĩ,1,kore1280,kor,NA,NA,259,NA,FALSE,vowel,fake,0,-,+,-,-,-,+,+,0,+,-,-,+,-,-,0,0,-,0,0,0,+,+,-,+,-,+,-,-,+,-,-,-,0,-,-,0,
i̞,1,kore1280,kor,NA,NA,260,NA,FALSE,vowel,fake,0,-,+,-,-,-,+,+,0,+,-,-,-,-,-,0,0,-,0,0,0,+,+,-,+,-,0,-,-,+,-,-,-,0,-,-,0,
i̯,1,kore1280,kor,NA,NA,261,NA,FALSE,vowel,fake,0,-,-,-,-,-,+,+,0,+,-,-,-,-,-,0,0,-,0,0,0,+,+,-,+,-,+,-,-,+,-,-,-,0,-,-,0,
i̤,1,kore1280,kor,NA,NA,2.62E+02,NA,FALSE,vowel,fake,0,-,+,-,-,-,+,+,0,+,-,-,-,-,-,0,0,-,0,0,0,+,+,-,+,-,+,-,-,+,-,+,-,0,-,-,0,
ĩ̤,1,kore1280,kor,NA,NA,263,NA,FALSE,vowel,fake,0,-,+,-,-,-,+,+,0,+,-,-,+,-,-,0,0,-,0,0,0,+,+,-,+,-,+,-,-,+,-,+,-,0,-,-,0,
i̥,1,kore1280,kor,NA,NA,264,NA,FALSE,vowel,fake,0,-,+,-,-,-,+,+,0,+,-,-,-,-,-,0,0,-,0,0,0,+,+,-,+,-,+,-,-,-,-,-,-,0,-,-,0,
ḭ,1,kore1280,kor,NA,NA,265,NA,FALSE,vowel,fake,0,-,+,-,-,-,+,+,0,+,-,-,-,-,-,0,0,-,0,0,0,+,+,-,+,-,+,-,-,+,-,-,+,0,-,-,0,
iʵ,1,kore1280,kor,NA,NA,266,NA,FALSE,vowel,fake,0,-,+,-,-,-,+,+,0,+,-,-,-,-,-,0,0,+,+,+,+,+,+,-,+,-,+,-,-,+,-,-,-,0,-,-,0,
iʵː,1,kore1280,kor,NA,NA,267,NA,FALSE,vowel,fake,0,-,+,-,+,-,+,+,0,+,-,-,-,-,-,0,0,+,+,+,+,+,+,-,+,-,+,-,-,+,-,-,-,0,-,-,0,
iː,1,kore1280,kor,NA,NA,268,NA,FALSE,vowel,fake,0,-,+,-,+,-,+,+,0,+,-,-,-,-,-,0,0,-,0,0,0,+,+,-,+,-,+,-,-,+,-,-,-,0,-,-,0,
ĩː,1,kore1280,kor,NA,NA,269,NA,FALSE,vowel,fake,0,-,+,-,+,-,+,+,0,+,-,-,+,-,-,0,0,-,0,0,0,+,+,-,+,-,+,-,-,+,-,-,-,0,-,-,0,
i̤ː,1,kore1280,kor,NA,NA,270,NA,FALSE,vowel,fake,0,-,+,-,+,-,+,+,0,+,-,-,-,-,-,0,0,-,0,0,0,+,+,-,+,-,+,-,-,+,-,+,-,0,-,-,0,
ĩ̤ː,1,kore1280,kor,NA,NA,2.71E+02,NA,FALSE,vowel,fake,0,-,+,-,+,-,+,+,0,+,-,-,+,-,-,0,0,-,0,0,0,+,+,-,+,-,+,-,-,+,-,+,-,0,-,-,0,
ia,1,kore1280,kor,NA,NA,272,NA,FALSE,vowel,fake,0,-,+,-,-,-,+,+,0,+,-,-,-,-,-,0,0,-,0,0,0,+,"+,-","-,+","+,-",-,+,-,-,+,-,-,-,0,-,-,0,
i̯a,1,kore1280,kor,NA,NA,273,NA,FALSE,vowel,fake,0,-,"-,+",-,-,-,+,+,0,+,-,-,-,-,-,0,0,-,0,0,0,+,"+,-","-,+","+,-",-,+,-,-,+,-,-,-,0,-,-,0,
i̯aː,1,kore1280,kor,NA,NA,274,NA,FALSE,vowel,fake,0,-,"-,+",-,"-,+",-,+,+,0,+,-,-,-,-,-,0,0,-,0,0,0,+,"+,-","-,+","+,-",-,+,-,-,+,-,-,-,0,-,-,0,
i̯ɐ,1,kore1280,kor,NA,NA,275,NA,FALSE,vowel,fake,0,-,"-,+",-,-,-,+,+,0,+,-,-,-,-,"-,+",+,-,-,0,0,0,+,"+,-","-,+","+,-",-,+,-,-,+,-,-,-,0,-,-,0,
iɑ,1,kore1280,kor,NA,NA,276,NA,FALSE,vowel,fake,0,-,+,-,-,-,+,+,0,+,-,-,-,-,-,0,0,-,0,0,0,+,"+,-","-,+","+,-","-,+",+,-,-,+,-,-,-,0,-,-,0,
ie,1,kore1280,kor,NA,NA,277,NA,FALSE,vowel,fake,0,-,+,-,-,-,+,+,0,+,-,-,-,-,-,0,0,-,0,0,0,+,"+,-",-,+,-,+,-,-,+,-,-,-,0,-,-,0,
iĕ,1,kore1280,kor,NA,NA,278,NA,FALSE,vowel,fake,0,-,+,"-,+",-,-,+,+,0,+,-,-,-,-,-,0,0,-,0,0,0,+,"+,-",-,+,-,+,-,-,+,-,-,-,0,-,-,0,
i̯e,1,kore1280,kor,NA,NA,279,NA,FALSE,vowel,fake,0,-,"-,+",-,-,-,+,+,0,+,-,-,-,-,-,0,0,-,0,0,0,+,"+,-",-,+,-,+,-,-,+,-,-,-,0,-,-,0,
i̯eː,1,kore1280,kor,NA,NA,2.80E+02,NA,FALSE,vowel,fake,0,-,"-,+",-,"-,+",-,+,+,0,+,-,-,-,-,-,0,0,-,0,0,0,+,"+,-",-,+,-,+,-,-,+,-,-,-,0,-,-,0,
iə̯,1,kore1280,kor,NA,NA,281,NA,FALSE,vowel,fake,0,-,"+,-",-,-,-,+,+,0,+,-,-,-,-,-,0,0,-,0,0,0,+,"+,-",-,"+,-",-,"+,-",-,-,+,-,-,-,0,-,-,0,
i̯ə,1,kore1280,kor,NA,NA,282,NA,FALSE,vowel,fake,0,-,"-,+",-,-,-,+,+,0,+,-,-,-,-,-,0,0,-,0,0,0,+,"+,-",-,"+,-",-,"+,-",-,-,+,-,-,-,0,-,-,0,
i̯əu̯,1,kore1280,kor,NA,NA,283,NA,FALSE,vowel,fake,0,-,"-,+,-",-,-,-,+,+,0,+,-,-,-,-,"-,-,+",+,-,-,0,0,0,+,"+,-,+",-,"+,-,-","-,-,+","+,-,+",-,-,+,-,-,-,0,-,-,0,
iɛ,1,kore1280,kor,NA,NA,284,NA,FALSE,vowel,fake,0,-,+,-,-,-,+,+,0,+,-,-,-,-,-,0,0,-,0,0,0,+,"+,-",-,+,-,"+,-",-,-,+,-,-,-,0,-,-,0,
i̯ɛ̃,1,kore1280,kor,NA,NA,285,NA,FALSE,vowel,fake,0,-,"-,+",-,-,-,+,+,0,+,-,-,"-,+",-,-,0,0,-,0,0,0,+,"+,-",-,+,-,"+,-",-,-,+,-,-,-,0,-,-,0,
i̯ɜ,1,kore1280,kor,NA,NA,286,NA,FALSE,vowel,fake,0,-,"-,+",-,-,-,+,+,0,+,-,-,-,-,-,0,0,-,0,0,0,+,"+,-",-,"+,-",-,"+,-",-,-,+,-,-,-,0,-,-,0,
i̯ɤ,1,kore1280,kor,NA,NA,287,NA,FALSE,vowel,fake,0,-,"-,+",-,-,-,+,+,0,+,-,-,-,-,-,0,0,-,0,0,0,+,"+,-",-,"+,-","-,+",+,-,-,+,-,-,-,0,-,-,0,
ii̯,1,kore1280,kor,NA,NA,288,NA,FALSE,vowel,fake,0,-,"+,-",-,-,-,+,+,0,+,-,-,-,-,-,0,0,-,0,0,0,+,+,-,+,-,+,-,-,+,-,-,-,0,-,-,0,
i̯o,1,kore1280,kor,NA,NA,2.89E+02,NA,FALSE,vowel,fake,0,-,"-,+",-,-,-,+,+,0,+,-,-,-,-,"-,+",+,-,-,0,0,0,+,"+,-",-,"+,-","-,+",+,-,-,+,-,-,-,0,-,-,0,
i̯õ,1,kore1280,kor,NA,NA,290,NA,FALSE,vowel,fake,0,-,"-,+",-,-,-,+,+,0,+,-,-,"-,+",-,"-,+",+,-,-,0,0,0,+,"+,-",-,"+,-","-,+",+,-,-,+,-,-,-,0,-,-,0,
i̯ɔ,1,kore1280,kor,NA,NA,291,NA,FALSE,vowel,fake,0,-,"-,+",-,-,-,+,+,0,+,-,-,-,-,"-,+",+,-,-,0,0,0,+,"+,-",-,"+,-","-,+","+,-",-,-,+,-,-,-,0,-,-,0,
iu,1,kore1280,kor,NA,NA,292,NA,FALSE,vowel,fake,0,-,+,-,-,-,+,+,0,+,-,-,-,-,"-,+",+,-,-,0,0,0,+,+,-,"+,-","-,+",+,-,-,+,-,-,-,0,-,-,0,
iu̯,1,kore1280,kor,NA,NA,293,NA,FALSE,vowel,fake,0,-,"+,-",-,-,-,+,+,0,+,-,-,-,-,"-,+",+,-,-,0,0,0,+,+,-,"+,-","-,+",+,-,-,+,-,-,-,0,-,-,0,
i̯u,1,kore1280,kor,NA,NA,294,NA,FALSE,vowel,fake,0,-,"-,+",-,-,-,+,+,0,+,-,-,-,-,"-,+",+,-,-,0,0,0,+,+,-,"+,-","-,+",+,-,-,+,-,-,-,0,-,-,0,
i̯ɯ,1,kore1280,kor,NA,NA,295,NA,FALSE,vowel,fake,0,-,"-,+",-,-,-,+,+,0,+,-,-,-,-,-,0,0,-,0,0,0,+,+,-,"+,-","-,+",+,-,-,+,-,-,-,0,-,-,0,
i̯ʌ,1,kore1280,kor,NA,NA,296,NA,FALSE,vowel,fake,0,-,"-,+",-,-,-,+,+,0,+,-,-,-,-,-,0,0,-,0,0,0,+,"+,-",-,"+,-","-,+","+,-",-,-,+,-,-,-,0,-,-,0,
iˀ,1,kore1280,kor,NA,NA,297,NA,FALSE,vowel,fake,0,-,+,-,-,-,+,+,0,+,-,-,-,-,-,0,0,-,0,0,0,+,+,-,+,-,+,-,-,+,-,-,+,0,-,-,0,
ɪ,1,kore1280,kor,NA,NA,2.98E+02,NA,FALSE,vowel,fake,0,-,+,-,-,-,+,+,0,+,-,-,-,-,-,0,0,-,0,0,0,+,+,-,+,-,-,-,-,+,-,-,-,0,-,-,0,
ɪ̃,1,kore1280,kor,NA,NA,299,NA,FALSE,vowel,fake,0,-,+,-,-,-,+,+,0,+,-,-,+,-,-,0,0,-,0,0,0,+,+,-,+,-,-,-,-,+,-,-,-,0,-,-,0,
ɪ̤̃,1,kore1280,kor,NA,NA,300,NA,FALSE,vowel,fake,0,-,+,-,-,-,+,+,0,+,-,-,+,-,-,0,0,-,0,0,0,+,+,-,+,-,-,-,-,+,-,+,-,0,-,-,0,
ɪ̰̃,1,kore1280,kor,NA,NA,301,NA,FALSE,vowel,fake,0,-,+,-,-,-,+,+,0,+,-,-,+,-,-,0,0,-,0,0,0,+,+,-,+,-,-,-,-,+,-,-,+,0,-,-,0,
ɪː,1,kore1280,kor,NA,NA,302,NA,FALSE,vowel,fake,0,-,+,-,+,-,+,+,0,+,-,-,-,-,-,0,0,-,0,0,0,+,+,-,+,-,-,-,-,+,-,-,-,0,-,-,0,
ɪu̯,1,kore1280,kor,NA,NA,303,NA,FALSE,vowel,fake,0,-,"+,-",-,-,-,+,+,0,+,-,-,-,-,"-,+",+,-,-,0,0,0,+,+,-,"+,-","-,+","-,+",-,-,+,-,-,-,0,-,-,0,
ɪˀ,1,kore1280,kor,NA,NA,304,NA,FALSE,vowel,fake,0,-,+,-,-,-,+,+,0,+,-,-,-,-,-,0,0,-,0,0,0,+,+,-,+,-,-,-,-,+,-,-,+,0,-,-,0,
ɨ,1,kore1280,kor,NA,NA,305,NA,FALSE,vowel,fake,0,-,+,-,-,-,+,+,0,+,-,-,-,-,-,0,0,-,0,0,0,+,+,-,-,-,+,-,-,+,-,-,-,0,-,-,0,
ɨ̃,1,kore1280,kor,NA,NA,306,NA,FALSE,vowel,fake,0,-,+,-,-,-,+,+,0,+,-,-,+,-,-,0,0,-,0,0,0,+,+,-,-,-,+,-,-,+,-,-,-,0,-,-,0,
ᵻ,1,kore1280,kor,NA,NA,3.07E+02,NA,FALSE,vowel,fake,0,-,+,-,-,-,+,+,0,+,-,-,-,-,-,0,0,-,0,0,0,+,+,-,-,-,0,-,-,+,-,-,-,0,-,-,0,
ɨ̞,1,kore1280,kor,NA,NA,308,NA,FALSE,vowel,fake,0,-,+,-,-,-,+,+,0,+,-,-,-,-,-,0,0,-,0,0,0,+,+,-,-,-,0,-,-,+,-,-,-,0,-,-,0,
ɨ̰,1,kore1280,kor,NA,NA,309,NA,FALSE,vowel,fake,0,-,+,-,-,-,+,+,0,+,-,-,-,-,-,0,0,-,0,0,0,+,+,-,-,-,+,-,-,+,-,-,+,0,-,-,0,
ɨː,1,kore1280,kor,NA,NA,310,NA,FALSE,vowel,fake,0,-,+,-,+,-,+,+,0,+,-,-,-,-,-,0,0,-,0,0,0,+,+,-,-,-,+,-,-,+,-,-,-,0,-,-,0,
ɨ̃ː,1,kore1280,kor,NA,NA,311,NA,FALSE,vowel,fake,0,-,+,-,+,-,+,+,0,+,-,-,+,-,-,0,0,-,0,0,0,+,+,-,-,-,+,-,-,+,-,-,-,0,-,-,0,
ɨi̯,1,kore1280,kor,NA,NA,312,NA,FALSE,vowel,fake,0,-,"+,-",-,-,-,+,+,0,+,-,-,-,-,-,0,0,-,0,0,0,+,+,-,"-,+",-,+,-,-,+,-,-,-,0,-,-,0,
j,1,kore1280,kor,NA,NA,313,NA,FALSE,consonant,fake,0,-,-,-,-,-,+,+,0,+,-,-,-,-,-,0,0,-,0,0,0,+,+,-,+,-,+,0,0,+,-,-,-,-,-,-,-,
j̥,1,kore1280,kor,NA,NA,314,NA,FALSE,consonant,fake,0,-,-,-,-,-,+,+,0,+,-,-,-,-,-,0,0,-,0,0,0,+,+,-,+,-,+,0,0,-,-,-,-,-,-,-,-,
ʝ,1,kore1280,kor,NA,NA,315,NA,FALSE,consonant,fake,0,-,-,-,-,+,-,+,+,-,-,-,-,-,-,0,0,+,-,+,-,+,+,-,+,-,0,0,0,+,-,-,-,-,-,-,-,
ʝʷ,1,kore1280,kor,NA,NA,3.16E+02,NA,FALSE,consonant,fake,0,-,-,-,-,+,-,+,+,-,-,-,-,-,+,+,-,+,-,+,-,+,+,-,+,-,0,0,0,+,-,-,-,-,-,-,-,
ɟ,1,kore1280,kor,NA,NA,317,NA,FALSE,consonant,fake,0,-,-,-,-,+,-,-,-,-,-,-,-,-,-,0,0,+,-,+,-,+,+,-,+,-,0,0,0,+,-,-,-,-,-,-,-,
ɟʱ,1,kore1280,kor,NA,NA,318,NA,FALSE,consonant,fake,0,-,-,-,-,+,-,-,-,-,-,-,-,-,-,0,0,+,-,+,-,+,+,-,+,-,0,0,0,+,-,+,-,-,-,-,-,
ɟʝ,1,kore1280,kor,NA,NA,319,NA,FALSE,consonant,fake,0,-,-,-,-,+,-,-,+,-,-,-,-,-,-,0,0,+,-,+,-,+,+,-,+,-,0,0,0,+,-,-,-,-,-,-,-,
k,1,kore1280,kor,NA,NA,320,NA,FALSE,consonant,fake,0,-,-,-,-,+,-,-,-,-,-,-,-,-,-,0,0,-,0,0,0,+,+,-,-,-,0,0,0,-,-,-,-,-,-,-,-,
kʵ,1,kore1280,kor,NA,NA,321,NA,FALSE,consonant,fake,0,-,-,-,-,+,-,-,-,-,-,-,-,-,-,0,0,+,+,+,+,+,+,-,-,-,0,0,0,-,-,-,-,-,-,-,-,
kʵʰ,1,kore1280,kor,NA,NA,322,NA,FALSE,consonant,fake,0,-,-,-,-,+,-,-,-,-,-,-,-,-,-,0,0,+,+,+,+,+,+,-,-,-,0,0,0,-,-,+,-,-,-,-,-,
kː,1,kore1280,kor,NA,NA,323,NA,FALSE,consonant,fake,0,-,-,-,+,+,-,-,-,-,-,-,-,-,-,0,0,-,0,0,0,+,+,-,-,-,0,0,0,-,-,-,-,-,-,-,-,
kƥʷ,1,kore1280,kor,NA,NA,324,NA,FALSE,consonant,fake,0,-,-,-,-,+,-,-,-,-,-,-,-,-,"-,+",+,-,-,0,0,0,"+,-",+,-,-,-,0,0,0,-,-,-,-,-,-,"-,+",-,
kʰ,1,kore1280,kor,NA,NA,3.25E+02,NA,FALSE,consonant,fake,0,-,-,-,-,+,-,-,-,-,-,-,-,-,-,0,0,-,0,0,0,+,+,-,-,-,0,0,0,-,-,+,-,-,-,-,-,
kʲ,1,kore1280,kor,NA,NA,326,NA,FALSE,consonant,fake,0,-,-,-,-,+,-,-,-,-,-,-,-,-,-,0,0,-,0,0,0,+,+,-,+,-,0,0,0,-,-,-,-,-,-,-,-,
kʲʰ,1,kore1280,kor,NA,NA,327,NA,FALSE,consonant,fake,0,-,-,-,-,+,-,-,-,-,-,-,-,-,-,0,0,-,0,0,0,+,+,-,+,-,0,0,0,-,-,+,-,-,-,-,-,
kʟ͓̥,1,kore1280,kor,NA,NA,328,NA,FALSE,consonant,fake,0,-,-,-,-,+,"-,+","-,+","-,+","-,+",-,-,-,"-,+",-,0,0,-,0,0,0,+,+,-,-,-,0,0,0,-,-,-,-,-,-,-,-,
kŋ,1,kore1280,kor,NA,NA,329,NA,FALSE,consonant,fake,0,-,-,-,-,+,"-,+",-,-,-,-,-,"-,+",-,-,0,0,-,0,0,0,+,+,-,-,-,0,0,0,"-,+",-,-,-,-,-,-,-,
kⁿ,1,kore1280,kor,NA,NA,329,NA,FALSE,consonant,fake,0,-,-,-,-,+,"-,+",-,-,-,-,-,"-,+",-,-,0,0,-,0,0,0,+,+,-,-,-,0,0,0,"-,+",-,-,-,-,-,-,-,
kp,1,kore1280,kor,NA,NA,330,NA,FALSE,consonant,fake,0,-,-,-,-,+,-,-,-,-,-,-,-,-,+,-,-,-,0,0,0,+,+,-,-,-,0,0,0,-,-,-,-,-,-,-,-,
kpʷ,1,kore1280,kor,NA,NA,331,NA,FALSE,consonant,fake,0,-,-,-,-,+,-,-,-,-,-,-,-,-,+,+,-,-,0,0,0,+,+,-,-,-,0,0,0,-,-,-,-,-,-,-,-,
kʷ,1,kore1280,kor,NA,NA,332,NA,FALSE,consonant,fake,0,-,-,-,-,+,-,-,-,-,-,-,-,-,+,+,-,-,0,0,0,+,+,-,-,-,0,0,0,-,-,-,-,-,-,-,-,
kʷʰ,1,kore1280,kor,NA,NA,333,NA,FALSE,consonant,fake,0,-,-,-,-,+,-,-,-,-,-,-,-,-,+,+,-,-,0,0,0,+,+,-,-,-,0,0,0,-,-,+,-,-,-,-,-,
kχ,1,kore1280,kor,NA,NA,3.34E+02,NA,FALSE,consonant,fake,0,-,-,-,-,+,-,"-,+","-,+",-,-,-,-,-,-,0,0,-,0,0,0,+,"+,-",-,-,"-,+",0,0,0,-,-,-,-,-,-,-,-,
l,1,kore1280,kor,NA,NA,335,NA,FALSE,consonant,fake,0,-,-,-,-,+,+,+,0,+,-,-,-,+,-,0,0,+,+,-,-,-,0,0,0,0,0,0,0,+,-,-,-,-,-,-,-,
l̠,1,kore1280,kor,NA,NA,336,NA,FALSE,consonant,fake,0,-,-,-,-,+,+,+,0,+,-,-,-,+,-,0,0,+,-,+,-,-,0,0,0,0,0,0,0,+,-,-,-,-,-,-,-,
l̩,1,kore1280,kor,NA,NA,337,NA,FALSE,consonant,fake,0,-,+,-,-,+,+,+,0,+,-,-,-,+,-,0,0,+,+,-,-,-,0,0,0,0,0,0,0,+,-,-,-,-,-,-,-,
l̪,1,kore1280,kor,NA,NA,338,NA,FALSE,consonant,fake,0,-,-,-,-,+,+,+,0,+,-,-,-,+,-,0,0,+,+,+,-,-,0,0,0,0,0,0,0,+,-,-,-,-,-,-,-,
l̪͆,1,kore1280,kor,NA,NA,338,NA,FALSE,consonant,fake,0,-,-,-,-,+,+,+,0,+,-,-,-,+,-,0,0,+,+,+,-,-,0,0,0,0,0,0,0,+,-,-,-,-,-,-,-,
l̥,1,kore1280,kor,NA,NA,339,NA,FALSE,consonant,fake,0,-,-,-,-,+,+,+,0,+,-,-,-,+,-,0,0,+,+,-,-,-,0,0,0,0,0,0,0,-,-,-,-,-,-,-,-,
l̥̩,1,kore1280,kor,NA,NA,340,NA,FALSE,consonant,fake,0,-,+,-,-,+,+,+,0,+,-,-,-,+,-,0,0,+,+,-,-,-,0,0,0,0,0,0,0,-,-,-,-,-,-,-,-,
lː,1,kore1280,kor,NA,NA,341,NA,FALSE,consonant,fake,0,-,-,-,+,+,+,+,0,+,-,-,-,+,-,0,0,+,+,-,-,-,0,0,0,0,0,0,0,+,-,-,-,-,-,-,-,
lʱ,1,kore1280,kor,NA,NA,342,NA,FALSE,consonant,fake,0,-,-,-,-,+,+,+,0,+,-,-,-,+,-,0,0,+,+,-,-,-,0,0,0,0,0,0,0,+,-,+,-,-,-,-,-,
ȴ,1,kore1280,kor,NA,NA,3.43E+02,NA,FALSE,consonant,fake,0,-,-,-,-,+,+,+,0,+,-,-,-,+,-,0,0,+,+,+,-,+,+,-,+,-,0,0,0,+,-,-,-,-,-,-,-,
ʟ,1,kore1280,kor,NA,NA,344,NA,FALSE,consonant,fake,0,-,-,-,-,+,+,+,0,+,-,-,-,+,-,0,0,-,0,0,0,+,+,-,-,-,0,0,0,+,-,-,-,-,-,-,-,
ʟ͓,1,kore1280,kor,NA,NA,345,NA,FALSE,consonant,fake,0,-,-,-,-,+,+,+,+,+,-,-,-,+,-,0,0,-,0,0,0,+,+,-,-,-,0,0,0,+,-,-,-,-,-,-,-,
ɫ,1,kore1280,kor,NA,NA,346,NA,FALSE,consonant,fake,0,-,-,-,-,+,+,+,0,+,-,-,-,+,-,0,0,+,+,-,-,+,-,-,-,+,0,0,0,+,-,-,-,-,-,-,-,
ɬ,1,kore1280,kor,NA,NA,347,NA,FALSE,consonant,fake,0,-,-,-,-,+,-,+,+,-,-,-,-,+,-,0,0,+,+,-,-,-,0,0,0,0,0,0,0,-,-,-,-,-,-,-,-,
ɭ,1,kore1280,kor,NA,NA,348,NA,FALSE,consonant,fake,0,-,-,-,-,+,+,+,0,+,-,-,-,+,-,0,0,+,-,-,-,-,0,0,0,0,0,0,0,+,-,-,-,-,-,-,-,
ɭ̥,1,kore1280,kor,NA,NA,349,NA,FALSE,consonant,fake,0,-,-,-,-,+,+,+,0,+,-,-,-,+,-,0,0,+,-,-,-,-,0,0,0,0,0,0,0,-,-,-,-,-,-,-,-,
m,1,kore1280,kor,NA,NA,350,NA,FALSE,consonant,fake,0,-,-,-,-,+,+,-,0,-,-,-,+,-,+,-,-,-,0,0,0,-,0,0,0,0,0,0,0,+,-,-,-,-,-,-,-,
m̩,1,kore1280,kor,NA,NA,351,NA,FALSE,consonant,fake,0,-,+,-,-,+,+,-,0,-,-,-,+,-,+,-,-,-,0,0,0,-,0,0,0,0,0,0,0,+,-,-,-,-,-,-,-,
m̤̩,1,kore1280,kor,NA,NA,3.52E+02,NA,FALSE,consonant,fake,0,-,+,-,-,+,+,-,0,-,-,-,+,-,+,-,-,-,0,0,0,-,0,0,0,0,0,0,0,+,-,+,-,-,-,-,-,
m̥,1,kore1280,kor,NA,NA,353,NA,FALSE,consonant,fake,0,-,-,-,-,+,+,-,0,-,-,-,+,-,+,-,-,-,0,0,0,-,0,0,0,0,0,0,0,-,-,-,-,-,-,-,-,
m̥̩,1,kore1280,kor,NA,NA,354,NA,FALSE,consonant,fake,0,-,+,-,-,+,+,-,0,-,-,-,+,-,+,-,-,-,0,0,0,-,0,0,0,0,0,0,0,-,-,-,-,-,-,-,-,
m̰̩,1,kore1280,kor,NA,NA,355,NA,FALSE,consonant,fake,0,-,+,-,-,+,+,-,0,-,-,-,+,-,+,-,-,-,0,0,0,-,0,0,0,0,0,0,0,+,-,-,+,-,-,-,-,
mː,1,kore1280,kor,NA,NA,356,NA,FALSE,consonant,fake,0,-,-,-,+,+,+,-,0,-,-,-,+,-,+,-,-,-,0,0,0,-,0,0,0,0,0,0,0,+,-,-,-,-,-,-,-,
ⁿb,1,kore1280,kor,NA,NA,357,NA,FALSE,consonant,fake,0,-,-,-,-,+,"+,-",-,-,-,-,-,"+,-",-,+,-,-,-,0,0,0,-,0,0,0,0,0,0,0,+,-,-,-,-,-,-,-,
ⁿbʲ,1,kore1280,kor,NA,NA,358,NA,FALSE,consonant,fake,0,-,-,-,-,+,"+,-",-,-,-,-,-,"+,-",-,+,-,-,-,0,0,0,"-,+",+,-,+,-,0,0,0,+,-,-,-,-,-,-,-,
ⁿbʷ,1,kore1280,kor,NA,NA,359,NA,FALSE,consonant,fake,0,-,-,-,-,+,"+,-",-,-,-,-,-,"+,-",-,+,"-,+",-,-,0,0,0,-,0,0,0,0,0,0,0,+,-,-,-,-,-,-,-,
ⁿbʙ,1,kore1280,kor,NA,NA,360,NA,FALSE,consonant,fake,0,-,-,-,-,+,+,"-,+",0,"-,+",-,"-,+","+,-",-,+,-,-,-,0,0,0,-,0,0,0,0,0,0,0,+,-,-,-,-,-,-,-,
mʱ,1,kore1280,kor,NA,NA,3.61E+02,NA,FALSE,consonant,fake,0,-,-,-,-,+,+,-,0,-,-,-,+,-,+,-,-,-,0,0,0,-,0,0,0,0,0,0,0,+,-,+,-,-,-,-,-,
mʲ,1,kore1280,kor,NA,NA,362,NA,FALSE,consonant,fake,0,-,-,-,-,+,+,-,0,-,-,-,+,-,+,-,-,-,0,0,0,+,+,-,+,-,0,0,0,+,-,-,-,-,-,-,-,
ⁿp,1,kore1280,kor,NA,NA,363,NA,FALSE,consonant,fake,0,-,-,-,-,+,"+,-",-,-,-,-,-,"+,-",-,+,-,-,-,0,0,0,-,0,0,0,0,0,0,0,"+,-",-,-,-,-,-,-,-,
ⁿpʰ,1,kore1280,kor,NA,NA,364,NA,FALSE,consonant,fake,0,-,-,-,-,+,"+,-",-,-,-,-,-,"+,-",-,+,-,-,-,0,0,0,-,0,0,0,0,0,0,0,"+,-",-,"-,+",-,-,-,-,-,
ⁿpʲ,1,kore1280,kor,NA,NA,365,NA,FALSE,consonant,fake,0,-,-,-,-,+,"+,-",-,-,-,-,-,"+,-",-,+,-,-,-,0,0,0,"-,+",+,-,+,-,0,0,0,"+,-",-,-,-,-,-,-,-,
ⁿpʲʰ,1,kore1280,kor,NA,NA,366,NA,FALSE,consonant,fake,0,-,-,-,-,+,"+,-",-,-,-,-,-,"+,-",-,+,-,-,-,0,0,0,"-,+",+,-,+,-,0,0,0,"+,-",-,"-,+",-,-,-,-,-,
ⁿpʷ,1,kore1280,kor,NA,NA,367,NA,FALSE,consonant,fake,0,-,-,-,-,+,"+,-",-,-,-,-,-,"+,-",-,+,"-,+",-,-,0,0,0,-,0,0,0,0,0,0,0,"+,-",-,-,-,-,-,-,-,
ⁿv,1,kore1280,kor,NA,NA,368,NA,FALSE,consonant,fake,0,-,-,-,-,+,"+,-","-,+",+,-,-,-,"+,-",-,+,-,"-,+",-,0,0,0,-,0,0,0,0,0,0,0,+,-,-,-,-,-,-,-,
mv,1,kore1280,kor,NA,NA,368,NA,FALSE,consonant,fake,0,-,-,-,-,+,"+,-","-,+",+,-,-,-,"+,-",-,+,-,"-,+",-,0,0,0,-,0,0,0,0,0,0,0,+,-,-,-,-,-,-,-,
mʷ,1,kore1280,kor,NA,NA,369,NA,FALSE,consonant,fake,0,-,-,-,-,+,+,-,0,-,-,-,+,-,+,+,-,-,0,0,0,-,0,0,0,0,0,0,0,+,-,-,-,-,-,-,-,
m̥ʷ,1,kore1280,kor,NA,NA,3.70E+02,NA,FALSE,consonant,fake,0,-,-,-,-,+,+,-,0,-,-,-,+,-,+,+,-,-,0,0,0,-,0,0,0,0,0,0,0,-,-,-,-,-,-,-,-,
mʷː,1,kore1280,kor,NA,NA,371,NA,FALSE,consonant,fake,0,-,-,-,+,+,+,-,0,-,-,-,+,-,+,+,-,-,0,0,0,-,0,0,0,0,0,0,0,+,-,-,-,-,-,-,-,
n,1,kore1280,kor,NA,NA,372,NA,FALSE,consonant,fake,0,-,-,-,-,+,+,-,0,-,-,-,+,-,-,0,0,+,+,-,-,-,0,0,0,0,0,0,0,+,-,-,-,-,-,-,-,
n̠,1,kore1280,kor,NA,NA,373,NA,FALSE,consonant,fake,0,-,-,-,-,+,+,-,0,-,-,-,+,-,-,0,0,+,-,+,-,-,0,0,0,0,0,0,0,+,-,-,-,-,-,-,-,
n̩,1,kore1280,kor,NA,NA,374,NA,FALSE,consonant,fake,0,-,+,-,-,+,+,-,0,-,-,-,+,-,-,0,0,+,+,-,-,-,0,0,0,0,0,0,0,+,-,-,-,-,-,-,-,
n̪,1,kore1280,kor,NA,NA,375,NA,FALSE,consonant,fake,0,-,-,-,-,+,+,-,0,-,-,-,+,-,-,0,0,+,+,+,-,-,0,0,0,0,0,0,0,+,-,-,-,-,-,-,-,
n̻,1,kore1280,kor,NA,NA,376,NA,FALSE,consonant,fake,0,-,-,-,-,+,+,-,0,-,-,-,+,-,-,0,0,+,+,+,-,-,0,0,0,0,0,0,0,+,-,-,-,-,-,-,-,
n̪̥,1,kore1280,kor,NA,NA,377,NA,FALSE,consonant,fake,0,-,-,-,-,+,+,-,0,-,-,-,+,-,-,0,0,+,+,+,-,-,0,0,0,0,0,0,0,-,-,-,-,-,-,-,-,
n̥,1,kore1280,kor,NA,NA,378,NA,FALSE,consonant,fake,0,-,-,-,-,+,+,-,0,-,-,-,+,-,-,0,0,+,+,-,-,-,0,0,0,0,0,0,0,-,-,-,-,-,-,-,-,
nː,1,kore1280,kor,NA,NA,3.79E+02,NA,FALSE,consonant,fake,0,-,-,-,+,+,+,-,0,-,-,-,+,-,-,0,0,+,+,-,-,-,0,0,0,0,0,0,0,+,-,-,-,-,-,-,-,
ⁿd,1,kore1280,kor,NA,NA,380,NA,FALSE,consonant,fake,0,-,-,-,-,+,"+,-",-,-,-,-,-,"+,-",-,-,0,0,+,+,-,-,-,0,0,0,0,0,0,0,+,-,-,-,-,-,-,-,
ⁿd̪,1,kore1280,kor,NA,NA,381,NA,FALSE,consonant,fake,0,-,-,-,-,+,"+,-",-,-,-,-,-,"+,-",-,-,0,0,+,+,+,-,-,0,0,0,0,0,0,0,+,-,-,-,-,-,-,-,
ⁿdʙ,1,kore1280,kor,NA,NA,382,NA,FALSE,consonant,fake,0,-,-,-,-,+,"+,-,+","-,-,+",-,"-,-,+",-,"-,-,+","+,-,-",-,"-,-,+",-,-,"+,+,-",+,-,-,-,0,0,0,0,0,0,0,+,-,-,-,-,-,-,-,
ⁿȡ,1,kore1280,kor,NA,NA,383,NA,FALSE,consonant,fake,0,-,-,-,-,+,"+,-",-,-,-,-,-,"+,-",-,-,0,0,+,+,+,-,+,+,-,+,-,0,0,0,+,-,-,-,-,-,-,-,
ⁿdr,1,kore1280,kor,NA,NA,384,NA,FALSE,consonant,fake,0,-,-,-,-,+,"+,-,+","-,-,+",-,"-,-,+",-,"-,-,+","+,-,-",-,-,0,0,+,+,-,-,-,0,0,0,0,0,0,0,+,-,-,-,-,-,-,-,
ⁿȡʷ,1,kore1280,kor,NA,NA,385,NA,FALSE,consonant,fake,0,-,-,-,-,+,"+,-",-,-,-,-,-,"+,-",-,+,+,-,+,+,-,-,+,+,-,+,-,0,0,0,+,-,-,-,-,-,-,-,
ⁿdz,1,kore1280,kor,NA,NA,386,NA,FALSE,consonant,fake,0,-,-,-,-,+,"+,-",-,+,-,-,-,"+,-",-,-,0,0,+,+,-,+,-,0,0,0,0,0,0,0,+,-,-,-,-,-,-,-,
ⁿdʑ,1,kore1280,kor,NA,NA,387,NA,FALSE,consonant,fake,0,-,-,-,-,+,"+,-",-,+,-,-,-,"+,-,-",-,-,0,0,+,+,+,+,+,+,-,+,-,0,0,0,+,-,-,-,-,-,-,-,
ⁿdʒ,1,kore1280,kor,NA,NA,3.88E+02,NA,FALSE,consonant,fake,0,-,-,-,-,+,"+,-",-,+,-,-,-,"+,-",-,-,0,0,+,-,+,+,-,0,0,0,0,0,0,0,+,-,-,-,-,-,-,-,
nʱ,1,kore1280,kor,NA,NA,389,NA,FALSE,consonant,fake,0,-,-,-,-,+,+,-,0,-,-,-,+,-,-,0,0,+,+,-,-,-,0,0,0,0,0,0,0,+,-,+,-,-,-,-,-,
ȵ,1,kore1280,kor,NA,NA,390,NA,FALSE,consonant,fake,0,-,-,-,-,+,+,-,0,-,-,-,+,-,-,0,0,+,+,+,-,+,+,-,+,-,0,0,0,+,-,-,-,-,-,-,-,
ȵ̥,1,kore1280,kor,NA,NA,391,NA,FALSE,consonant,fake,0,-,-,-,-,+,+,-,0,-,-,-,+,-,-,0,0,+,+,+,-,+,+,-,+,-,0,0,0,-,-,-,-,-,-,-,-,
ⁿr,1,kore1280,kor,NA,NA,392,NA,FALSE,consonant,fake,0,-,-,-,-,+,+,"-,+",0,"-,+",-,+,"+,-",-,-,0,0,+,+,-,-,-,0,0,0,0,0,0,0,+,-,-,-,-,-,-,-,
ⁿs,1,kore1280,kor,NA,NA,393,NA,FALSE,consonant,fake,0,-,-,-,-,+,"+,-","-,+",+,-,-,-,"+,-",-,-,0,0,+,+,-,"-,+",-,0,0,0,0,0,0,0,"+,-",-,-,-,-,-,-,-,
ⁿt,1,kore1280,kor,NA,NA,394,NA,FALSE,consonant,fake,0,-,-,-,-,+,"+,-",-,-,-,-,-,"+,-",-,-,0,0,+,+,-,-,-,0,0,0,0,0,0,0,"+,-",-,-,-,-,-,-,-,
ⁿtɕ,1,kore1280,kor,NA,NA,395,NA,FALSE,consonant,fake,0,-,-,-,-,+,"+,-",-,+,-,-,-,"+,-",-,-,0,0,+,+,+,+,+,+,-,+,-,0,0,0,"+,-",-,-,-,-,-,-,-,
ⁿtʰ,1,kore1280,kor,NA,NA,396,NA,FALSE,consonant,fake,0,-,-,-,-,+,"+,-",-,-,-,-,-,"+,-",-,-,0,0,+,+,-,-,-,0,0,0,0,0,0,0,"+,-",-,"-,+",-,-,-,-,-,
ⁿts,1,kore1280,kor,NA,NA,3.97E+02,NA,FALSE,consonant,fake,0,-,-,-,-,+,"+,-",-,+,-,-,-,"+,-",-,-,0,0,+,+,-,+,-,0,0,0,0,0,0,0,"+,-",-,-,-,-,-,-,-,
ⁿtsʰ,1,kore1280,kor,NA,NA,398,NA,FALSE,consonant,fake,0,-,-,-,-,+,"+,-",-,+,-,-,-,"+,-",-,-,0,0,+,+,-,+,-,0,0,0,0,0,0,0,"+,-",-,+,-,-,-,-,-,
ⁿtʃ,1,kore1280,kor,NA,NA,399,NA,FALSE,consonant,fake,0,-,-,-,-,+,"+,-",-,+,-,-,-,"+,-",-,-,0,0,+,-,+,+,-,0,0,0,0,0,0,0,"+,-",-,-,-,-,-,-,-,
ⁿtʃʰ,1,kore1280,kor,NA,NA,400,NA,FALSE,consonant,fake,0,-,-,-,-,+,"+,-",-,+,-,-,-,"+,-",-,-,0,0,+,-,+,+,-,0,0,0,0,0,0,0,"+,-",-,+,-,-,-,-,-,
ⁿtʑ,1,kore1280,kor,NA,NA,401,NA,FALSE,consonant,fake,0,-,-,-,-,+,"+,-",-,+,-,-,-,"+,-,-",-,-,0,0,+,+,+,+,+,+,-,+,-,0,0,0,"+,-",-,-,-,-,-,-,-,
ȵʷ,1,kore1280,kor,NA,NA,402,NA,FALSE,consonant,fake,0,-,-,-,-,+,+,-,0,-,-,-,+,-,+,+,-,+,-,+,-,+,+,-,+,-,0,0,0,+,-,-,-,-,-,-,-,
ⁿʒ,1,kore1280,kor,NA,NA,403,NA,FALSE,consonant,fake,0,-,-,-,-,+,"+,-","-,+",+,-,-,-,"+,-",-,-,0,0,+,-,+,+,-,0,0,0,0,0,0,0,+,-,-,-,-,-,-,-,
ⁿɢ,1,kore1280,kor,NA,NA,404,NA,FALSE,consonant,fake,0,-,-,-,-,+,"+,-",-,-,-,-,-,"+,-",-,-,0,0,-,0,0,0,+,-,-,-,+,0,0,0,+,-,-,-,-,-,-,-,
ɲ,1,kore1280,kor,NA,NA,405,NA,FALSE,consonant,fake,0,-,-,-,-,+,+,-,0,-,-,-,+,-,-,0,0,+,-,+,-,+,+,-,+,-,0,0,0,+,-,-,-,-,-,-,-,
ⁿc,1,kore1280,kor,NA,NA,4.06E+02,NA,FALSE,consonant,fake,0,-,-,-,-,+,"+,-",-,-,-,-,-,"+,-",-,-,0,0,+,-,+,-,+,+,-,+,-,0,0,0,"+,-",-,-,-,-,-,-,-,
ⁿcʰ,1,kore1280,kor,NA,NA,407,NA,FALSE,consonant,fake,0,-,-,-,-,+,"+,-",-,-,-,-,-,"+,-",-,-,0,0,+,-,+,-,+,+,-,+,-,0,0,0,"+,-",-,"-,+",-,-,-,-,-,
ⁿɟ,1,kore1280,kor,NA,NA,408,NA,FALSE,consonant,fake,0,-,-,-,-,+,"+,-",-,-,-,-,-,"+,-",-,-,0,0,+,-,+,-,+,+,-,+,-,0,0,0,+,-,-,-,-,-,-,-,
ɳ,1,kore1280,kor,NA,NA,409,NA,FALSE,consonant,fake,0,-,-,-,-,+,+,-,0,-,-,-,+,-,-,0,0,+,-,-,-,-,0,0,0,0,0,0,0,+,-,-,-,-,-,-,-,
ɳ̥,1,kore1280,kor,NA,NA,410,NA,FALSE,consonant,fake,0,-,-,-,-,+,+,-,0,-,-,-,+,-,-,0,0,+,-,-,-,-,0,0,0,0,0,0,0,-,-,-,-,-,-,-,-,
ⁿɖ,1,kore1280,kor,NA,NA,411,NA,FALSE,consonant,fake,0,-,-,-,-,+,"+,-",-,-,-,-,-,"+,-",-,-,0,0,+,-,-,-,-,0,0,0,0,0,0,0,+,-,-,-,-,-,-,-,
ⁿdʐ,1,kore1280,kor,NA,NA,412,NA,FALSE,consonant,fake,0,-,-,-,-,+,"+,-",-,+,-,-,-,"+,-",-,-,0,0,+,-,-,+,-,0,0,0,0,0,0,0,+,-,-,-,-,-,-,-,
ⁿʈ,1,kore1280,kor,NA,NA,413,NA,FALSE,consonant,fake,0,-,-,-,-,+,"+,-",-,-,-,-,-,"+,-",-,-,0,0,+,-,-,-,-,0,0,0,0,0,0,0,"+,-",-,-,-,-,-,-,-,
ⁿʈʰ,1,kore1280,kor,NA,NA,414,NA,FALSE,consonant,fake,0,-,-,-,-,+,"+,-",-,-,-,-,-,"+,-",-,-,0,0,+,-,-,-,-,0,0,0,0,0,0,0,"+,-",-,"-,+",-,-,-,-,-,
ŋ,1,kore1280,kor,NA,NA,4.15E+02,NA,FALSE,consonant,fake,0,-,-,-,-,+,+,-,0,-,-,-,+,-,-,0,0,-,0,0,0,+,+,-,-,-,0,0,0,+,-,-,-,-,-,-,-,
ŋ̩,1,kore1280,kor,NA,NA,416,NA,FALSE,consonant,fake,0,-,+,-,-,+,+,-,0,-,-,-,+,-,-,0,0,-,0,0,0,+,+,-,-,-,0,0,0,+,-,-,-,-,-,-,-,
ŋ̥,1,kore1280,kor,NA,NA,417,NA,FALSE,consonant,fake,0,-,-,-,-,+,+,-,0,-,-,-,+,-,-,0,0,-,0,0,0,+,+,-,-,-,0,0,0,-,-,-,-,-,-,-,-,
ŋː,1,kore1280,kor,NA,NA,418,NA,FALSE,consonant,fake,0,-,-,-,+,+,+,-,0,-,-,-,+,-,-,0,0,-,0,0,0,+,+,-,-,-,0,0,0,+,-,-,-,-,-,-,-,
ⁿg,1,kore1280,kor,NA,NA,419,NA,FALSE,consonant,fake,0,-,-,-,-,+,"+,-",-,-,-,-,-,"+,-",-,-,0,0,-,0,0,0,+,+,-,-,-,0,0,0,+,-,-,-,-,-,-,-,
ⁿgʲ,1,kore1280,kor,NA,NA,420,NA,FALSE,consonant,fake,0,-,-,-,-,+,"+,-",-,-,-,-,-,"+,-",-,-,0,0,-,0,0,0,+,+,-,"-,+",-,0,0,0,+,-,-,-,-,-,-,-,
ⁿgʷ,1,kore1280,kor,NA,NA,421,NA,FALSE,consonant,fake,0,-,-,-,-,+,"+,-",-,-,-,-,-,"+,-",-,"-,+",+,-,-,0,0,0,+,+,-,-,-,0,0,0,+,-,-,-,-,-,-,-,
ⁿɣ,1,kore1280,kor,NA,NA,422,NA,FALSE,consonant,fake,0,-,-,-,-,+,"+,-","-,+",+,-,-,-,"+,-",-,-,0,0,-,0,0,0,+,+,-,-,-,0,0,0,+,-,-,-,-,-,-,-,
ⁿk,1,kore1280,kor,NA,NA,423,NA,FALSE,consonant,fake,0,-,-,-,-,+,"+,-",-,-,-,-,-,"+,-",-,-,0,0,-,0,0,0,+,+,-,-,-,0,0,0,"+,-",-,-,-,-,-,-,-,
ⁿkʰ,1,kore1280,kor,NA,NA,4.24E+02,NA,FALSE,consonant,fake,0,-,-,-,-,+,"+,-",-,-,-,-,-,"+,-",-,-,0,0,-,0,0,0,+,+,-,-,-,0,0,0,"+,-",-,"-,+",-,-,-,-,-,
ⁿkʲ,1,kore1280,kor,NA,NA,425,NA,FALSE,consonant,fake,0,-,-,-,-,+,"+,-",-,-,-,-,-,"+,-",-,-,0,0,-,0,0,0,+,+,-,"-,+",-,0,0,0,"+,-",-,-,-,-,-,-,-,
ⁿkʲʰ,1,kore1280,kor,NA,NA,426,NA,FALSE,consonant,fake,0,-,-,-,-,+,"+,-",-,-,-,-,-,"+,-",-,-,0,0,-,0,0,0,+,+,-,"-,+",-,0,0,0,"+,-",-,"-,+",-,-,-,-,-,
ⁿkʷ,1,kore1280,kor,NA,NA,427,NA,FALSE,consonant,fake,0,-,-,-,-,+,"+,-",-,-,-,-,-,"+,-",-,"-,+",+,-,-,0,0,0,+,+,-,-,-,0,0,0,"+,-",-,-,-,-,-,-,-,
ŋm,1,kore1280,kor,NA,NA,428,NA,FALSE,consonant,fake,0,-,-,-,-,+,+,-,0,-,-,-,+,-,"-,+",-,-,-,0,0,0,"+,-",+,-,-,-,0,0,0,+,-,-,-,-,-,-,-,
ŋmʷ,1,kore1280,kor,NA,NA,429,NA,FALSE,consonant,fake,0,-,-,-,-,+,+,-,0,-,-,-,+,-,"-,+",+,-,-,0,0,0,"+,-",+,-,-,-,0,0,0,+,-,-,-,-,-,-,-,
ŋʷ,1,kore1280,kor,NA,NA,430,NA,FALSE,consonant,fake,0,-,-,-,-,+,+,-,0,-,-,-,+,-,+,+,-,-,0,0,0,+,+,-,-,-,0,0,0,+,-,-,-,-,-,-,-,
ŋʔ,1,kore1280,kor,NA,NA,431,NA,FALSE,consonant,fake,0,-,-,-,-,+,"+,-",-,-,-,-,-,"+,-",-,-,0,0,-,0,0,0,"+,-",+,-,-,-,0,0,0,"+,-",-,-,"-,+",-,-,-,-,
ⁿʔ,1,kore1280,kor,NA,NA,432,NA,FALSE,consonant,fake,0,-,-,-,-,+,"+,-",-,-,-,-,-,"+,-",-,-,0,0,-,0,0,0,"+,-",+,-,-,-,0,0,0,"+,-",-,-,"-,+",-,-,-,-,
o,1,kore1280,kor,NA,NA,4.33E+02,NA,FALSE,vowel,fake,0,-,+,-,-,-,+,+,0,+,-,-,-,-,+,+,-,-,0,0,0,+,-,-,-,+,+,-,-,+,-,-,-,0,-,-,0,
ŏ,1,kore1280,kor,NA,NA,434,NA,FALSE,vowel,fake,0,-,+,+,-,-,+,+,0,+,-,-,-,-,+,+,-,-,0,0,0,+,-,-,-,+,+,-,-,+,-,-,-,0,-,-,0,
õ,1,kore1280,kor,NA,NA,435,NA,FALSE,vowel,fake,0,-,+,-,-,-,+,+,0,+,-,-,+,-,+,+,-,-,0,0,0,+,-,-,-,+,+,-,-,+,-,-,-,0,-,-,0,
ø,1,kore1280,kor,NA,NA,436,NA,FALSE,vowel,fake,0,-,+,-,-,-,+,+,0,+,-,-,-,-,+,+,-,-,0,0,0,+,-,-,+,-,+,-,-,+,-,-,-,0,-,-,0,
ø̞,1,kore1280,kor,NA,NA,437,NA,FALSE,vowel,fake,0,-,+,-,-,-,+,+,0,+,-,-,-,-,+,+,-,-,0,0,0,+,-,-,+,-,0,-,-,+,-,-,-,0,-,-,0,
ø̤,1,kore1280,kor,NA,NA,438,NA,FALSE,vowel,fake,0,-,+,-,-,-,+,+,0,+,-,-,-,-,+,+,-,-,0,0,0,+,-,-,+,-,+,-,-,+,-,+,-,0,-,-,0,
ø̰,1,kore1280,kor,NA,NA,439,NA,FALSE,vowel,fake,0,-,+,-,-,-,+,+,0,+,-,-,-,-,+,+,-,-,0,0,0,+,-,-,+,-,+,-,-,+,-,-,+,0,-,-,0,
o̝,1,kore1280,kor,NA,NA,440,NA,FALSE,vowel,fake,0,-,+,-,-,-,+,+,0,+,-,-,-,-,+,+,-,-,0,0,0,+,0,-,-,+,+,-,-,+,-,-,-,0,-,-,0,
o̞,1,kore1280,kor,NA,NA,441,NA,FALSE,vowel,fake,0,-,+,-,-,-,+,+,0,+,-,-,-,-,+,+,-,-,0,0,0,+,-,-,-,+,0,-,-,+,-,-,-,0,-,-,0,
o̯,1,kore1280,kor,NA,NA,4.42E+02,NA,FALSE,vowel,fake,0,-,-,-,-,-,+,+,0,+,-,-,-,-,+,+,-,-,0,0,0,+,-,-,-,+,+,-,-,+,-,-,-,0,-,-,0,
õ̞,1,kore1280,kor,NA,NA,443,NA,FALSE,vowel,fake,0,-,+,-,-,-,+,+,0,+,-,-,+,-,+,+,-,-,0,0,0,+,-,-,-,+,0,-,-,+,-,-,-,0,-,-,0,
o̤,1,kore1280,kor,NA,NA,444,NA,FALSE,vowel,fake,0,-,+,-,-,-,+,+,0,+,-,-,-,-,+,+,-,-,0,0,0,+,-,-,-,+,+,-,-,+,-,+,-,0,-,-,0,
õ̤,1,kore1280,kor,NA,NA,445,NA,FALSE,vowel,fake,0,-,+,-,-,-,+,+,0,+,-,-,+,-,+,+,-,-,0,0,0,+,-,-,-,+,+,-,-,+,-,+,-,0,-,-,0,
o̥,1,kore1280,kor,NA,NA,446,NA,FALSE,vowel,fake,0,-,+,-,-,-,+,+,0,+,-,-,-,-,+,+,-,-,0,0,0,+,-,-,-,+,+,-,-,-,-,-,-,0,-,-,0,
o̰,1,kore1280,kor,NA,NA,447,NA,FALSE,vowel,fake,0,-,+,-,-,-,+,+,0,+,-,-,-,-,+,+,-,-,0,0,0,+,-,-,-,+,+,-,-,+,-,-,+,0,-,-,0,
oʵ,1,kore1280,kor,NA,NA,448,NA,FALSE,vowel,fake,0,-,+,-,-,-,+,+,0,+,-,-,-,-,+,+,-,+,+,+,+,+,-,-,-,+,+,-,-,+,-,-,-,0,-,-,0,
oʵː,1,kore1280,kor,NA,NA,449,NA,FALSE,vowel,fake,0,-,+,-,+,-,+,+,0,+,-,-,-,-,+,+,-,+,+,+,+,+,-,-,-,+,+,-,-,+,-,-,-,0,-,-,0,
oː,1,kore1280,kor,NA,NA,450,NA,FALSE,vowel,fake,0,-,+,-,+,-,+,+,0,+,-,-,-,-,+,+,-,-,0,0,0,+,-,-,-,+,+,-,-,+,-,-,-,0,-,-,0,
õː,1,kore1280,kor,NA,NA,4.51E+02,NA,FALSE,vowel,fake,0,-,+,-,+,-,+,+,0,+,-,-,+,-,+,+,-,-,0,0,0,+,-,-,-,+,+,-,-,+,-,-,-,0,-,-,0,
øː,1,kore1280,kor,NA,NA,452,NA,FALSE,vowel,fake,0,-,+,-,+,-,+,+,0,+,-,-,-,-,+,+,-,-,0,0,0,+,-,-,+,-,+,-,-,+,-,-,-,0,-,-,0,
ø̃ː,1,kore1280,kor,NA,NA,453,NA,FALSE,vowel,fake,0,-,+,-,+,-,+,+,0,+,-,-,+,-,+,+,-,-,0,0,0,+,-,-,+,-,+,-,-,+,-,-,-,0,-,-,0,
o̤ː,1,kore1280,kor,NA,NA,454,NA,FALSE,vowel,fake,0,-,+,-,+,-,+,+,0,+,-,-,-,-,+,+,-,-,0,0,0,+,-,-,-,+,+,-,-,+,-,+,-,0,-,-,0,
õ̤ː,1,kore1280,kor,NA,NA,455,NA,FALSE,vowel,fake,0,-,+,-,+,-,+,+,0,+,-,-,+,-,+,+,-,-,0,0,0,+,-,-,-,+,+,-,-,+,-,+,-,0,-,-,0,
oːi̯,1,kore1280,kor,NA,NA,456,NA,FALSE,vowel,fake,0,-,"+,-",-,"+,-",-,+,+,0,+,-,-,-,-,"+,-",+,-,-,0,0,0,+,"-,+",-,"-,+","+,-",+,-,-,+,-,-,-,0,-,-,0,
oa,1,kore1280,kor,NA,NA,457,NA,FALSE,vowel,fake,0,-,+,-,-,-,+,+,0,+,-,-,-,-,"+,-",+,-,-,0,0,0,+,-,"-,+",-,"+,-",+,-,-,+,-,-,-,0,-,-,0,
õa,1,kore1280,kor,NA,NA,458,NA,FALSE,vowel,fake,0,-,+,-,-,-,+,+,0,+,-,-,"+,-",-,"+,-",+,-,-,0,0,0,+,-,"-,+",-,"+,-",+,-,-,+,-,-,-,0,-,-,0,
o̯a,1,kore1280,kor,NA,NA,459,NA,FALSE,vowel,fake,0,-,"-,+",-,-,-,+,+,0,+,-,-,-,-,"+,-",+,-,-,0,0,0,+,-,"-,+",-,"+,-",+,-,-,+,-,-,-,0,-,-,0,
oɑ,1,kore1280,kor,NA,NA,4.60E+02,NA,FALSE,vowel,fake,0,-,+,-,-,-,+,+,0,+,-,-,-,-,"+,-",+,-,-,0,0,0,+,-,"-,+",-,+,+,-,-,+,-,-,-,0,-,-,0,
oe,1,kore1280,kor,NA,NA,461,NA,FALSE,vowel,fake,0,-,+,-,-,-,+,+,0,+,-,-,-,-,"+,-",+,-,-,0,0,0,+,-,-,"-,+","+,-",+,-,-,+,-,-,-,0,-,-,0,
oe̯,1,kore1280,kor,NA,NA,462,NA,FALSE,vowel,fake,0,-,"+,-",-,-,-,+,+,0,+,-,-,-,-,"+,-",+,-,-,0,0,0,+,-,-,"-,+","+,-",+,-,-,+,-,-,-,0,-,-,0,
o̯e,1,kore1280,kor,NA,NA,463,NA,FALSE,vowel,fake,0,-,"-,+",-,-,-,+,+,0,+,-,-,-,-,"+,-",+,-,-,0,0,0,+,-,-,"-,+","+,-",+,-,-,+,-,-,-,0,-,-,0,
œ,1,kore1280,kor,NA,NA,464,NA,FALSE,vowel,fake,0,-,+,-,-,-,+,+,0,+,-,-,-,-,+,+,-,-,0,0,0,+,-,-,+,-,-,-,-,+,-,-,-,0,-,-,0,
œe,1,kore1280,kor,NA,NA,465,NA,FALSE,vowel,fake,0,-,+,-,-,-,+,+,0,+,-,-,-,-,"+,-",+,-,-,0,0,0,+,-,-,+,-,"-,+",-,-,+,-,-,-,0,-,-,0,
oi,1,kore1280,kor,NA,NA,466,NA,FALSE,vowel,fake,0,-,+,-,-,-,+,+,0,+,-,-,-,-,"+,-",+,-,-,0,0,0,+,"-,+",-,"-,+","+,-",+,-,-,+,-,-,-,0,-,-,0,
oi̯,1,kore1280,kor,NA,NA,467,NA,FALSE,vowel,fake,0,-,"+,-",-,-,-,+,+,0,+,-,-,-,-,"+,-",+,-,-,0,0,0,+,"-,+",-,"-,+","+,-",+,-,-,+,-,-,-,0,-,-,0,
o̯i,1,kore1280,kor,NA,NA,468,NA,FALSE,vowel,fake,0,-,"-,+",-,-,-,+,+,0,+,-,-,-,-,"+,-",+,-,-,0,0,0,+,"-,+",-,"-,+","+,-",+,-,-,+,-,-,-,0,-,-,0,
ou,1,kore1280,kor,NA,NA,4.69E+02,NA,FALSE,vowel,fake,0,-,+,-,-,-,+,+,0,+,-,-,-,-,+,+,-,-,0,0,0,+,"-,+",-,-,+,+,-,-,+,-,-,-,0,-,-,0,
ou̯,1,kore1280,kor,NA,NA,470,NA,FALSE,vowel,fake,0,-,"+,-",-,-,-,+,+,0,+,-,-,-,-,+,+,-,-,0,0,0,+,"-,+",-,-,+,+,-,-,+,-,-,-,0,-,-,0,
õu,1,kore1280,kor,NA,NA,471,NA,FALSE,vowel,fake,0,-,+,-,-,-,+,+,0,+,-,-,"+,-",-,+,+,-,-,0,0,0,+,"-,+",-,-,+,+,-,-,+,-,-,-,0,-,-,0,
õu̯,1,kore1280,kor,NA,NA,472,NA,FALSE,vowel,fake,0,-,"+,-",-,-,-,+,+,0,+,-,-,"+,-",-,+,+,-,-,0,0,0,+,"-,+",-,-,+,+,-,-,+,-,-,-,0,-,-,0,
õũ̯,1,kore1280,kor,NA,NA,473,NA,FALSE,vowel,fake,0,-,"+,-",-,-,-,+,+,0,+,-,-,+,-,+,+,-,-,0,0,0,+,"-,+",-,-,+,+,-,-,+,-,-,-,0,-,-,0,
oʊ,1,kore1280,kor,NA,NA,474,NA,FALSE,vowel,fake,0,-,+,-,-,-,+,+,0,+,-,-,-,-,+,+,-,-,0,0,0,+,"-,+",-,-,+,"+,-",-,-,+,-,-,-,0,-,-,0,
õʊ,1,kore1280,kor,NA,NA,475,NA,FALSE,vowel,fake,0,-,+,-,-,-,+,+,0,+,-,-,"+,-",-,+,+,-,-,0,0,0,+,"-,+",-,-,+,"+,-",-,-,+,-,-,-,0,-,-,0,
õʊ̯,1,kore1280,kor,NA,NA,476,NA,FALSE,vowel,fake,0,-,"+,-",-,-,-,+,+,0,+,-,-,"+,-",-,+,+,-,-,0,0,0,+,"-,+",-,-,+,"+,-",-,-,+,-,-,-,0,-,-,0,
õ̤ʊ,1,kore1280,kor,NA,NA,477,NA,FALSE,vowel,fake,0,-,+,-,-,-,+,+,0,+,-,-,"+,-",-,+,+,-,-,0,0,0,+,"-,+",-,-,+,"+,-",-,-,+,-,"+,-",-,0,-,-,0,
õ̰ʊ,1,kore1280,kor,NA,NA,4.78E+02,NA,FALSE,vowel,fake,0,-,+,-,-,-,+,+,0,+,-,-,"+,-",-,+,+,-,-,0,0,0,+,"-,+",-,-,+,"+,-",-,-,+,-,-,"+,-",0,-,-,0,
oʊˀ,1,kore1280,kor,NA,NA,479,NA,FALSE,vowel,fake,0,-,+,-,-,-,+,+,0,+,-,-,-,-,+,+,-,-,0,0,0,+,"-,+",-,-,+,"+,-",-,-,+,-,-,"-,+",0,-,-,0,
ɔ,1,kore1280,kor,NA,NA,480,NA,FALSE,vowel,fake,0,-,+,-,-,-,+,+,0,+,-,-,-,-,+,+,-,-,0,0,0,+,-,-,-,+,-,-,-,+,-,-,-,0,-,-,0,
ɔ̆,1,kore1280,kor,NA,NA,481,NA,FALSE,vowel,fake,0,-,+,+,-,-,+,+,0,+,-,-,-,-,+,+,-,-,0,0,0,+,-,-,-,+,-,-,-,+,-,-,-,0,-,-,0,
ɔ̃,1,kore1280,kor,NA,NA,482,NA,FALSE,vowel,fake,0,-,+,-,-,-,+,+,0,+,-,-,+,-,+,+,-,-,0,0,0,+,-,-,-,+,-,-,-,+,-,-,-,0,-,-,0,
ɔ̤,1,kore1280,kor,NA,NA,483,NA,FALSE,vowel,fake,0,-,+,-,-,-,+,+,0,+,-,-,-,-,+,+,-,-,0,0,0,+,-,-,-,+,-,-,-,+,-,+,-,0,-,-,0,
ɔ̰,1,kore1280,kor,NA,NA,484,NA,FALSE,vowel,fake,0,-,+,-,-,-,+,+,0,+,-,-,-,-,+,+,-,-,0,0,0,+,-,-,-,+,-,-,-,+,-,-,+,0,-,-,0,
ɔː,1,kore1280,kor,NA,NA,485,NA,FALSE,vowel,fake,0,-,+,-,+,-,+,+,0,+,-,-,-,-,+,+,-,-,0,0,0,+,-,-,-,+,-,-,-,+,-,-,-,0,-,-,0,
ɔ̃ː,1,kore1280,kor,NA,NA,486,NA,FALSE,vowel,fake,0,-,+,-,+,-,+,+,0,+,-,-,+,-,+,+,-,-,0,0,0,+,-,-,-,+,-,-,-,+,-,-,-,0,-,-,0,
ɔːi̯,1,kore1280,kor,NA,NA,4.87E+02,NA,FALSE,vowel,fake,0,-,"+,-",-,"+,-",-,+,+,0,+,-,-,-,-,"+,-",+,-,-,0,0,0,+,"-,+",-,"-,+","+,-","-,+",-,-,+,-,-,-,0,-,-,0,
ɔə,1,kore1280,kor,NA,NA,488,NA,FALSE,vowel,fake,0,-,+,-,-,-,+,+,0,+,-,-,-,-,"+,-",+,-,-,0,0,0,+,-,-,-,"+,-",-,-,-,+,-,-,-,0,-,-,0,
ɔi,1,kore1280,kor,NA,NA,489,NA,FALSE,vowel,fake,0,-,+,-,-,-,+,+,0,+,-,-,-,-,"+,-",+,-,-,0,0,0,+,"-,+",-,"-,+","+,-","-,+",-,-,+,-,-,-,0,-,-,0,
ɔi̯,1,kore1280,kor,NA,NA,490,NA,FALSE,vowel,fake,0,-,"+,-",-,-,-,+,+,0,+,-,-,-,-,"+,-",+,-,-,0,0,0,+,"-,+",-,"-,+","+,-","-,+",-,-,+,-,-,-,0,-,-,0,
ɔu,1,kore1280,kor,NA,NA,491,NA,FALSE,vowel,fake,0,-,+,-,-,-,+,+,0,+,-,-,-,-,+,+,-,-,0,0,0,+,"-,+",-,-,+,"-,+",-,-,+,-,-,-,0,-,-,0,
ɔu̯,1,kore1280,kor,NA,NA,492,NA,FALSE,vowel,fake,0,-,"+,-",-,-,-,+,+,0,+,-,-,-,-,+,+,-,-,0,0,0,+,"-,+",-,-,+,"-,+",-,-,+,-,-,-,0,-,-,0,
ɵ,1,kore1280,kor,NA,NA,493,NA,FALSE,vowel,fake,0,-,+,-,-,-,+,+,0,+,-,-,-,-,+,+,-,-,0,0,0,+,-,-,-,-,+,-,-,+,-,-,-,0,-,-,0,
ɵ̆,1,kore1280,kor,NA,NA,494,NA,FALSE,vowel,fake,0,-,+,+,-,-,+,+,0,+,-,-,-,-,+,+,-,-,0,0,0,+,-,-,-,-,+,-,-,+,-,-,-,0,-,-,0,
ɵː,1,kore1280,kor,NA,NA,495,NA,FALSE,vowel,fake,0,-,+,-,+,-,+,+,0,+,-,-,-,-,+,+,-,-,0,0,0,+,-,-,-,-,+,-,-,+,-,-,-,0,-,-,0,
p,1,kore1280,kor,NA,NA,4.96E+02,NA,FALSE,consonant,fake,0,-,-,-,-,+,-,-,-,-,-,-,-,-,+,-,-,-,0,0,0,-,0,0,0,0,0,0,0,-,-,-,-,-,-,-,-,
pʵ,1,kore1280,kor,NA,NA,497,NA,FALSE,consonant,fake,0,-,-,-,-,+,-,-,-,-,-,-,-,-,+,-,-,+,+,+,+,+,0,0,0,0,0,0,0,-,-,-,-,-,-,-,-,
pʵʰ,1,kore1280,kor,NA,NA,498,NA,FALSE,consonant,fake,0,-,-,-,-,+,-,-,-,-,-,-,-,-,+,-,-,+,+,+,+,+,0,0,0,0,0,0,0,-,-,+,-,-,-,-,-,
pː,1,kore1280,kor,NA,NA,499,NA,FALSE,consonant,fake,0,-,-,-,+,+,-,-,-,-,-,-,-,-,+,-,-,-,0,0,0,-,0,0,0,0,0,0,0,-,-,-,-,-,-,-,-,
pf,1,kore1280,kor,NA,NA,500,NA,FALSE,consonant,fake,0,-,-,-,-,+,-,-,+,-,-,-,-,-,+,-,+,-,0,0,0,-,0,0,0,0,0,0,0,-,-,-,-,-,-,-,-,
pfʰ,1,kore1280,kor,NA,NA,501,NA,FALSE,consonant,fake,0,-,-,-,-,+,-,-,+,-,-,-,-,-,+,-,+,-,0,0,0,-,0,0,0,0,0,0,0,-,-,+,-,-,-,-,-,
pʰ,1,kore1280,kor,NA,NA,502,NA,FALSE,consonant,fake,0,-,-,-,-,+,-,-,-,-,-,-,-,-,+,-,-,-,0,0,0,-,0,0,0,0,0,0,0,-,-,+,-,-,-,-,-,
pʲ,1,kore1280,kor,NA,NA,503,NA,FALSE,consonant,fake,0,-,-,-,-,+,-,-,-,-,-,-,-,-,+,-,-,-,0,0,0,+,+,-,+,-,0,0,0,-,-,-,-,-,-,-,-,
pʲʰ,1,kore1280,kor,NA,NA,504,NA,FALSE,consonant,fake,0,-,-,-,-,+,-,-,-,-,-,-,-,-,+,-,-,-,0,0,0,+,+,-,+,-,0,0,0,-,-,+,-,-,-,-,-,
pⁿ,1,kore1280,kor,NA,NA,5.05E+02,NA,FALSE,consonant,fake,0,-,-,-,-,+,"-,+",-,-,-,-,-,"-,+",-,+,-,-,-,0,0,0,-,0,0,0,0,0,0,0,"-,+",-,-,-,-,-,-,-,
pm,1,kore1280,kor,NA,NA,506,NA,FALSE,consonant,fake,0,-,-,-,-,+,"-,+",-,-,-,-,-,"-,+",-,+,-,-,-,0,0,0,-,0,0,0,0,0,0,0,"-,+",-,-,-,-,-,-,-,
pɸ,1,kore1280,kor,NA,NA,507,NA,FALSE,consonant,fake,0,-,-,-,-,+,-,-,+,-,-,-,-,-,+,-,-,-,0,0,0,-,0,0,0,0,0,0,0,-,-,-,-,-,-,-,-,
pʷ,1,kore1280,kor,NA,NA,508,NA,FALSE,consonant,fake,0,-,-,-,-,+,-,-,-,-,-,-,-,-,+,+,-,-,0,0,0,-,0,0,0,0,0,0,0,-,-,-,-,-,-,-,-,
pʷː,1,kore1280,kor,NA,NA,509,NA,FALSE,consonant,fake,0,-,-,-,+,+,-,-,-,-,-,-,-,-,+,+,-,-,0,0,0,-,0,0,0,0,0,0,0,-,-,-,-,-,-,-,-,
ɸ,1,kore1280,kor,NA,NA,510,NA,FALSE,consonant,fake,0,-,-,-,-,+,-,+,+,-,-,-,-,-,+,-,-,-,0,0,0,-,0,0,0,0,0,0,0,-,-,-,-,-,-,-,-,
ɸʲ,1,kore1280,kor,NA,NA,511,NA,FALSE,consonant,fake,0,-,-,-,-,+,-,+,+,-,-,-,-,-,+,-,-,-,0,0,0,+,+,-,+,-,0,0,0,-,-,-,-,-,-,-,-,
ɸʷ,1,kore1280,kor,NA,NA,512,NA,FALSE,consonant,fake,0,-,-,-,-,+,-,+,+,-,-,-,-,-,+,+,-,-,0,0,0,-,0,0,0,0,0,0,0,-,-,-,-,-,-,-,-,
q,1,kore1280,kor,NA,NA,513,NA,FALSE,consonant,fake,0,-,-,-,-,+,-,-,-,-,-,-,-,-,-,0,0,-,0,0,0,+,-,-,-,+,0,0,0,-,-,-,-,-,-,-,-,
qʰ,1,kore1280,kor,NA,NA,5.14E+02,NA,FALSE,consonant,fake,0,-,-,-,-,+,-,-,-,-,-,-,-,-,-,0,0,-,0,0,0,+,-,-,-,+,0,0,0,-,-,+,-,-,-,-,-,
qʷ,1,kore1280,kor,NA,NA,515,NA,FALSE,consonant,fake,0,-,-,-,-,+,-,-,-,-,-,-,-,-,+,+,-,-,0,0,0,+,-,-,-,+,0,0,0,-,-,-,-,-,-,-,-,
r,1,kore1280,kor,NA,NA,516,NA,FALSE,consonant,fake,0,-,-,-,-,+,+,+,0,+,-,+,-,-,-,0,0,+,+,-,-,-,0,0,0,0,0,0,0,+,-,-,-,-,-,-,-,
r̩,1,kore1280,kor,NA,NA,517,NA,FALSE,consonant,fake,0,-,+,-,-,+,+,+,0,+,-,+,-,-,-,0,0,+,+,-,-,-,0,0,0,0,0,0,0,+,-,-,-,-,-,-,-,
r̥,1,kore1280,kor,NA,NA,518,NA,FALSE,consonant,fake,0,-,-,-,-,+,+,+,0,+,-,+,-,-,-,0,0,+,+,-,-,-,0,0,0,0,0,0,0,-,-,-,-,-,-,-,-,
rː,1,kore1280,kor,NA,NA,519,NA,FALSE,consonant,fake,0,-,-,-,+,+,+,+,0,+,-,+,-,-,-,0,0,+,+,-,-,-,0,0,0,0,0,0,0,+,-,-,-,-,-,-,-,
rʱ,1,kore1280,kor,NA,NA,520,NA,FALSE,consonant,fake,0,-,-,-,-,+,+,+,0,+,-,+,-,-,-,0,0,+,+,-,-,-,0,0,0,0,0,0,0,+,-,+,-,-,-,-,-,
ʀ,1,kore1280,kor,NA,NA,521,NA,FALSE,consonant,fake,0,-,-,-,-,+,+,+,0,+,-,+,-,-,-,0,0,-,0,0,0,+,-,-,-,+,0,0,0,+,-,-,-,-,-,-,-,
ɹ,1,kore1280,kor,NA,NA,522,NA,FALSE,consonant,fake,0,-,-,-,-,-,+,+,0,+,-,-,-,-,-,0,0,+,-,+,-,-,0,0,0,0,0,0,0,+,-,-,-,-,-,-,-,
ɹː,1,kore1280,kor,NA,NA,5.23E+02,NA,FALSE,consonant,fake,0,-,-,-,+,-,+,+,0,+,-,-,-,-,-,0,0,+,-,+,-,-,0,0,0,0,0,0,0,+,-,-,-,-,-,-,-,
ɺ,1,kore1280,kor,NA,NA,524,NA,FALSE,consonant,fake,0,-,-,-,-,+,+,+,0,+,+,-,-,+,-,0,0,+,+,-,-,-,0,0,0,0,0,0,0,+,-,-,-,-,-,-,-,
ɺ̢,1,kore1280,kor,NA,NA,525,NA,FALSE,consonant,fake,0,-,-,-,-,+,+,+,0,+,+,-,-,+,-,0,0,+,-,+,-,-,0,0,0,0,0,0,0,+,-,-,-,-,-,-,-,
ɺ̢̥,1,kore1280,kor,NA,NA,526,NA,FALSE,consonant,fake,0,-,-,-,-,+,+,+,0,+,+,-,-,+,-,0,0,+,-,+,-,-,0,0,0,0,0,0,0,-,-,-,-,-,-,-,-,
ɺ̥,1,kore1280,kor,NA,NA,527,NA,FALSE,consonant,fake,0,-,-,-,-,+,+,+,0,+,+,-,-,+,-,0,0,+,+,-,-,-,0,0,0,0,0,0,0,-,-,-,-,-,-,-,-,
ɻ,1,kore1280,kor,NA,NA,528,NA,FALSE,consonant,fake,0,-,-,-,-,+,+,+,0,+,-,-,-,-,-,0,0,+,-,-,-,-,0,0,0,0,0,0,0,+,-,-,-,-,-,-,-,
ɻ̥,1,kore1280,kor,NA,NA,529,NA,FALSE,consonant,fake,0,-,-,-,-,+,+,+,0,+,-,-,-,-,-,0,0,+,-,-,-,-,0,0,0,0,0,0,0,-,-,-,-,-,-,-,-,
ɽ,1,kore1280,kor,NA,NA,530,NA,FALSE,consonant,fake,0,-,-,-,-,+,+,+,0,+,+,-,-,-,-,0,0,+,-,-,-,-,0,0,0,0,0,0,0,+,-,-,-,-,-,-,-,
ɾ,1,kore1280,kor,NA,NA,531,NA,FALSE,consonant,fake,0,-,-,-,-,+,+,+,0,+,+,-,-,-,-,0,0,+,+,-,-,-,0,0,0,0,0,0,0,+,-,-,-,-,-,-,-,
ɾ̃,1,kore1280,kor,NA,NA,5.32E+02,NA,FALSE,consonant,fake,0,-,-,-,-,+,+,+,0,+,+,-,+,-,-,0,0,+,+,-,-,-,0,0,0,0,0,0,0,+,-,-,-,-,-,-,-,
ɾ͓,1,kore1280,kor,NA,NA,533,NA,FALSE,consonant,fake,0,-,-,-,-,+,+,+,+,+,+,-,-,-,-,0,0,+,+,-,-,-,0,0,0,0,0,0,0,+,-,-,-,-,-,-,-,
ɾ̥,1,kore1280,kor,NA,NA,534,NA,FALSE,consonant,fake,0,-,-,-,-,+,+,+,0,+,+,-,-,-,-,0,0,+,+,-,-,-,0,0,0,0,0,0,0,-,-,-,-,-,-,-,-,
ɾː,1,kore1280,kor,NA,NA,535,NA,FALSE,consonant,fake,0,-,-,-,+,+,+,+,0,+,+,-,-,-,-,0,0,+,+,-,-,-,0,0,0,0,0,0,0,+,-,-,-,-,-,-,-,
ɾˀ,1,kore1280,kor,NA,NA,536,NA,FALSE,consonant,fake,0,-,-,-,-,+,+,+,0,+,+,-,-,-,-,0,0,+,+,-,-,-,0,0,0,0,0,0,0,+,-,-,+,-,-,-,-,
ʁ,1,kore1280,kor,NA,NA,537,NA,FALSE,consonant,fake,0,-,-,-,-,+,-,+,+,-,-,-,-,-,-,0,0,-,0,0,0,+,-,-,-,+,0,0,0,+,-,-,-,-,-,-,-,
ʁʷ,1,kore1280,kor,NA,NA,538,NA,FALSE,consonant,fake,0,-,-,-,-,+,-,+,+,-,-,-,-,-,+,+,-,-,0,0,0,+,-,-,-,+,0,0,0,+,-,-,-,-,-,-,-,
s,1,kore1280,kor,NA,NA,539,NA,FALSE,consonant,fake,0,-,-,-,-,+,-,+,+,-,-,-,-,-,-,0,0,+,+,-,+,-,0,0,0,0,0,0,0,-,-,-,-,-,-,-,-,
s̠,1,kore1280,kor,NA,NA,540,NA,FALSE,consonant,fake,0,-,-,-,-,+,-,+,+,-,-,-,-,-,-,0,0,+,-,+,+,-,0,0,0,0,0,0,0,-,-,-,-,-,-,-,-,
s̩,1,kore1280,kor,NA,NA,5.41E+02,NA,FALSE,consonant,fake,0,-,+,-,-,+,-,+,+,-,-,-,-,-,-,0,0,+,+,-,+,-,0,0,0,0,0,0,0,-,-,-,-,-,-,-,-,
s̪,1,kore1280,kor,NA,NA,542,NA,FALSE,consonant,fake,0,-,-,-,-,+,-,+,+,-,-,-,-,-,-,0,0,+,+,+,+,-,0,0,0,0,0,0,0,-,-,-,-,-,-,-,-,
sː,1,kore1280,kor,NA,NA,543,NA,FALSE,consonant,fake,0,-,-,-,+,+,-,+,+,-,-,-,-,-,-,0,0,+,+,-,+,-,0,0,0,0,0,0,0,-,-,-,-,-,-,-,-,
sʰ,1,kore1280,kor,NA,NA,544,NA,FALSE,consonant,fake,0,-,-,-,-,+,-,+,+,-,-,-,-,-,-,0,0,+,+,-,+,-,0,0,0,0,0,0,0,-,-,+,-,-,-,-,-,
sʲ,1,kore1280,kor,NA,NA,545,NA,FALSE,consonant,fake,0,-,-,-,-,+,-,+,+,-,-,-,-,-,-,0,0,+,+,-,+,+,+,-,+,-,0,0,0,-,-,-,-,-,-,-,-,
ʂ,1,kore1280,kor,NA,NA,546,NA,FALSE,consonant,fake,0,-,-,-,-,+,-,+,+,-,-,-,-,-,-,0,0,+,-,-,+,-,0,0,0,0,0,0,0,-,-,-,-,-,-,-,-,
ʃ,1,kore1280,kor,NA,NA,547,NA,FALSE,consonant,fake,0,-,-,-,-,+,-,+,+,-,-,-,-,-,-,0,0,+,-,+,+,-,0,0,0,0,0,0,0,-,-,-,-,-,-,-,-,
ʃʰ,1,kore1280,kor,NA,NA,548,NA,FALSE,consonant,fake,0,-,-,-,-,+,-,+,+,-,-,-,-,-,-,0,0,+,-,+,+,-,0,0,0,0,0,0,0,-,-,+,-,-,-,-,-,
t,1,kore1280,kor,NA,NA,549,NA,FALSE,consonant,fake,0,-,-,-,-,+,-,-,-,-,-,-,-,-,-,0,0,+,+,-,-,-,0,0,0,0,0,0,0,-,-,-,-,-,-,-,-,
t̠,1,kore1280,kor,NA,NA,5.50E+02,NA,FALSE,consonant,fake,0,-,-,-,-,+,-,-,-,-,-,-,-,-,-,0,0,+,+,-,-,-,0,0,0,0,0,0,0,-,-,-,-,-,-,-,-,
t̪,1,kore1280,kor,NA,NA,551,NA,FALSE,consonant,fake,0,-,-,-,-,+,-,-,-,-,-,-,-,-,-,0,0,+,+,+,-,-,0,0,0,0,0,0,0,-,-,-,-,-,-,-,-,
t̻,1,kore1280,kor,NA,NA,552,NA,FALSE,consonant,fake,0,-,-,-,-,+,-,-,-,-,-,-,-,-,-,0,0,+,+,+,-,-,0,0,0,0,0,0,0,-,-,-,-,-,-,-,-,
tː,1,kore1280,kor,NA,NA,553,NA,FALSE,consonant,fake,0,-,-,-,+,+,-,-,-,-,-,-,-,-,-,0,0,+,+,-,-,-,0,0,0,0,0,0,0,-,-,-,-,-,-,-,-,
t̪ː,1,kore1280,kor,NA,NA,554,NA,FALSE,consonant,fake,0,-,-,-,+,+,-,-,-,-,-,-,-,-,-,0,0,+,+,+,-,-,0,0,0,0,0,0,0,-,-,-,-,-,-,-,-,
tɕ,1,kore1280,kor,NA,NA,555,NA,FALSE,consonant,fake,0,-,-,-,-,+,-,-,+,-,-,-,-,-,-,0,0,+,+,+,+,+,+,-,+,-,0,0,0,-,-,-,-,-,-,-,-,
tɕʰ,1,kore1280,kor,NA,NA,556,NA,FALSE,consonant,fake,0,-,-,-,-,+,-,-,+,-,-,-,-,-,-,0,0,+,+,+,+,+,+,-,+,-,0,0,0,-,-,+,-,-,-,-,-,
tʰ,1,kore1280,kor,NA,NA,557,NA,FALSE,consonant,fake,0,-,-,-,-,+,-,-,-,-,-,-,-,-,-,0,0,+,+,-,-,-,0,0,0,0,0,0,0,-,-,+,-,-,-,-,-,
t̪ʰ,1,kore1280,kor,NA,NA,558,NA,FALSE,consonant,fake,0,-,-,-,-,+,-,-,-,-,-,-,-,-,-,0,0,+,+,+,-,-,0,0,0,0,0,0,0,-,-,+,-,-,-,-,-,
tʲ,1,kore1280,kor,NA,NA,5.59E+02,NA,FALSE,consonant,fake,0,-,-,-,-,+,-,-,-,-,-,-,-,-,-,0,0,+,+,-,-,+,+,-,+,-,0,0,0,-,-,-,-,-,-,-,-,
ȶ,1,kore1280,kor,NA,NA,560,NA,FALSE,consonant,fake,0,-,-,-,-,+,-,-,-,-,-,-,-,-,-,0,0,+,+,-,-,+,+,-,+,-,0,0,0,-,-,-,-,-,-,-,-,
ȶʰ,1,kore1280,kor,NA,NA,561,NA,FALSE,consonant,fake,0,-,-,-,-,+,-,-,-,-,-,-,-,-,-,0,0,+,+,-,-,+,+,-,+,-,0,0,0,-,-,+,-,-,-,-,-,
tɬ,1,kore1280,kor,NA,NA,562,NA,FALSE,consonant,fake,0,-,-,-,-,+,-,-,+,-,-,-,-,+,-,0,0,+,+,-,-,-,0,0,0,0,0,0,0,-,-,-,-,-,-,-,-,
tɬʰ,1,kore1280,kor,NA,NA,563,NA,FALSE,consonant,fake,0,-,-,-,-,+,-,-,+,-,-,-,-,+,-,0,0,+,+,-,-,-,0,0,0,0,0,0,0,-,-,+,-,-,-,-,-,
tⁿ,1,kore1280,kor,NA,NA,564,NA,FALSE,consonant,fake,0,-,-,-,-,+,"-,+",-,-,-,-,-,"-,+",-,-,0,0,+,+,-,-,-,0,0,0,0,0,0,0,"-,+",-,-,-,-,-,-,-,
tn,1,kore1280,kor,NA,NA,565,NA,FALSE,consonant,fake,0,-,-,-,-,+,"-,+",-,-,-,-,-,"-,+",-,-,0,0,+,+,-,-,-,0,0,0,0,0,0,0,"-,+",-,-,-,-,-,-,-,
tɾ,1,kore1280,kor,NA,NA,566,NA,FALSE,consonant,fake,0,-,-,-,-,+,"-,+","-,+",-,"-,+","-,+",-,-,-,-,0,0,+,+,-,-,-,0,0,0,0,0,0,0,"-,+",-,-,-,-,-,-,-,
ts,1,kore1280,kor,NA,NA,567,NA,FALSE,consonant,fake,0,-,-,-,-,+,-,-,+,-,-,-,-,-,-,0,0,+,+,-,+,-,0,0,0,0,0,0,0,-,-,-,-,-,-,-,-,
ts̪,1,kore1280,kor,NA,NA,5.68E+02,NA,FALSE,consonant,fake,0,-,-,-,-,+,-,-,+,-,-,-,-,-,-,0,0,+,+,+,+,-,0,0,0,0,0,0,0,-,-,-,-,-,-,-,-,
tsʰ,1,kore1280,kor,NA,NA,569,NA,FALSE,consonant,fake,0,-,-,-,-,+,-,-,+,-,-,-,-,-,-,0,0,+,+,-,+,-,0,0,0,0,0,0,0,-,-,+,-,-,-,-,-,
tʃ,1,kore1280,kor,NA,NA,570,NA,FALSE,consonant,fake,0,-,-,-,-,+,-,-,+,-,-,-,-,-,-,0,0,+,-,+,+,-,0,0,0,0,0,0,0,-,-,-,-,-,-,-,-,
tʃː,1,kore1280,kor,NA,NA,571,NA,FALSE,consonant,fake,0,-,-,-,+,+,-,-,+,-,-,-,-,-,-,0,0,+,-,+,+,-,0,0,0,0,0,0,0,-,-,-,-,-,-,-,-,
tʃʰ,1,kore1280,kor,NA,NA,572,NA,FALSE,consonant,fake,0,-,-,-,-,+,-,-,+,-,-,-,-,-,-,0,0,+,-,+,+,-,0,0,0,0,0,0,0,-,-,+,-,-,-,-,-,
ȶʷ,1,kore1280,kor,NA,NA,573,NA,FALSE,consonant,fake,0,-,-,-,-,+,-,-,-,-,-,-,-,-,+,+,-,+,+,-,-,+,+,-,+,-,0,0,0,-,-,-,-,-,-,-,-,
tʑ,1,kore1280,kor,NA,NA,574,NA,FALSE,consonant,fake,0,-,-,-,-,+,-,"-,+","-,+",-,-,-,-,-,-,0,0,+,+,"-,+","-,+","-,+",+,-,+,-,0,0,0,"-,+",-,-,-,-,-,-,-,
tˀ,1,kore1280,kor,NA,NA,575,NA,FALSE,consonant,fake,0,-,-,-,-,+,-,-,-,-,-,-,-,-,-,0,0,+,+,-,-,-,0,0,0,0,0,0,0,-,-,-,+,-,-,-,-,
ʈ,1,kore1280,kor,NA,NA,576,NA,FALSE,consonant,fake,0,-,-,-,-,+,-,-,-,-,-,-,-,-,-,0,0,+,-,-,-,-,0,0,0,0,0,0,0,-,-,-,-,-,-,-,-,
ʈʰ,1,kore1280,kor,NA,NA,5.77E+02,NA,FALSE,consonant,fake,0,-,-,-,-,+,-,-,-,-,-,-,-,-,-,0,0,+,-,-,-,-,0,0,0,0,0,0,0,-,-,+,-,-,-,-,-,
tʂ,1,kore1280,kor,NA,NA,578,NA,FALSE,consonant,fake,0,-,-,-,-,+,-,-,+,-,-,-,-,-,-,0,0,+,-,-,+,-,0,0,0,0,0,0,0,-,-,-,-,-,-,-,-,
tʂʰ,1,kore1280,kor,NA,NA,579,NA,FALSE,consonant,fake,0,-,-,-,-,+,-,-,+,-,-,-,-,-,-,0,0,+,-,-,+,-,0,0,0,0,0,0,0,-,-,+,-,-,-,-,-,
u,1,kore1280,kor,NA,NA,580,NA,FALSE,vowel,fake,0,-,+,-,-,-,+,+,0,+,-,-,-,-,+,+,-,-,0,0,0,+,+,-,-,+,+,-,-,+,-,-,-,0,-,-,0,
ũ,1,kore1280,kor,NA,NA,581,NA,FALSE,vowel,fake,0,-,+,-,-,-,+,+,0,+,-,-,+,-,+,+,-,-,0,0,0,+,+,-,-,+,+,-,-,+,-,-,-,0,-,-,0,
u̞,1,kore1280,kor,NA,NA,582,NA,FALSE,vowel,fake,0,-,+,-,-,-,+,+,0,+,-,-,-,-,+,+,-,-,0,0,0,+,+,-,-,+,0,-,-,+,-,-,-,0,-,-,0,
u̯,1,kore1280,kor,NA,NA,583,NA,FALSE,vowel,fake,0,-,-,-,-,-,+,+,0,+,-,-,-,-,+,+,-,-,0,0,0,+,+,-,-,+,+,-,-,+,-,-,-,0,-,-,0,
ṳ,1,kore1280,kor,NA,NA,584,NA,FALSE,vowel,fake,0,-,+,-,-,-,+,+,0,+,-,-,-,-,+,+,-,-,0,0,0,+,+,-,-,+,+,-,-,+,-,+,-,0,-,-,0,
ṳ̃,1,kore1280,kor,NA,NA,585,NA,FALSE,vowel,fake,0,-,+,-,-,-,+,+,0,+,-,-,+,-,+,+,-,-,0,0,0,+,+,-,-,+,+,-,-,+,-,+,-,0,-,-,0,
u̥,1,kore1280,kor,NA,NA,5.86E+02,NA,FALSE,vowel,fake,0,-,+,-,-,-,+,+,0,+,-,-,-,-,+,+,-,-,0,0,0,+,+,-,-,+,+,-,-,-,-,-,-,0,-,-,0,
ṵ,1,kore1280,kor,NA,NA,587,NA,FALSE,vowel,fake,0,-,+,-,-,-,+,+,0,+,-,-,-,-,+,+,-,-,0,0,0,+,+,-,-,+,+,-,-,+,-,-,+,0,-,-,0,
uʵ,1,kore1280,kor,NA,NA,588,NA,FALSE,vowel,fake,0,-,+,-,-,-,+,+,0,+,-,-,-,-,+,+,-,+,+,+,+,+,+,-,-,+,+,-,-,+,-,-,-,0,-,-,0,
uʵː,1,kore1280,kor,NA,NA,589,NA,FALSE,vowel,fake,0,-,+,-,+,-,+,+,0,+,-,-,-,-,+,+,-,+,+,+,+,+,+,-,-,+,+,-,-,+,-,-,-,0,-,-,0,
uː,1,kore1280,kor,NA,NA,590,NA,FALSE,vowel,fake,0,-,+,-,+,-,+,+,0,+,-,-,-,-,+,+,-,-,0,0,0,+,+,-,-,+,+,-,-,+,-,-,-,0,-,-,0,
ũː,1,kore1280,kor,NA,NA,591,NA,FALSE,vowel,fake,0,-,+,-,+,-,+,+,0,+,-,-,+,-,+,+,-,-,0,0,0,+,+,-,-,+,+,-,-,+,-,-,-,0,-,-,0,
ṳː,1,kore1280,kor,NA,NA,592,NA,FALSE,vowel,fake,0,-,+,-,+,-,+,+,0,+,-,-,-,-,+,+,-,-,0,0,0,+,+,-,-,+,+,-,-,+,-,+,-,0,-,-,0,
ṳ̃ː,1,kore1280,kor,NA,NA,593,NA,FALSE,vowel,fake,0,-,+,-,+,-,+,+,0,+,-,-,+,-,+,+,-,-,0,0,0,+,+,-,-,+,+,-,-,+,-,+,-,0,-,-,0,
ua,1,kore1280,kor,NA,NA,594,NA,FALSE,vowel,fake,0,-,+,-,-,-,+,+,0,+,-,-,-,-,"+,-",+,-,-,0,0,0,+,"+,-","-,+",-,"+,-",+,-,-,+,-,-,-,0,-,-,0,
u̯a,1,kore1280,kor,NA,NA,5.95E+02,NA,FALSE,vowel,fake,0,-,"-,+",-,-,-,+,+,0,+,-,-,-,-,"+,-",+,-,-,0,0,0,+,"+,-","-,+",-,"+,-",+,-,-,+,-,-,-,0,-,-,0,
u̯aː,1,kore1280,kor,NA,NA,596,NA,FALSE,vowel,fake,0,-,"-,+",-,"-,+",-,+,+,0,+,-,-,-,-,"+,-",+,-,-,0,0,0,+,"+,-","-,+",-,"+,-",+,-,-,+,-,-,-,0,-,-,0,
u̯ɐ,1,kore1280,kor,NA,NA,597,NA,FALSE,vowel,fake,0,-,"-,+",-,-,-,+,+,0,+,-,-,-,-,+,+,-,-,0,0,0,+,"+,-","-,+",-,"+,-",+,-,-,+,-,-,-,0,-,-,0,
u̯ɑ,1,kore1280,kor,NA,NA,598,NA,FALSE,vowel,fake,0,-,"-,+",-,-,-,+,+,0,+,-,-,-,-,"+,-",+,-,-,0,0,0,+,"+,-","-,+",-,+,+,-,-,+,-,-,-,0,-,-,0,
u̯ɑ̃,1,kore1280,kor,NA,NA,599,NA,FALSE,vowel,fake,0,-,"-,+",-,-,-,+,+,0,+,-,-,"-,+",-,"+,-",+,-,-,0,0,0,+,"+,-","-,+",-,+,+,-,-,+,-,-,-,0,-,-,0,
ue,1,kore1280,kor,NA,NA,600,NA,FALSE,vowel,fake,0,-,+,-,-,-,+,+,0,+,-,-,-,-,"+,-",+,-,-,0,0,0,+,"+,-",-,"-,+","+,-",+,-,-,+,-,-,-,0,-,-,0,
u̯e,1,kore1280,kor,NA,NA,601,NA,FALSE,vowel,fake,0,-,"-,+",-,-,-,+,+,0,+,-,-,-,-,"+,-",+,-,-,0,0,0,+,"+,-",-,"-,+","+,-",+,-,-,+,-,-,-,0,-,-,0,
uə,1,kore1280,kor,NA,NA,602,NA,FALSE,vowel,fake,0,-,+,-,-,-,+,+,0,+,-,-,-,-,"+,-",+,-,-,0,0,0,+,"+,-",-,-,"+,-","+,-",-,-,+,-,-,-,0,-,-,0,
u̯ə,1,kore1280,kor,NA,NA,603,NA,FALSE,vowel,fake,0,-,"-,+",-,-,-,+,+,0,+,-,-,-,-,"+,-",+,-,-,0,0,0,+,"+,-",-,-,"+,-","+,-",-,-,+,-,-,-,0,-,-,0,
uəi,1,kore1280,kor,NA,NA,6.04E+02,NA,FALSE,vowel,fake,0,-,+,-,-,-,+,+,0,+,-,-,-,-,"+,-,-",+,-,-,0,0,0,+,"+,-,+",-,"-,-,+","+,-,-","+,-,+",-,-,+,-,-,-,0,-,-,0,
u̯əi̯,1,kore1280,kor,NA,NA,605,NA,FALSE,vowel,fake,0,-,"-,+,-",-,-,-,+,+,0,+,-,-,-,-,"+,-,-",+,-,-,0,0,0,+,"+,-,+",-,"-,-,+","+,-,-","+,-,+",-,-,+,-,-,-,0,-,-,0,
u̯ɜ,1,kore1280,kor,NA,NA,606,NA,FALSE,vowel,fake,0,-,"-,+",-,-,-,+,+,0,+,-,-,-,-,"+,-",+,-,-,0,0,0,+,"+,-",-,-,"+,-","+,-",-,-,+,-,-,-,0,-,-,0,
u̯ɜi̯,1,kore1280,kor,NA,NA,607,NA,FALSE,vowel,fake,0,-,"-,+,-",-,-,-,+,+,0,+,-,-,-,-,"+,-,-",+,-,-,0,0,0,+,"+,-,+",-,"-,-,+","+,-,-","+,-,+",-,-,+,-,-,-,0,-,-,0,
ui,1,kore1280,kor,NA,NA,608,NA,FALSE,vowel,fake,0,-,+,-,-,-,+,+,0,+,-,-,-,-,"+,-",+,-,-,0,0,0,+,+,-,"-,+","+,-",+,-,-,+,-,-,-,0,-,-,0,
ui̯,1,kore1280,kor,NA,NA,609,NA,FALSE,vowel,fake,0,-,"+,-",-,-,-,+,+,0,+,-,-,-,-,"+,-",+,-,-,0,0,0,+,+,-,"-,+","+,-",+,-,-,+,-,-,-,0,-,-,0,
ũi̯,1,kore1280,kor,NA,NA,610,NA,FALSE,vowel,fake,0,-,"+,-",-,-,-,+,+,0,+,-,-,"+,-",-,"+,-",+,-,-,0,0,0,+,+,-,"-,+","+,-",+,-,-,+,-,-,-,0,-,-,0,
u̯i,1,kore1280,kor,NA,NA,611,NA,FALSE,vowel,fake,0,-,"-,+",-,-,-,+,+,0,+,-,-,-,-,"+,-",+,-,-,0,0,0,+,+,-,"-,+","+,-",+,-,-,+,-,-,-,0,-,-,0,
uo,1,kore1280,kor,NA,NA,612,NA,FALSE,vowel,fake,0,-,+,-,-,-,+,+,0,+,-,-,-,-,+,+,-,-,0,0,0,+,"+,-",-,-,+,+,-,-,+,-,-,-,0,-,-,0,
u̯o,1,kore1280,kor,NA,NA,6.13E+02,NA,FALSE,vowel,fake,0,-,"-,+",-,-,-,+,+,0,+,-,-,-,-,+,+,-,-,0,0,0,+,"+,-",-,-,+,+,-,-,+,-,-,-,0,-,-,0,
uɔ,1,kore1280,kor,NA,NA,614,NA,FALSE,vowel,fake,0,-,+,-,-,-,+,+,0,+,-,-,-,-,+,+,-,-,0,0,0,+,"+,-",-,-,+,"+,-",-,-,+,-,-,-,0,-,-,0,
u̯ɔ,1,kore1280,kor,NA,NA,615,NA,FALSE,vowel,fake,0,-,"-,+",-,-,-,+,+,0,+,-,-,-,-,+,+,-,-,0,0,0,+,"+,-",-,-,+,"+,-",-,-,+,-,-,-,0,-,-,0,
u̯ɔː,1,kore1280,kor,NA,NA,616,NA,FALSE,vowel,fake,0,-,"-,+",-,"-,+",-,+,+,0,+,-,-,-,-,+,+,-,-,0,0,0,+,"+,-",-,-,+,"+,-",-,-,+,-,-,-,0,-,-,0,
uˀ,1,kore1280,kor,NA,NA,617,NA,FALSE,vowel,fake,0,-,+,-,-,-,+,+,0,+,-,-,-,-,+,+,-,-,0,0,0,+,+,-,-,+,+,-,-,+,-,-,+,0,-,-,0,
ʉ,1,kore1280,kor,NA,NA,618,NA,FALSE,vowel,fake,0,-,+,-,-,-,+,+,0,+,-,-,-,-,+,+,-,-,0,0,0,+,+,-,-,-,+,-,-,+,-,-,-,0,-,-,0,
ʉ̞,1,kore1280,kor,NA,NA,619,NA,FALSE,vowel,fake,0,-,+,-,-,-,+,+,0,+,-,-,-,-,+,+,-,-,0,0,0,+,+,-,-,-,0,-,-,+,-,-,-,0,-,-,0,
ʉː,1,kore1280,kor,NA,NA,620,NA,FALSE,vowel,fake,0,-,+,-,+,-,+,+,0,+,-,-,-,-,+,+,-,-,0,0,0,+,+,-,-,-,+,-,-,+,-,-,-,0,-,-,0,
ɥ,1,kore1280,kor,NA,NA,621,NA,FALSE,consonant,fake,0,-,-,-,-,-,+,+,0,+,-,-,-,-,+,+,-,-,0,0,0,+,+,-,+,-,+,0,0,+,-,-,-,-,-,-,-,
ɯ,1,kore1280,kor,NA,NA,6.22E+02,NA,FALSE,vowel,fake,0,-,+,-,-,-,+,+,0,+,-,-,-,-,-,0,0,-,0,0,0,+,+,-,-,+,+,-,-,+,-,-,-,0,-,-,0,
ɯ̃,1,kore1280,kor,NA,NA,623,NA,FALSE,vowel,fake,0,-,+,-,-,-,+,+,0,+,-,-,+,-,-,0,0,-,0,0,0,+,+,-,-,+,+,-,-,+,-,-,-,0,-,-,0,
ɯ̤,1,kore1280,kor,NA,NA,624,NA,FALSE,vowel,fake,0,-,+,-,-,-,+,+,0,+,-,-,-,-,-,0,0,-,0,0,0,+,+,-,-,+,+,-,-,+,-,+,-,0,-,-,0,
ɯ̰,1,kore1280,kor,NA,NA,625,NA,FALSE,vowel,fake,0,-,+,-,-,-,+,+,0,+,-,-,-,-,-,0,0,-,0,0,0,+,+,-,-,+,+,-,-,+,-,-,+,0,-,-,0,
ɯː,1,kore1280,kor,NA,NA,626,NA,FALSE,vowel,fake,0,-,+,-,+,-,+,+,0,+,-,-,-,-,-,0,0,-,0,0,0,+,+,-,-,+,+,-,-,+,-,-,-,0,-,-,0,
ɯ̃ː,1,kore1280,kor,NA,NA,627,NA,FALSE,vowel,fake,0,-,+,-,+,-,+,+,0,+,-,-,+,-,-,0,0,-,0,0,0,+,+,-,-,+,+,-,-,+,-,-,-,0,-,-,0,
ɯ̯e,1,kore1280,kor,NA,NA,628,NA,FALSE,vowel,fake,0,-,"-,+",-,-,-,+,+,0,+,-,-,-,-,-,0,0,-,0,0,0,+,"+,-",-,"-,+","+,-",+,-,-,+,-,-,-,0,-,-,0,
ɰ,1,kore1280,kor,NA,NA,629,NA,FALSE,consonant,fake,0,-,-,-,-,-,+,+,0,+,-,-,-,-,-,0,0,-,0,0,0,+,+,-,-,+,+,0,0,+,-,-,-,-,-,-,-,
ɣ̞,1,kore1280,kor,NA,NA,630,NA,FALSE,consonant,fake,0,-,-,-,-,-,+,+,0,+,-,-,-,-,-,0,0,-,0,0,0,+,+,-,-,+,+,0,0,+,-,-,-,-,-,-,-,
ʊ,1,kore1280,kor,NA,NA,6.31E+02,NA,FALSE,vowel,fake,0,-,+,-,-,-,+,+,0,+,-,-,-,-,+,+,-,-,0,0,0,+,+,-,-,+,-,-,-,+,-,-,-,0,-,-,0,
ʊ̃,1,kore1280,kor,NA,NA,632,NA,FALSE,vowel,fake,0,-,+,-,-,-,+,+,0,+,-,-,+,-,+,+,-,-,0,0,0,+,+,-,-,+,-,-,-,+,-,-,-,0,-,-,0,
ʊ̤̃,1,kore1280,kor,NA,NA,633,NA,FALSE,vowel,fake,0,-,+,-,-,-,+,+,0,+,-,-,+,-,+,+,-,-,0,0,0,+,+,-,-,+,-,-,-,+,-,+,-,0,-,-,0,
ʊ̰̃,1,kore1280,kor,NA,NA,634,NA,FALSE,vowel,fake,0,-,+,-,-,-,+,+,0,+,-,-,+,-,+,+,-,-,0,0,0,+,+,-,-,+,-,-,-,+,-,-,+,0,-,-,0,
ʊː,1,kore1280,kor,NA,NA,635,NA,FALSE,vowel,fake,0,-,+,-,+,-,+,+,0,+,-,-,-,-,+,+,-,-,0,0,0,+,+,-,-,+,-,-,-,+,-,-,-,0,-,-,0,
ʊi̯,1,kore1280,kor,NA,NA,636,NA,FALSE,vowel,fake,0,-,"+,-",-,-,-,+,+,0,+,-,-,-,-,"+,-",+,-,-,0,0,0,+,+,-,"-,+","+,-","-,+",-,-,+,-,-,-,0,-,-,0,
ʊˀ,1,kore1280,kor,NA,NA,637,NA,FALSE,vowel,fake,0,-,+,-,-,-,+,+,0,+,-,-,-,-,+,+,-,-,0,0,0,+,+,-,-,+,-,-,-,+,-,-,+,0,-,-,0,
v,1,kore1280,kor,NA,NA,638,NA,FALSE,consonant,fake,0,-,-,-,-,+,-,+,+,-,-,-,-,-,+,-,+,-,0,0,0,-,0,0,0,0,0,0,0,+,-,-,-,-,-,-,-,
ꭒ,1,kore1280,kor,NA,NA,639,NA,FALSE,consonant,fake,0,-,+,-,-,+,-,+,+,-,-,-,-,-,+,-,+,-,0,0,0,-,0,0,0,0,0,0,0,+,-,-,-,-,-,-,-,
ꭒ̃,1,kore1280,kor,NA,NA,6.40E+02,NA,FALSE,consonant,fake,0,-,+,-,-,+,-,+,+,-,-,-,+,-,+,-,+,-,0,0,0,-,0,0,0,0,0,0,0,+,-,-,-,-,-,-,-,
vʷ,1,kore1280,kor,NA,NA,641,NA,FALSE,consonant,fake,0,-,-,-,-,+,-,+,+,-,-,-,-,-,+,+,-,-,0,0,0,-,0,0,0,0,0,0,0,+,-,-,-,-,-,-,-,
ʋ,1,kore1280,kor,NA,NA,642,NA,FALSE,consonant,fake,0,-,-,-,-,-,+,+,0,+,-,-,-,-,+,-,+,-,0,0,0,-,0,0,0,0,0,0,0,+,-,-,-,-,-,-,-,
ʌ,1,kore1280,kor,NA,NA,643,NA,FALSE,vowel,fake,0,-,+,-,-,-,+,+,0,+,-,-,-,-,-,0,0,-,0,0,0,+,-,-,-,+,-,-,-,+,-,-,-,0,-,-,0,
ʌ̆,1,kore1280,kor,NA,NA,644,NA,FALSE,vowel,fake,0,-,+,+,-,-,+,+,0,+,-,-,-,-,-,0,0,-,0,0,0,+,-,-,-,+,-,-,-,+,-,-,-,0,-,-,0,
ʌ̃,1,kore1280,kor,NA,NA,645,NA,FALSE,vowel,fake,0,-,+,-,-,-,+,+,0,+,-,-,+,-,-,0,0,-,0,0,0,+,-,-,-,+,-,-,-,+,-,-,-,0,-,-,0,
ʌ̤,1,kore1280,kor,NA,NA,646,NA,FALSE,vowel,fake,0,-,+,-,-,-,+,+,0,+,-,-,-,-,-,0,0,-,0,0,0,+,-,-,-,+,-,-,-,+,-,+,-,0,-,-,0,
ʌ̤̃,1,kore1280,kor,NA,NA,647,NA,FALSE,vowel,fake,0,-,+,-,-,-,+,+,0,+,-,-,+,-,-,0,0,-,0,0,0,+,-,-,-,+,-,-,-,+,-,+,-,0,-,-,0,
ʌː,1,kore1280,kor,NA,NA,648,NA,FALSE,vowel,fake,0,-,+,-,+,-,+,+,0,+,-,-,-,-,-,0,0,-,0,0,0,+,-,-,-,+,-,-,-,+,-,-,-,0,-,-,0,
ʌ̃ː,1,kore1280,kor,NA,NA,6.49E+02,NA,FALSE,vowel,fake,0,-,+,-,+,-,+,+,0,+,-,-,+,-,-,0,0,-,0,0,0,+,-,-,-,+,-,-,-,+,-,-,-,0,-,-,0,
ʌ̤ː,1,kore1280,kor,NA,NA,650,NA,FALSE,vowel,fake,0,-,+,-,+,-,+,+,0,+,-,-,-,-,-,0,0,-,0,0,0,+,-,-,-,+,-,-,-,+,-,+,-,0,-,-,0,
ʌ̤̃ː,1,kore1280,kor,NA,NA,651,NA,FALSE,vowel,fake,0,-,+,-,+,-,+,+,0,+,-,-,+,-,-,0,0,-,0,0,0,+,-,-,-,+,-,-,-,+,-,+,-,0,-,-,0,
ʌ̯e,1,kore1280,kor,NA,NA,652,NA,FALSE,vowel,fake,0,-,"-,+",-,-,-,+,+,0,+,-,-,-,-,-,0,0,-,0,0,0,+,-,-,"-,+","+,-","-,+",-,-,+,-,-,-,0,-,-,0,
ʌi̯,1,kore1280,kor,NA,NA,653,NA,FALSE,vowel,fake,0,-,"+,-",-,-,-,+,+,0,+,-,-,-,-,-,0,0,-,0,0,0,+,"-,+",-,"-,+","+,-","-,+",-,-,+,-,-,-,0,-,-,0,
ʌu̯,1,kore1280,kor,NA,NA,654,NA,FALSE,vowel,fake,0,-,"+,-",-,-,-,+,+,0,+,-,-,-,-,"-,+",+,-,-,0,0,0,+,"-,+",-,-,+,"-,+",-,-,+,-,-,-,0,-,-,0,
w,1,kore1280,kor,NA,NA,655,NA,FALSE,consonant,fake,0,-,-,-,-,-,+,+,0,+,-,-,-,-,+,+,-,-,0,0,0,+,+,-,-,+,+,0,0,+,-,-,-,-,-,-,-,
w̥,1,kore1280,kor,NA,NA,656,NA,FALSE,consonant,fake,0,-,-,-,-,-,+,+,0,+,-,-,-,-,+,+,-,-,0,0,0,+,+,-,-,+,+,0,0,-,-,-,-,-,-,-,-,
w̥ʲ,1,kore1280,kor,NA,NA,657,NA,FALSE,consonant,fake,0,-,-,-,-,-,+,+,0,+,-,-,-,-,+,+,-,-,0,0,0,+,+,-,+,-,+,0,0,-,-,-,-,-,-,-,-,
ʍ,1,kore1280,kor,NA,NA,6.58E+02,NA,FALSE,consonant,fake,0,-,-,-,-,-,-,+,+,-,-,-,-,-,+,+,-,-,0,0,0,+,+,-,-,+,+,0,0,-,-,+,-,-,-,-,-,
ʍʲ,1,kore1280,kor,NA,NA,659,NA,FALSE,consonant,fake,0,-,-,-,-,-,-,+,+,-,-,-,-,-,+,+,-,-,0,0,0,+,+,-,+,-,+,0,0,-,-,+,-,-,-,-,-,
x,1,kore1280,kor,NA,NA,660,NA,FALSE,consonant,fake,0,-,-,-,-,+,-,+,+,-,-,-,-,-,-,0,0,-,0,0,0,+,+,-,-,-,0,0,0,-,-,-,-,-,-,-,-,
xʰ,1,kore1280,kor,NA,NA,661,NA,FALSE,consonant,fake,0,-,-,-,-,+,-,+,+,-,-,-,-,-,-,0,0,-,0,0,0,+,+,-,-,-,0,0,0,-,-,+,-,-,-,-,-,
xʷ,1,kore1280,kor,NA,NA,662,NA,FALSE,consonant,fake,0,-,-,-,-,+,-,+,+,-,-,-,-,-,+,+,-,-,0,0,0,+,+,-,-,-,0,0,0,-,-,-,-,-,-,-,-,
y,1,kore1280,kor,NA,NA,663,NA,FALSE,vowel,fake,0,-,+,-,-,-,+,+,0,+,-,-,-,-,+,+,-,-,0,0,0,+,+,-,+,-,+,-,-,+,-,-,-,0,-,-,0,
ỹ,1,kore1280,kor,NA,NA,664,NA,FALSE,vowel,fake,0,-,+,-,-,-,+,+,0,+,-,-,+,-,+,+,-,-,0,0,0,+,+,-,+,-,+,-,-,+,-,-,-,0,-,-,0,
y̤,1,kore1280,kor,NA,NA,665,NA,FALSE,vowel,fake,0,-,+,-,-,-,+,+,0,+,-,-,-,-,+,+,-,-,0,0,0,+,+,-,+,-,+,-,-,+,-,+,-,0,-,-,0,
y̰,1,kore1280,kor,NA,NA,666,NA,FALSE,vowel,fake,0,-,+,-,-,-,+,+,0,+,-,-,-,-,+,+,-,-,0,0,0,+,+,-,+,-,+,-,-,+,-,-,+,0,-,-,0,
yʵ,1,kore1280,kor,NA,NA,6.67E+02,NA,FALSE,vowel,fake,0,-,+,-,-,-,+,+,0,+,-,-,-,-,+,+,-,+,+,+,+,+,+,-,+,-,+,-,-,+,-,-,-,0,-,-,0,
yʵː,1,kore1280,kor,NA,NA,668,NA,FALSE,vowel,fake,0,-,+,-,+,-,+,+,0,+,-,-,-,-,+,+,-,+,+,+,+,+,+,-,+,-,+,-,-,+,-,-,-,0,-,-,0,
yː,1,kore1280,kor,NA,NA,669,NA,FALSE,vowel,fake,0,-,+,-,+,-,+,+,0,+,-,-,-,-,+,+,-,-,0,0,0,+,+,-,+,-,+,-,-,+,-,-,-,0,-,-,0,
ỹː,1,kore1280,kor,NA,NA,670,NA,FALSE,vowel,fake,0,-,+,-,+,-,+,+,0,+,-,-,+,-,+,+,-,-,0,0,0,+,+,-,+,-,+,-,-,+,-,-,-,0,-,-,0,
y̯ɐ,1,kore1280,kor,NA,NA,671,NA,FALSE,vowel,fake,0,-,"-,+",-,-,-,+,+,0,+,-,-,-,-,+,+,-,-,0,0,0,+,"+,-","-,+","+,-",-,+,-,-,+,-,-,-,0,-,-,0,
y̯e,1,kore1280,kor,NA,NA,672,NA,FALSE,vowel,fake,0,-,"-,+",-,-,-,+,+,0,+,-,-,-,-,"+,-",+,-,-,0,0,0,+,"+,-",-,+,-,+,-,-,+,-,-,-,0,-,-,0,
y̯ɛ,1,kore1280,kor,NA,NA,673,NA,FALSE,vowel,fake,0,-,"-,+",-,-,-,+,+,0,+,-,-,-,-,"+,-",+,-,-,0,0,0,+,"+,-",-,+,-,"+,-",-,-,+,-,-,-,0,-,-,0,
y̯ɜ̃,1,kore1280,kor,NA,NA,674,NA,FALSE,vowel,fake,0,-,"-,+",-,-,-,+,+,0,+,-,-,"-,+",-,"+,-",+,-,-,0,0,0,+,"+,-",-,"+,-",-,"+,-",-,-,+,-,-,-,0,-,-,0,
y̯i,1,kore1280,kor,NA,NA,675,NA,FALSE,vowel,fake,0,-,"-,+",-,-,-,+,+,0,+,-,-,-,-,"+,-",+,-,-,0,0,0,+,+,-,+,-,+,-,-,+,-,-,-,0,-,-,0,
ʏ,1,kore1280,kor,NA,NA,6.76E+02,NA,FALSE,vowel,fake,0,-,+,-,-,-,+,+,0,+,-,-,-,-,+,+,-,-,0,0,0,+,+,-,+,-,-,-,-,+,-,-,-,0,-,-,0,
z,1,kore1280,kor,NA,NA,677,NA,FALSE,consonant,fake,0,-,-,-,-,+,-,+,+,-,-,-,-,-,-,0,0,+,+,-,+,-,0,0,0,0,0,0,0,+,-,-,-,-,-,-,-,
ɹ͓,1,kore1280,kor,NA,NA,678,NA,FALSE,consonant,fake,0,-,-,-,-,+,-,+,+,-,-,-,-,-,-,0,0,+,+,-,+,-,0,0,0,0,0,0,0,+,-,-,-,-,-,-,-,
ɿ,1,kore1280,kor,NA,NA,679,NA,FALSE,consonant,fake,0,-,+,-,-,+,-,+,+,-,-,-,-,-,-,0,0,+,+,-,+,-,0,0,0,0,0,0,0,+,-,-,-,-,-,-,-,
z̪,1,kore1280,kor,NA,NA,680,NA,FALSE,consonant,fake,0,-,-,-,-,+,-,+,+,-,-,-,-,-,-,0,0,+,+,+,+,-,0,0,0,0,0,0,0,+,-,-,-,-,-,-,-,
z̺,1,kore1280,kor,NA,NA,681,NA,FALSE,consonant,fake,0,-,-,-,-,+,-,+,+,-,-,-,-,-,-,0,0,+,+,-,+,-,0,0,0,0,0,0,0,+,-,-,-,-,-,-,-,
ʐ,1,kore1280,kor,NA,NA,682,NA,FALSE,consonant,fake,0,-,-,-,-,+,-,+,+,-,-,-,-,-,-,0,0,+,-,-,+,-,0,0,0,0,0,0,0,+,-,-,-,-,-,-,-,
ʅ,1,kore1280,kor,NA,NA,683,NA,FALSE,consonant,fake,0,-,+,-,-,+,-,+,+,-,-,-,-,-,-,0,0,+,-,-,+,-,0,0,0,0,0,0,0,+,-,-,-,-,-,-,-,
ʑ,1,kore1280,kor,NA,NA,684,NA,FALSE,consonant,fake,0,-,-,-,-,+,-,+,+,-,-,-,-,-,-,0,0,+,+,+,+,+,+,-,+,-,0,0,0,+,-,-,-,-,-,-,-,
ʒ,1,kore1280,kor,NA,NA,6.85E+02,NA,FALSE,consonant,fake,0,-,-,-,-,+,-,+,+,-,-,-,-,-,-,0,0,+,-,+,+,-,0,0,0,0,0,0,0,+,-,-,-,-,-,-,-,
ɿ̠,1,kore1280,kor,NA,NA,686,NA,FALSE,consonant,fake,0,-,+,-,-,+,-,+,+,-,-,-,-,-,-,0,0,+,-,+,+,-,0,0,0,0,0,0,0,+,-,-,-,-,-,-,-,
ʔ,1,kore1280,kor,NA,NA,687,NA,FALSE,consonant,fake,0,-,-,-,-,+,-,-,-,-,-,-,-,-,-,0,0,-,0,0,0,-,0,0,0,0,0,0,0,-,-,-,+,-,-,-,-,
ʔʷ,1,kore1280,kor,NA,NA,688,NA,FALSE,consonant,fake,0,-,-,-,-,+,-,-,-,-,-,-,-,-,+,+,-,-,0,0,0,-,0,0,0,0,0,0,0,-,-,-,+,-,-,-,-,
ˀʝ,1,kore1280,kor,NA,NA,689,NA,FALSE,consonant,fake,0,-,-,-,-,+,-,+,+,-,-,-,-,-,-,0,0,+,-,+,-,+,+,-,+,-,0,0,0,+,-,-,"+,-",-,-,-,-,
ˀm,1,kore1280,kor,NA,NA,690,NA,FALSE,consonant,fake,0,-,-,-,-,+,+,-,0,-,-,-,+,-,+,-,-,-,0,0,0,-,0,0,0,0,0,0,0,+,-,-,"+,-",-,-,-,-,
ˀn,1,kore1280,kor,NA,NA,691,NA,FALSE,consonant,fake,0,-,-,-,-,+,+,-,0,-,-,-,+,-,-,0,0,+,+,-,-,-,0,0,0,0,0,0,0,+,-,-,"+,-",-,-,-,-,
β,1,kore1280,kor,NA,NA,692,NA,FALSE,consonant,fake,0,-,-,-,-,+,-,+,+,-,-,-,-,-,+,-,-,-,0,0,0,-,0,0,0,0,0,0,0,+,-,-,-,-,-,-,-,
βʲ,1,kore1280,kor,NA,NA,693,NA,FALSE,consonant,fake,0,-,-,-,-,+,-,+,+,-,-,-,-,-,+,-,-,-,0,0,0,+,+,-,+,-,0,0,0,+,-,-,-,-,-,-,-,
βʷ,1,kore1280,kor,NA,NA,6.94E+02,NA,FALSE,consonant,fake,0,-,-,-,-,+,-,+,+,-,-,-,-,-,+,+,-,-,0,0,0,-,0,0,0,0,0,0,0,+,-,-,-,-,-,-,-,
βʷˠ,1,kore1280,kor,NA,NA,695,NA,FALSE,consonant,fake,0,-,-,-,-,+,-,+,+,-,-,-,-,-,+,+,-,-,0,0,0,+,+,-,-,-,0,0,0,+,-,-,-,-,-,-,-,
θ,1,kore1280,kor,NA,NA,696,NA,FALSE,consonant,fake,0,-,-,-,-,+,-,+,+,-,-,-,-,-,-,0,0,+,+,+,-,-,0,0,0,0,0,0,0,-,-,-,-,-,-,-,-,
χ,1,kore1280,kor,NA,NA,697,NA,FALSE,consonant,fake,0,-,-,-,-,+,-,+,+,-,-,-,-,-,-,0,0,-,0,0,0,+,-,-,-,+,0,0,0,-,-,-,-,-,-,-,-,